{"type": "FeatureCollection", "features": [{"type": "Feature", "properties": {"id": "ghost_RH3326_20240629135457", "plate_no": "RH3326", "gap_start_time": "2024-06-29T13:54:57", "gap_end_time": "2024-06-29T16:01:00", "gap_duration_min": 126.05, "wasted_distance_km": 6.371, "prev_trip": "DA240629004911", "next_trip": "DA240629038211", "prev_O": [114.1638596, 22.2467986], "next_O": [114.1332859, 22.2850042]}, "geometry": {"type": "LineString", "coordinates": [[114.194765, 22.288141], [114.132916, 22.2854]]}}, {"type": "Feature", "properties": {"id": "ghost_RH3326_20240629161530", "plate_no": "RH3326", "gap_start_time": "2024-06-29T16:15:30", "gap_end_time": "2024-06-29T17:00:30", "gap_duration_min": 45.0, "wasted_distance_km": 1.715, "prev_trip": "DA240629038211", "next_trip": "DA240629002601", "prev_O": [114.1332859, 22.2850042], "next_O": [114.1269149, 22.2820974]}, "geometry": {"type": "LineString", "coordinates": [[114.141986, 22.28786], [114.126443, 22.282301]]}}, {"type": "Feature", "properties": {"id": "ghost_RV4210_20240629111320", "plate_no": "RV4210", "gap_start_time": "2024-06-29T11:13:20", "gap_end_time": "2024-06-29T14:00:18", "gap_duration_min": 166.97, "wasted_distance_km": 0.008, "prev_trip": "DA240629006811", "next_trip": "DA240629007011", "prev_O": [114.1746228, 22.3793292], "next_O": [113.934502, 22.319401]}, "geometry": {"type": "LineString", "coordinates": [[113.934071, 22.319586], [113.933993, 22.319608]]}}, {"type": "Feature", "properties": {"id": "ghost_RV7493_20240629121621", "plate_no": "RV7493", "gap_start_time": "2024-06-29T12:16:21", "gap_end_time": "2024-06-29T18:53:37", "gap_duration_min": 397.27, "wasted_distance_km": 6.015, "prev_trip": "DA240629031402", "next_trip": "DA240629010611", "prev_O": [114.158755, 22.338014], "next_O": [114.170658, 22.3132787]}, "geometry": {"type": "LineString", "coordinates": [[114.228353, 22.311123], [114.170078, 22.315553]]}}, {"type": "Feature", "properties": {"id": "ghost_RV7493_20240629191937", "plate_no": "RV7493", "gap_start_time": "2024-06-29T19:19:37", "gap_end_time": "2024-06-29T22:01:01", "gap_duration_min": 161.4, "wasted_distance_km": 11.669, "prev_trip": "DA240629010611", "next_trip": "DA240629001902", "prev_O": [114.170658, 22.3132787], "next_O": [114.2129425, 22.4249757]}, "geometry": {"type": "LineString", "coordinates": [[114.190383, 22.32137], [114.21376, 22.424065]]}}, {"type": "Feature", "properties": {"id": "ghost_RV8266_20240629125551", "plate_no": "RV8266", "gap_start_time": "2024-06-29T12:55:51", "gap_end_time": "2024-06-29T19:00:18", "gap_duration_min": 364.45, "wasted_distance_km": 4.495, "prev_trip": "DA240629011802", "next_trip": "DA240629024902", "prev_O": [114.1832294, 22.3243594], "next_O": [114.1743747, 22.3091816]}, "geometry": {"type": "LineString", "coordinates": [[114.197528, 22.343635], [114.174975, 22.309011]]}}, {"type": "Feature", "properties": {"id": "ghost_RV8266_20240629192448", "plate_no": "RV8266", "gap_start_time": "2024-06-29T19:24:48", "gap_end_time": "2024-06-29T21:45:21", "gap_duration_min": 140.55, "wasted_distance_km": 12.971, "prev_trip": "DA240629024902", "next_trip": "DA240629002402", "prev_O": [114.1743747, 22.3091816], "next_O": [114.2129425, 22.4249757]}, "geometry": {"type": "LineString", "coordinates": [[114.177641, 22.312601], [114.21224, 22.424778]]}}, {"type": "Feature", "properties": {"id": "ghost_RX5674_20240629171253", "plate_no": "RX5674", "gap_start_time": "2024-06-29T17:12:53", "gap_end_time": "2024-06-29T21:45:06", "gap_duration_min": 272.22, "wasted_distance_km": 0.213, "prev_trip": "DA240629002501", "next_trip": "DA240629002502", "prev_O": [114.2661118, 22.3189492], "next_O": [114.2129425, 22.4249757]}, "geometry": {"type": "LineString", "coordinates": [[114.213818, 22.423648], [114.212313, 22.424961]]}}, {"type": "Feature", "properties": {"id": "ghost_SM140_20240629081639", "plate_no": "SM140", "gap_start_time": "2024-06-29T08:16:39", "gap_end_time": "2024-06-29T09:30:04", "gap_duration_min": 73.42, "wasted_distance_km": 5.811, "prev_trip": "DA240629015811", "next_trip": "DA240629033601", "prev_O": [114.2386318, 22.3044081], "next_O": [114.1809256, 22.3814192]}, "geometry": {"type": "LineString", "coordinates": [[114.15584, 22.334583], [114.180586, 22.381563]]}}, {"type": "Feature", "properties": {"id": "ghost_SM140_20240629094735", "plate_no": "SM140", "gap_start_time": "2024-06-29T09:47:35", "gap_end_time": "2024-06-29T12:00:06", "gap_duration_min": 132.52, "wasted_distance_km": 2.044, "prev_trip": "DA240629033601", "next_trip": "DA240629025801", "prev_O": [114.1809256, 22.3814192], "next_O": [114.1943978, 22.401522]}, "geometry": {"type": "LineString", "coordinates": [[114.211348, 22.413145], [114.195421, 22.402143]]}}, {"type": "Feature", "properties": {"id": "ghost_SM140_20240629122406", "plate_no": "SM140", "gap_start_time": "2024-06-29T12:24:06", "gap_end_time": "2024-06-29T13:00:05", "gap_duration_min": 35.98, "wasted_distance_km": 2.397, "prev_trip": "DA240629025801", "next_trip": "DA240629034711", "prev_O": [114.1943978, 22.401522], "next_O": [114.1718808, 22.3194952]}, "geometry": {"type": "LineString", "coordinates": [[114.17935, 22.339691], [114.171908, 22.31926]]}}, {"type": "Feature", "properties": {"id": "ghost_SM453_20240629112247", "plate_no": "SM453", "gap_start_time": "2024-06-29T11:22:47", "gap_end_time": "2024-06-29T13:00:14", "gap_duration_min": 97.45, "wasted_distance_km": 24.72, "prev_trip": "DA240629006411", "next_trip": "DA240629011311", "prev_O": [114.2570108, 22.3258022], "next_O": [114.1721324, 22.2936055]}, "geometry": {"type": "LineString", "coordinates": [[113.934166, 22.319581], [114.172923, 22.294471]]}}, {"type": "Feature", "properties": {"id": "ghost_SM453_20240629130544", "plate_no": "SM453", "gap_start_time": "2024-06-29T13:05:44", "gap_end_time": "2024-06-29T16:00:26", "gap_duration_min": 174.7, "wasted_distance_km": 13.209, "prev_trip": "DA240629011311", "next_trip": "DA240629035411", "prev_O": [114.1721324, 22.2936055], "next_O": [114.2113817, 22.4136093]}, "geometry": {"type": "LineString", "coordinates": [[114.175688, 22.299005], [114.211651, 22.413048]]}}, {"type": "Feature", "properties": {"id": "ghost_TC1655_20240629134246", "plate_no": "TC1655", "gap_start_time": "2024-06-29T13:42:46", "gap_end_time": "2024-06-29T14:45:16", "gap_duration_min": 62.5, "wasted_distance_km": 4.91, "prev_trip": "DA240629004011", "next_trip": "DA240629001011", "prev_O": [114.1256579, 22.2813429], "next_O": [114.2336165, 22.2637098]}, "geometry": {"type": "LineString", "coordinates": [[114.191066, 22.285255], [114.233088, 22.26433]]}}, {"type": "Feature", "properties": {"id": "ghost_TC1655_20240629145746", "plate_no": "TC1655", "gap_start_time": "2024-06-29T14:57:46", "gap_end_time": "2024-06-29T16:14:46", "gap_duration_min": 77.0, "wasted_distance_km": 0.279, "prev_trip": "DA240629001011", "next_trip": "DA240629001111", "prev_O": [114.2336165, 22.2637098], "next_O": [114.2336165, 22.2637098]}, "geometry": {"type": "LineString", "coordinates": [[114.235886, 22.262193], [114.234621, 22.264411]]}}, {"type": "Feature", "properties": {"id": "ghost_TC6931_20240629134800", "plate_no": "TC6931", "gap_start_time": "2024-06-29T13:48:00", "gap_end_time": "2024-06-29T15:00:00", "gap_duration_min": 72.0, "wasted_distance_km": 0.275, "prev_trip": "DA240629011701", "next_trip": "DA240629011702", "prev_O": [114.1060175, 22.3439865], "next_O": [114.1675891, 22.3073197]}, "geometry": {"type": "LineString", "coordinates": [[114.167643, 22.30964], [114.167543, 22.307166]]}}, {"type": "Feature", "properties": {"id": "ghost_TC6931_20240629153107", "plate_no": "TC6931", "gap_start_time": "2024-06-29T15:31:07", "gap_end_time": "2024-06-29T16:40:00", "gap_duration_min": 68.88, "wasted_distance_km": 13.232, "prev_trip": "DA240629011702", "next_trip": "DA240629020202", "prev_O": [114.1675891, 22.3073197], "next_O": [114.2113817, 22.4136093]}, "geometry": {"type": "LineString", "coordinates": [[114.106221, 22.344068], [114.211335, 22.412723]]}}, {"type": "Feature", "properties": {"id": "ghost_TC6931_20240629171300", "plate_no": "TC6931", "gap_start_time": "2024-06-29T17:13:00", "gap_end_time": "2024-06-29T18:30:00", "gap_duration_min": 77.0, "wasted_distance_km": 0.174, "prev_trip": "DA240629020202", "next_trip": "DA240629004411", "prev_O": [114.2113817, 22.4136093], "next_O": [114.1941178, 22.2884225]}, "geometry": {"type": "LineString", "coordinates": [[114.197153, 22.287241], [114.195458, 22.287283]]}}, {"type": "Feature", "properties": {"id": "ghost_TC6931_20240629192600", "plate_no": "TC6931", "gap_start_time": "2024-06-29T19:26:00", "gap_end_time": "2024-06-29T22:00:27", "gap_duration_min": 154.45, "wasted_distance_km": 6.822, "prev_trip": "DA240629004411", "next_trip": "DA240629001802", "prev_O": [114.1941178, 22.2884225], "next_O": [114.2129425, 22.4249757]}, "geometry": {"type": "LineString", "coordinates": [[114.182181, 22.370448], [114.212158, 22.425186]]}}, {"type": "Feature", "properties": {"id": "ghost_TF443_20240629094142", "plate_no": "TF443", "gap_start_time": "2024-06-29T09:41:42", "gap_end_time": "2024-06-29T10:45:13", "gap_duration_min": 63.52, "wasted_distance_km": 1.715, "prev_trip": "DA240629012001", "next_trip": "DA240629034611", "prev_O": [114.1482567, 22.5029962], "next_O": [114.1655443, 22.3340747]}, "geometry": {"type": "LineString", "coordinates": [[114.178455, 22.324356], [114.165406, 22.333951]]}}, {"type": "Feature", "properties": {"id": "ghost_TF443_20240629111243", "plate_no": "TF443", "gap_start_time": "2024-06-29T11:12:43", "gap_end_time": "2024-06-29T12:50:13", "gap_duration_min": 97.5, "wasted_distance_km": 5.681, "prev_trip": "DA240629034611", "next_trip": "DA240629020911", "prev_O": [114.1655443, 22.3340747], "next_O": [114.2287366, 22.3118568]}, "geometry": {"type": "LineString", "coordinates": [[114.174805, 22.319973], [114.228723, 22.3089]]}}, {"type": "Feature", "properties": {"id": "ghost_TV9732_20240629155527", "plate_no": "TV9732", "gap_start_time": "2024-06-29T15:55:27", "gap_end_time": "2024-06-29T17:30:18", "gap_duration_min": 94.85, "wasted_distance_km": 0.189, "prev_trip": "DA240629008211", "next_trip": "DA240629016501", "prev_O": [114.2022798, 22.3436147], "next_O": [114.2028248, 22.3407664]}, "geometry": {"type": "LineString", "coordinates": [[114.201885, 22.342446], [114.202511, 22.340845]]}}, {"type": "Feature", "properties": {"id": "ghost_TV9732_20240629175948", "plate_no": "TV9732", "gap_start_time": "2024-06-29T17:59:48", "gap_end_time": "2024-06-29T18:45:18", "gap_duration_min": 45.5, "wasted_distance_km": 1.507, "prev_trip": "DA240629016501", "next_trip": "DA240629022011", "prev_O": [114.2028248, 22.3407664], "next_O": [114.1977586, 22.2904115]}, "geometry": {"type": "LineString", "coordinates": [[114.18687, 22.280996], [114.197451, 22.290363]]}}, {"type": "Feature", "properties": {"id": "ghost_TV9732_20240629190618", "plate_no": "TV9732", "gap_start_time": "2024-06-29T19:06:18", "gap_end_time": "2024-06-29T22:00:04", "gap_duration_min": 173.77, "wasted_distance_km": 16.061, "prev_trip": "DA240629022011", "next_trip": "DA240629001602", "prev_O": [114.1977586, 22.2904115], "next_O": [114.2129425, 22.4249757]}, "geometry": {"type": "LineString", "coordinates": [[114.273198, 22.292196], [114.212, 22.425083]]}}, {"type": "Feature", "properties": {"id": "ghost_TW274_20240629085125", "plate_no": "TW274", "gap_start_time": "2024-06-29T08:51:25", "gap_end_time": "2024-06-29T11:00:13", "gap_duration_min": 128.8, "wasted_distance_km": 1.739, "prev_trip": "DA240629023301", "next_trip": "DA240629028801", "prev_O": [114.227845, 22.304483], "next_O": [114.177739, 22.31337]}, "geometry": {"type": "LineString", "coordinates": [[114.185466, 22.327096], [114.177928, 22.313095]]}}, {"type": "Feature", "properties": {"id": "ghost_TW274_20240629111843", "plate_no": "TW274", "gap_start_time": "2024-06-29T11:18:43", "gap_end_time": "2024-06-29T12:00:28", "gap_duration_min": 41.75, "wasted_distance_km": 2.756, "prev_trip": "DA240629028801", "next_trip": "DA240629029711", "prev_O": [114.177739, 22.31337], "next_O": [114.163731, 22.331833]}, "geometry": {"type": "LineString", "coordinates": [[114.170355, 22.307905], [114.163831, 22.331946]]}}, {"type": "Feature", "properties": {"id": "ghost_TW6581_20240629085022", "plate_no": "TW6581", "gap_start_time": "2024-06-29T08:50:22", "gap_end_time": "2024-06-29T10:30:01", "gap_duration_min": 99.65, "wasted_distance_km": 9.413, "prev_trip": "DA240629015201", "next_trip": "DA240629020101", "prev_O": [114.1730312, 22.4612198], "next_O": [114.2642247, 22.3155765]}, "geometry": {"type": "LineString", "coordinates": [[114.172461, 22.314621], [114.263951, 22.316285]]}}, {"type": "Feature", "properties": {"id": "ghost_TW6581_20240629104631", "plate_no": "TW6581", "gap_start_time": "2024-06-29T10:46:31", "gap_end_time": "2024-06-29T14:15:25", "gap_duration_min": 208.9, "wasted_distance_km": 13.381, "prev_trip": "DA240629020101", "next_trip": "DA240629002902", "prev_O": [114.2642247, 22.3155765], "next_O": [114.173077, 22.4611085]}, "geometry": {"type": "LineString", "coordinates": [[114.198041, 22.343323], [114.173041, 22.461425]]}}, {"type": "Feature", "properties": {"id": "ghost_TW8217_20240629104449", "plate_no": "TW8217", "gap_start_time": "2024-06-29T10:44:49", "gap_end_time": "2024-06-29T12:45:25", "gap_duration_min": 120.6, "wasted_distance_km": 1.714, "prev_trip": "DA240629012811", "next_trip": "DA240629021702", "prev_O": [114.1786768, 22.3122616], "next_O": [114.1678015, 22.3005315]}, "geometry": {"type": "LineString", "coordinates": [[114.172523, 22.31394], [114.167298, 22.299305]]}}, {"type": "Feature", "properties": {"id": "ghost_TW8217_20240629134059", "plate_no": "TW8217", "gap_start_time": "2024-06-29T13:40:59", "gap_end_time": "2024-06-29T15:35:39", "gap_duration_min": 114.67, "wasted_distance_km": 1.101, "prev_trip": "DA240629021702", "next_trip": "DA240629005502", "prev_O": [114.1678015, 22.3005315], "next_O": [114.257666, 22.312751]}, "geometry": {"type": "LineString", "coordinates": [[114.256576, 22.32172], [114.257966, 22.311903]]}}, {"type": "Feature", "properties": {"id": "ghost_TW8217_20240629155809", "plate_no": "TW8217", "gap_start_time": "2024-06-29T15:58:09", "gap_end_time": "2024-06-29T17:00:09", "gap_duration_min": 62.0, "wasted_distance_km": 7.534, "prev_trip": "DA240629005502", "next_trip": "DA240629005211", "prev_O": [114.257666, 22.312751], "next_O": [114.1941178, 22.2884225]}, "geometry": {"type": "LineString", "coordinates": [[114.255081, 22.326851], [114.194836, 22.288333]]}}, {"type": "Feature", "properties": {"id": "ghost_TX9739_20240629140651", "plate_no": "TX9739", "gap_start_time": "2024-06-29T14:06:51", "gap_end_time": "2024-06-29T15:00:20", "gap_duration_min": 53.48, "wasted_distance_km": 0.71, "prev_trip": "DA240629037302", "next_trip": "DA240629018111", "prev_O": [114.1676132, 22.3073911], "next_O": [114.195006, 22.378829]}, "geometry": {"type": "LineString", "coordinates": [[114.193833, 22.385125], [114.194913, 22.378815]]}}, {"type": "Feature", "properties": {"id": "ghost_TX9893_20240629084336", "plate_no": "TX9893", "gap_start_time": "2024-06-29T08:43:36", "gap_end_time": "2024-06-29T14:20:11", "gap_duration_min": 336.58, "wasted_distance_km": 24.917, "prev_trip": "DA240629036611", "next_trip": "DA240629017511", "prev_O": [114.2239805, 22.4148802], "next_O": [114.192812, 22.308068]}, "geometry": {"type": "LineString", "coordinates": [[113.950125, 22.31707], [114.192143, 22.307898]]}}, {"type": "Feature", "properties": {"id": "ghost_TY3250_20240629131529", "plate_no": "TY3250", "gap_start_time": "2024-06-29T13:15:29", "gap_end_time": "2024-06-29T19:00:13", "gap_duration_min": 344.73, "wasted_distance_km": 9.608, "prev_trip": "DA240629027802", "next_trip": "DA240629038002", "prev_O": [114.207831, 22.32266], "next_O": [114.2260703, 22.4165537]}, "geometry": {"type": "LineString", "coordinates": [[114.183318, 22.339851], [114.226388, 22.416536]]}}, {"type": "Feature", "properties": {"id": "ghost_TY3250_20240629191443", "plate_no": "TY3250", "gap_start_time": "2024-06-29T19:14:43", "gap_end_time": "2024-06-29T20:00:13", "gap_duration_min": 45.5, "wasted_distance_km": 7.092, "prev_trip": "DA240629038002", "next_trip": "DA240629029811", "prev_O": [114.2260703, 22.4165537], "next_O": [114.185168, 22.3394295]}, "geometry": {"type": "LineString", "coordinates": [[114.218778, 22.395153], [114.185038, 22.33953]]}}, {"type": "Feature", "properties": {"id": "ghost_UL6685_20240629064142", "plate_no": "UL6685", "gap_start_time": "2024-06-29T06:41:42", "gap_end_time": "2024-06-29T11:01:00", "gap_duration_min": 259.3, "wasted_distance_km": 6.107, "prev_trip": "DA240629014711", "next_trip": "DA240629017111", "prev_O": [114.2018517, 22.3360239], "next_O": [114.1712374, 22.3730379]}, "geometry": {"type": "LineString", "coordinates": [[114.169556, 22.317861], [114.171575, 22.372753]]}}, {"type": "Feature", "properties": {"id": "ghost_UL6685_20240629111830", "plate_no": "UL6685", "gap_start_time": "2024-06-29T11:18:30", "gap_end_time": "2024-06-29T12:15:00", "gap_duration_min": 56.5, "wasted_distance_km": 7.739, "prev_trip": "DA240629017111", "next_trip": "DA240629021311", "prev_O": [114.1712374, 22.3730379], "next_O": [114.1613761, 22.3200828]}, "geometry": {"type": "LineString", "coordinates": [[114.18927, 22.384755], [114.161473, 22.320081]]}}, {"type": "Feature", "properties": {"id": "ghost_UL7617_20240629095535", "plate_no": "UL7617", "gap_start_time": "2024-06-29T09:55:35", "gap_end_time": "2024-06-29T12:00:05", "gap_duration_min": 124.5, "wasted_distance_km": 22.791, "prev_trip": "DA240629011211", "next_trip": "DA240629033501", "prev_O": [113.9668924, 22.4106153], "next_O": [113.9756632, 22.3850545]}, "geometry": {"type": "LineString", "coordinates": [[114.173956, 22.294725], [113.97509, 22.385145]]}}, {"type": "Feature", "properties": {"id": "ghost_UL7617_20240629123335", "plate_no": "UL7617", "gap_start_time": "2024-06-29T12:33:35", "gap_end_time": "2024-06-29T13:00:05", "gap_duration_min": 26.5, "wasted_distance_km": 0.058, "prev_trip": "DA240629033501", "next_trip": "DA240629033502", "prev_O": [113.9756632, 22.3850545], "next_O": [113.9196719, 22.420042]}, "geometry": {"type": "LineString", "coordinates": [[113.919226, 22.41978], [113.919743, 22.419993]]}}, {"type": "Feature", "properties": {"id": "ghost_UL7617_20240629132335", "plate_no": "UL7617", "gap_start_time": "2024-06-29T13:23:35", "gap_end_time": "2024-06-29T16:45:04", "gap_duration_min": 201.48, "wasted_distance_km": 21.55, "prev_trip": "DA240629033502", "next_trip": "DA240629013511", "prev_O": [113.9196719, 22.420042], "next_O": [114.1842358, 22.3775727]}, "geometry": {"type": "LineString", "coordinates": [[113.974906, 22.383861], [114.184375, 22.377316]]}}, {"type": "Feature", "properties": {"id": "ghost_UM4207_20240629112947", "plate_no": "UM4207", "gap_start_time": "2024-06-29T11:29:47", "gap_end_time": "2024-06-29T12:40:20", "gap_duration_min": 70.55, "wasted_distance_km": 10.038, "prev_trip": "DA240629015202", "next_trip": "DA240629003311", "prev_O": [114.1731499, 22.3170132], "next_O": [114.1807853, 22.3711896]}, "geometry": {"type": "LineString", "coordinates": [[114.173466, 22.461683], [114.180561, 22.37165]]}}, {"type": "Feature", "properties": {"id": "ghost_UM5134_20240629094750", "plate_no": "UM5134", "gap_start_time": "2024-06-29T09:47:50", "gap_end_time": "2024-06-29T11:30:30", "gap_duration_min": 102.67, "wasted_distance_km": 1.081, "prev_trip": "DA240629025011", "next_trip": "DA240629036502", "prev_O": [114.227208, 22.417964], "next_O": [114.1466266, 22.2848757]}, "geometry": {"type": "LineString", "coordinates": [[114.155918, 22.281781], [114.146493, 22.286073]]}}, {"type": "Feature", "properties": {"id": "ghost_UM5134_20240629114200", "plate_no": "UM5134", "gap_start_time": "2024-06-29T11:42:00", "gap_end_time": "2024-06-29T13:25:09", "gap_duration_min": 103.15, "wasted_distance_km": 2.585, "prev_trip": "DA240629036502", "next_trip": "DA240629025111", "prev_O": [114.1466266, 22.2848757], "next_O": [114.1547347, 22.2846202]}, "geometry": {"type": "LineString", "coordinates": [[114.131123, 22.28419], [114.15616, 22.282305]]}}, {"type": "Feature", "properties": {"id": "ghost_UM5134_20240629140123", "plate_no": "UM5134", "gap_start_time": "2024-06-29T14:01:23", "gap_end_time": "2024-06-29T15:16:18", "gap_duration_min": 74.92, "wasted_distance_km": 5.687, "prev_trip": "DA240629025111", "next_trip": "DA240629023211", "prev_O": [114.1547347, 22.2846202], "next_O": [114.1946068, 22.3783196]}, "geometry": {"type": "LineString", "coordinates": [[114.230238, 22.418153], [114.194641, 22.37901]]}}, {"type": "Feature", "properties": {"id": "ghost_UM5926_20240629095052", "plate_no": "UM5926", "gap_start_time": "2024-06-29T09:50:52", "gap_end_time": "2024-06-29T12:15:16", "gap_duration_min": 144.4, "wasted_distance_km": 1.272, "prev_trip": "DA240629011801", "next_trip": "DA240629001401", "prev_O": [114.1304774, 22.3537641], "next_O": [114.1767495, 22.3199671]}, "geometry": {"type": "LineString", "coordinates": [[114.187356, 22.325896], [114.176683, 22.320111]]}}, {"type": "Feature", "properties": {"id": "ghost_UM5926_20240629122546", "plate_no": "UM5926", "gap_start_time": "2024-06-29T12:25:46", "gap_end_time": "2024-06-29T15:15:13", "gap_duration_min": 169.45, "wasted_distance_km": 1.949, "prev_trip": "DA240629001401", "next_trip": "DA240629038911", "prev_O": [114.1767495, 22.3199671], "next_O": [114.1672658, 22.314764]}, "geometry": {"type": "LineString", "coordinates": [[114.18353, 22.324103], [114.167296, 22.315063]]}}, {"type": "Feature", "properties": {"id": "ghost_UM5926_20240629152643", "plate_no": "UM5926", "gap_start_time": "2024-06-29T15:26:43", "gap_end_time": "2024-06-29T16:07:30", "gap_duration_min": 40.78, "wasted_distance_km": 6.22, "prev_trip": "DA240629038911", "next_trip": "DA240629013811", "prev_O": [114.1672658, 22.314764], "next_O": [114.1300706, 22.350379]}, "geometry": {"type": "LineString", "coordinates": [[114.169256, 22.305848], [114.13396, 22.351265]]}}, {"type": "Feature", "properties": {"id": "ghost_UM5926_20240629162300", "plate_no": "UM5926", "gap_start_time": "2024-06-29T16:23:00", "gap_end_time": "2024-06-29T17:40:04", "gap_duration_min": 77.07, "wasted_distance_km": 0.003, "prev_trip": "DA240629013811", "next_trip": "DA240629014011", "prev_O": [114.1300706, 22.350379], "next_O": [114.1735912, 22.3167039]}, "geometry": {"type": "LineString", "coordinates": [[114.171858, 22.313698], [114.171841, 22.31368]]}}, {"type": "Feature", "properties": {"id": "ghost_UN9553_20240629083253", "plate_no": "UN9553", "gap_start_time": "2024-06-29T08:32:53", "gap_end_time": "2024-06-29T12:20:26", "gap_duration_min": 227.55, "wasted_distance_km": 14.436, "prev_trip": "DA240629016111", "next_trip": "DA240629023902", "prev_O": [114.26277, 22.308295], "next_O": [114.126324, 22.4984453]}, "geometry": {"type": "LineString", "coordinates": [[114.202431, 22.389125], [114.126053, 22.498085]]}}, {"type": "Feature", "properties": {"id": "ghost_UN9553_20240629125527", "plate_no": "UN9553", "gap_start_time": "2024-06-29T12:55:27", "gap_end_time": "2024-06-29T15:05:58", "gap_duration_min": 130.52, "wasted_distance_km": 5.746, "prev_trip": "DA240629023902", "next_trip": "DA240629021011", "prev_O": [114.126324, 22.4984453], "next_O": [114.2014147, 22.3788502]}, "geometry": {"type": "LineString", "coordinates": [[114.19641, 22.429915], [114.20169, 22.378468]]}}, {"type": "Feature", "properties": {"id": "ghost_UN9790_20240629091845", "plate_no": "UN9790", "gap_start_time": "2024-06-29T09:18:45", "gap_end_time": "2024-06-29T10:25:15", "gap_duration_min": 66.5, "wasted_distance_km": 12.969, "prev_trip": "DA240629038001", "next_trip": "DA240629008401", "prev_O": [114.2183846, 22.3955654], "next_O": [114.1162982, 22.3667873]}, "geometry": {"type": "LineString", "coordinates": [[114.230095, 22.418216], [114.117003, 22.366553]]}}, {"type": "Feature", "properties": {"id": "ghost_UN9790_20240629104545", "plate_no": "UN9790", "gap_start_time": "2024-06-29T10:45:45", "gap_end_time": "2024-06-29T15:10:02", "gap_duration_min": 264.28, "wasted_distance_km": 7.894, "prev_trip": "DA240629008401", "next_trip": "DA240629003002", "prev_O": [114.1162982, 22.3667873], "next_O": [114.1987643, 22.3804685]}, "geometry": {"type": "LineString", "coordinates": [[114.169985, 22.314296], [114.198558, 22.38019]]}}, {"type": "Feature", "properties": {"id": "ghost_UN9790_20240629153002", "plate_no": "UN9790", "gap_start_time": "2024-06-29T15:30:02", "gap_end_time": "2024-06-29T16:48:04", "gap_duration_min": 78.03, "wasted_distance_km": 2.078, "prev_trip": "DA240629003002", "next_trip": "DA240629029102", "prev_O": [114.1987643, 22.3804685], "next_O": [114.1952336, 22.3879318]}, "geometry": {"type": "LineString", "coordinates": [[114.181716, 22.373188], [114.194828, 22.38741]]}}, {"type": "Feature", "properties": {"id": "ghost_UP6525_20240629103251", "plate_no": "UP6525", "gap_start_time": "2024-06-29T10:32:51", "gap_end_time": "2024-06-29T11:46:16", "gap_duration_min": 73.42, "wasted_distance_km": 0.053, "prev_trip": "DA240629026711", "next_trip": "DA240629027011", "prev_O": [114.1987643, 22.3804685], "next_O": [114.1853555, 22.377163]}, "geometry": {"type": "LineString", "coordinates": [[114.188601, 22.375256], [114.188096, 22.375328]]}}, {"type": "Feature", "properties": {"id": "ghost_UP6525_20240629115446", "plate_no": "UP6525", "gap_start_time": "2024-06-29T11:54:46", "gap_end_time": "2024-06-29T13:00:19", "gap_duration_min": 65.55, "wasted_distance_km": 3.687, "prev_trip": "DA240629027011", "next_trip": "DA240629016602", "prev_O": [114.1853555, 22.377163], "next_O": [114.2113817, 22.4136093]}, "geometry": {"type": "LineString", "coordinates": [[114.206628, 22.380243], [114.211566, 22.413085]]}}, {"type": "Feature", "properties": {"id": "ghost_VD4748_20240629095202", "plate_no": "VD4748", "gap_start_time": "2024-06-29T09:52:02", "gap_end_time": "2024-06-29T11:20:18", "gap_duration_min": 88.27, "wasted_distance_km": 1.436, "prev_trip": "DA240629005801", "next_trip": "DA240629016402", "prev_O": [114.1728895, 22.4569367], "next_O": [114.124214, 22.270644]}, "geometry": {"type": "LineString", "coordinates": [[114.135445, 22.262886], [114.12659, 22.272863]]}}, {"type": "Feature", "properties": {"id": "ghost_VD4748_20240629113548", "plate_no": "VD4748", "gap_start_time": "2024-06-29T11:35:48", "gap_end_time": "2024-06-29T15:30:14", "gap_duration_min": 234.43, "wasted_distance_km": 2.117, "prev_trip": "DA240629016402", "next_trip": "DA240629001701", "prev_O": [114.124214, 22.270644], "next_O": [114.1857832, 22.305869]}, "geometry": {"type": "LineString", "coordinates": [[114.198181, 22.29089], [114.185596, 22.305955]]}}, {"type": "Feature", "properties": {"id": "ghost_VD6386_20240629125932", "plate_no": "VD6386", "gap_start_time": "2024-06-29T12:59:32", "gap_end_time": "2024-06-29T15:15:01", "gap_duration_min": 135.48, "wasted_distance_km": 8.396, "prev_trip": "DA240629017402", "next_trip": "DA240629011411", "prev_O": [114.201499, 22.382059], "next_O": [114.1751988, 22.3017749]}, "geometry": {"type": "LineString", "coordinates": [[114.136911, 22.371101], [114.172945, 22.303348]]}}, {"type": "Feature", "properties": {"id": "ghost_VE7344_20240629085204", "plate_no": "VE7344", "gap_start_time": "2024-06-29T08:52:04", "gap_end_time": "2024-06-29T12:30:05", "gap_duration_min": 218.02, "wasted_distance_km": 6.178, "prev_trip": "DA240629000301", "next_trip": "DA240629012002", "prev_O": [114.1266489, 22.3476314], "next_O": [114.1832294, 22.3243594]}, "geometry": {"type": "LineString", "coordinates": [[114.12838, 22.346418], [114.183368, 22.324056]]}}, {"type": "Feature", "properties": {"id": "ghost_VG422_20240629130009", "plate_no": "VG422", "gap_start_time": "2024-06-29T13:00:09", "gap_end_time": "2024-06-29T17:30:02", "gap_duration_min": 269.88, "wasted_distance_km": 5.834, "prev_trip": "DA240629012102", "next_trip": "DA240629009502", "prev_O": [114.1832294, 22.3243594], "next_O": [114.1276184, 22.359483]}, "geometry": {"type": "LineString", "coordinates": [[114.17546, 22.335866], [114.123965, 22.357873]]}}, {"type": "Feature", "properties": {"id": "ghost_VV6972_20240629060250", "plate_no": "VV6972", "gap_start_time": "2024-06-29T06:02:50", "gap_end_time": "2024-06-29T06:30:20", "gap_duration_min": 27.5, "wasted_distance_km": 3.116, "prev_trip": "DA240629015001", "next_trip": "DA240629012411", "prev_O": [114.2165038, 22.324664], "next_O": [114.1917521, 22.3405523]}, "geometry": {"type": "LineString", "coordinates": [[114.163216, 22.333616], [114.192896, 22.339256]]}}, {"type": "Feature", "properties": {"id": "ghost_VV6972_20240629070120", "plate_no": "VV6972", "gap_start_time": "2024-06-29T07:01:20", "gap_end_time": "2024-06-29T13:00:04", "gap_duration_min": 358.73, "wasted_distance_km": 4.283, "prev_trip": "DA240629012411", "next_trip": "DA240629034811", "prev_O": [114.1917521, 22.3405523], "next_O": [114.1718808, 22.3194952]}, "geometry": {"type": "LineString", "coordinates": [[114.17468, 22.280745], [114.171853, 22.319176]]}}, {"type": "Feature", "properties": {"id": "ghost_VW4627_20240629104552", "plate_no": "VW4627", "gap_start_time": "2024-06-29T10:45:52", "gap_end_time": "2024-06-29T14:31:51", "gap_duration_min": 225.98, "wasted_distance_km": 4.216, "prev_trip": "DA240629032511", "next_trip": "DA240629021101", "prev_O": [114.1524398, 22.2483068], "next_O": [114.1783772, 22.3128864]}, "geometry": {"type": "LineString", "coordinates": [[114.185218, 22.27735], [114.179983, 22.314958]]}}, {"type": "Feature", "properties": {"id": "ghost_VW8372_20240629094312", "plate_no": "VW8372", "gap_start_time": "2024-06-29T09:43:12", "gap_end_time": "2024-06-29T13:30:26", "gap_duration_min": 227.23, "wasted_distance_km": 7.464, "prev_trip": "DA240629027801", "next_trip": "DA240629038111", "prev_O": [114.1811606, 22.3428889], "next_O": [114.1464621, 22.2863197]}, "geometry": {"type": "LineString", "coordinates": [[114.206038, 22.324645], [114.14654, 22.286233]]}}, {"type": "Feature", "properties": {"id": "ghost_VW8372_20240629134126", "plate_no": "VW8372", "gap_start_time": "2024-06-29T13:41:26", "gap_end_time": "2024-06-29T18:01:28", "gap_duration_min": 260.03, "wasted_distance_km": 13.202, "prev_trip": "DA240629038111", "next_trip": "DA240629016311", "prev_O": [114.1464621, 22.2863197], "next_O": [114.1999667, 22.3927796]}, "geometry": {"type": "LineString", "coordinates": [[114.135531, 22.28606], [114.198868, 22.389326]]}}, {"type": "Feature", "properties": {"id": "ghost_VW871_20240629085648", "plate_no": "VW871", "gap_start_time": "2024-06-29T08:56:48", "gap_end_time": "2024-06-29T11:00:12", "gap_duration_min": 123.4, "wasted_distance_km": 0.746, "prev_trip": "DA240629008301", "next_trip": "DA240629029211", "prev_O": [113.9962947, 22.4360283], "next_O": [114.211883, 22.2854455]}, "geometry": {"type": "LineString", "coordinates": [[114.21839, 22.28735], [114.211408, 22.285541]]}}, {"type": "Feature", "properties": {"id": "ghost_VW871_20240629111711", "plate_no": "VW871", "gap_start_time": "2024-06-29T11:17:11", "gap_end_time": "2024-06-29T16:31:22", "gap_duration_min": 314.18, "wasted_distance_km": 5.095, "prev_trip": "DA240629029211", "next_trip": "DA240629004111", "prev_O": [114.211883, 22.2854455], "next_O": [114.1941178, 22.2884225]}, "geometry": {"type": "LineString", "coordinates": [[114.23727, 22.265226], [114.194148, 22.287746]]}}, {"type": "Feature", "properties": {"id": "ghost_VW895_20240629102212", "plate_no": "VW895", "gap_start_time": "2024-06-29T10:22:12", "gap_end_time": "2024-06-29T13:32:13", "gap_duration_min": 190.02, "wasted_distance_km": 5.842, "prev_trip": "DA240629012911", "next_trip": "DA240629018311", "prev_O": [114.1786768, 22.3122616], "next_O": [114.230653, 22.308272]}, "geometry": {"type": "LineString", "coordinates": [[114.175061, 22.317876], [114.230778, 22.30769], [114.230778, 22.30769]]}}, {"type": "Feature", "properties": {"id": "ghost_VX2887_20240629213335", "plate_no": "VX2887", "gap_start_time": "2024-06-29T21:33:35", "gap_end_time": "2024-06-29T21:45:05", "gap_duration_min": 11.5, "wasted_distance_km": 1.475, "prev_trip": "DA240629031302", "next_trip": "DA240629002602", "prev_O": [114.213054, 22.3208046], "next_O": [114.2129425, 22.4249757]}, "geometry": {"type": "LineString", "coordinates": [[114.224161, 22.417886], [114.212125, 22.425113]]}}, {"type": "Feature", "properties": {"id": "ghost_VY5967_20240629094455", "plate_no": "VY5967", "gap_start_time": "2024-06-29T09:44:55", "gap_end_time": "2024-06-29T10:15:28", "gap_duration_min": 30.55, "wasted_distance_km": 3.873, "prev_trip": "DA240629035311", "next_trip": "DA240629026611", "prev_O": [113.9986706, 22.4597219], "next_O": [114.1987643, 22.3804685]}, "geometry": {"type": "LineString", "coordinates": [[114.21141, 22.413056], [114.199038, 22.38016]]}}, {"type": "Feature", "properties": {"id": "ghost_WN9330_20240629094420", "plate_no": "WN9330", "gap_start_time": "2024-06-29T09:44:20", "gap_end_time": "2024-06-29T12:45:22", "gap_duration_min": 181.03, "wasted_distance_km": 0.163, "prev_trip": "DA240629011901", "next_trip": "DA240629023302", "prev_O": [114.0055252, 22.451523], "next_O": [114.184829, 22.3262591]}, "geometry": {"type": "LineString", "coordinates": [[114.183306, 22.32471], [114.184263, 22.325876], [114.184263, 22.325876]]}}, {"type": "Feature", "properties": {"id": "ghost_WP1681_20240629100446", "plate_no": "WP1681", "gap_start_time": "2024-06-29T10:04:46", "gap_end_time": "2024-06-29T12:00:10", "gap_duration_min": 115.4, "wasted_distance_km": 4.759, "prev_trip": "DA240629003511", "next_trip": "DA240629000702", "prev_O": [114.1567547, 22.4475678], "next_O": [114.2329964, 22.2675897]}, "geometry": {"type": "LineString", "coordinates": [[114.19131, 22.285225], [114.23348, 22.267656]]}}, {"type": "Feature", "properties": {"id": "ghost_WP1681_20240629122610", "plate_no": "WP1681", "gap_start_time": "2024-06-29T12:26:10", "gap_end_time": "2024-06-29T15:50:32", "gap_duration_min": 204.37, "wasted_distance_km": 13.082, "prev_trip": "DA240629000702", "next_trip": "DA240629030602", "prev_O": [114.2329964, 22.2675897], "next_O": [114.1242972, 22.2706361]}, "geometry": {"type": "LineString", "coordinates": [[114.251071, 22.262458], [114.124256, 22.270758]]}}, {"type": "Feature", "properties": {"id": "ghost_WP3306_20240629134423", "plate_no": "WP3306", "gap_start_time": "2024-06-29T13:44:23", "gap_end_time": "2024-06-29T14:45:22", "gap_duration_min": 60.98, "wasted_distance_km": 5.051, "prev_trip": "DA240629008501", "next_trip": "DA240629039601", "prev_O": [114.274778, 22.2967206], "next_O": [114.231016, 22.2606335]}, "geometry": {"type": "LineString", "coordinates": [[114.190571, 22.28571], [114.231316, 22.260383]]}}, {"type": "Feature", "properties": {"id": "ghost_WP3306_20240629150022", "plate_no": "WP3306", "gap_start_time": "2024-06-29T15:00:22", "gap_end_time": "2024-06-29T18:01:35", "gap_duration_min": 181.22, "wasted_distance_km": 11.957, "prev_trip": "DA240629039601", "next_trip": "DA240629016211", "prev_O": [114.231016, 22.2606335], "next_O": [114.1999667, 22.3927796]}, "geometry": {"type": "LineString", "coordinates": [[114.18538, 22.282728], [114.199468, 22.389463]]}}, {"type": "Feature", "properties": {"id": "ghost_WP5818_20240629132646", "plate_no": "WP5818", "gap_start_time": "2024-06-29T13:26:46", "gap_end_time": "2024-06-29T15:40:18", "gap_duration_min": 133.53, "wasted_distance_km": 2.017, "prev_trip": "DA240629030002", "next_trip": "DA240629005602", "prev_O": [114.2697606, 22.3182761], "next_O": [114.257666, 22.312751]}, "geometry": {"type": "LineString", "coordinates": [[114.240201, 22.302931], [114.258001, 22.310526]]}}, {"type": "Feature", "properties": {"id": "ghost_WP923_20240629094930", "plate_no": "WP923", "gap_start_time": "2024-06-29T09:49:30", "gap_end_time": "2024-06-29T11:00:00", "gap_duration_min": 70.5, "wasted_distance_km": 4.102, "prev_trip": "DA240629005701", "next_trip": "DA240629014902", "prev_O": [114.1728895, 22.4569367], "next_O": [114.1714776, 22.2785962]}, "geometry": {"type": "LineString", "coordinates": [[114.135435, 22.262956], [114.171548, 22.278571]]}}, {"type": "Feature", "properties": {"id": "ghost_WP923_20240629111630", "plate_no": "WP923", "gap_start_time": "2024-06-29T11:16:30", "gap_end_time": "2024-06-29T14:45:26", "gap_duration_min": 208.93, "wasted_distance_km": 9.987, "prev_trip": "DA240629014902", "next_trip": "DA240629017711", "prev_O": [114.1714776, 22.2785962], "next_O": [114.2077187, 22.3228659]}, "geometry": {"type": "LineString", "coordinates": [[114.126576, 22.273156], [114.207286, 22.323055]]}}, {"type": "Feature", "properties": {"id": "ghost_XE612_20240629101804", "plate_no": "XE612", "gap_start_time": "2024-06-29T10:18:04", "gap_end_time": "2024-06-29T11:45:26", "gap_duration_min": 87.37, "wasted_distance_km": 5.078, "prev_trip": "DA240629031401", "next_trip": "DA240629027111", "prev_O": [114.228673, 22.3119195], "next_O": [114.1853555, 22.377163]}, "geometry": {"type": "LineString", "coordinates": [[114.156956, 22.339456], [114.185041, 22.377013]]}}, {"type": "Feature", "properties": {"id": "ghost_XE7053_20240629104524", "plate_no": "XE7053", "gap_start_time": "2024-06-29T10:45:24", "gap_end_time": "2024-06-29T12:30:29", "gap_duration_min": 105.08, "wasted_distance_km": 3.165, "prev_trip": "DA240629021601", "next_trip": "DA240629011902", "prev_O": [114.255644, 22.322861], "next_O": [114.1832294, 22.3243594]}, "geometry": {"type": "LineString", "coordinates": [[114.168925, 22.299465], [114.182978, 22.324788]]}}, {"type": "Feature", "properties": {"id": "ghost_XE7168_20240629091920", "plate_no": "XE7168", "gap_start_time": "2024-06-29T09:19:20", "gap_end_time": "2024-06-29T10:15:20", "gap_duration_min": 56.0, "wasted_distance_km": 4.647, "prev_trip": "DA240629027911", "next_trip": "DA240629030311", "prev_O": [114.2012303, 22.3285812], "next_O": [114.1572424, 22.2422803]}, "geometry": {"type": "LineString", "coordinates": [[114.175918, 22.281525], [114.15786, 22.243221]]}}, {"type": "Feature", "properties": {"id": "ghost_XE7168_20240629103049", "plate_no": "XE7168", "gap_start_time": "2024-06-29T10:30:49", "gap_end_time": "2024-06-29T14:15:20", "gap_duration_min": 224.52, "wasted_distance_km": 12.256, "prev_trip": "DA240629030311", "next_trip": "DA240629027311", "prev_O": [114.1572424, 22.2422803], "next_O": [114.208223, 22.3836116]}, "geometry": {"type": "LineString", "coordinates": [[114.174868, 22.274766], [114.20707, 22.38089]]}}, {"type": "Feature", "properties": {"id": "ghost_XE7168_20240629141950", "plate_no": "XE7168", "gap_start_time": "2024-06-29T14:19:50", "gap_end_time": "2024-06-29T15:30:20", "gap_duration_min": 70.5, "wasted_distance_km": 5.865, "prev_trip": "DA240629027311", "next_trip": "DA240629001801", "prev_O": [114.208223, 22.3836116], "next_O": [114.1717873, 22.33428]}, "geometry": {"type": "LineString", "coordinates": [[114.19697, 22.379565], [114.16975, 22.333216]]}}, {"type": "Feature", "properties": {"id": "ghost_XE8451_20240629100434", "plate_no": "XE8451", "gap_start_time": "2024-06-29T10:04:34", "gap_end_time": "2024-06-29T10:45:04", "gap_duration_min": 40.5, "wasted_distance_km": 3.243, "prev_trip": "DA240629030911", "next_trip": "DA240629013202", "prev_O": [114.1951833, 22.3466792], "next_O": [114.17099, 22.312405]}, "geometry": {"type": "LineString", "coordinates": [[114.189388, 22.338843], [114.172005, 22.314506]]}}, {"type": "Feature", "properties": {"id": "ghost_XE8451_20240629111534", "plate_no": "XE8451", "gap_start_time": "2024-06-29T11:15:34", "gap_end_time": "2024-06-29T13:16:30", "gap_duration_min": 120.93, "wasted_distance_km": 9.621, "prev_trip": "DA240629013202", "next_trip": "DA240629021211", "prev_O": [114.17099, 22.312405], "next_O": [114.1693183, 22.3041236]}, "geometry": {"type": "LineString", "coordinates": [[114.260738, 22.32262], [114.169125, 22.305225]]}}, {"type": "Feature", "properties": {"id": "ghost_XM6122_20240629083847", "plate_no": "XM6122", "gap_start_time": "2024-06-29T08:38:47", "gap_end_time": "2024-06-29T09:45:00", "gap_duration_min": 66.22, "wasted_distance_km": 9.419, "prev_trip": "DA240629008611", "next_trip": "DA240629024101", "prev_O": [114.1888033, 22.3040823], "next_O": [114.2478536, 22.2638567]}, "geometry": {"type": "LineString", "coordinates": [[114.157983, 22.281888], [114.247286, 22.26328]]}}, {"type": "Feature", "properties": {"id": "ghost_XM6122_20240629095930", "plate_no": "XM6122", "gap_start_time": "2024-06-29T09:59:30", "gap_end_time": "2024-06-29T14:45:17", "gap_duration_min": 285.78, "wasted_distance_km": 9.187, "prev_trip": "DA240629024101", "next_trip": "DA240629000302", "prev_O": [114.2478536, 22.2638567], "next_O": [114.1283333, 22.3458333]}, "geometry": {"type": "LineString", "coordinates": [[114.189633, 22.286498], [114.12822, 22.34648]]}}, {"type": "Feature", "properties": {"id": "ghost_XM6122_20240629151517", "plate_no": "XM6122", "gap_start_time": "2024-06-29T15:15:17", "gap_end_time": "2024-06-29T16:16:47", "gap_duration_min": 61.5, "wasted_distance_km": 1.081, "prev_trip": "DA240629000302", "next_trip": "DA240629000402", "prev_O": [114.1283333, 22.3458333], "next_O": [114.1283333, 22.3458333]}, "geometry": {"type": "LineString", "coordinates": [[114.13167, 22.354528], [114.126673, 22.345975]]}}, {"type": "Feature", "properties": {"id": "ghost_XM9877_20240629105425", "plate_no": "XM9877", "gap_start_time": "2024-06-29T10:54:25", "gap_end_time": "2024-06-29T12:00:07", "gap_duration_min": 65.7, "wasted_distance_km": 5.625, "prev_trip": "DA240629021701", "next_trip": "DA240629020102", "prev_O": [114.255644, 22.322861], "next_O": [114.196536, 22.3469363]}, "geometry": {"type": "LineString", "coordinates": [[114.168366, 22.303258], [114.196205, 22.346796]]}}, {"type": "Feature", "properties": {"id": "ghost_XM9877_20240629122717", "plate_no": "XM9877", "gap_start_time": "2024-06-29T12:27:17", "gap_end_time": "2024-06-29T13:00:07", "gap_duration_min": 32.83, "wasted_distance_km": 2.07, "prev_trip": "DA240629020102", "next_trip": "DA240629028611", "prev_O": [114.196536, 22.3469363], "next_O": [114.2507851, 22.3035546]}, "geometry": {"type": "LineString", "coordinates": [[114.266966, 22.313476], [114.249955, 22.30354]]}}, {"type": "Feature", "properties": {"id": "ghost_XM9877_20240629132917", "plate_no": "XM9877", "gap_start_time": "2024-06-29T13:29:17", "gap_end_time": "2024-06-29T17:15:03", "gap_duration_min": 225.77, "wasted_distance_km": 8.593, "prev_trip": "DA240629028611", "next_trip": "DA240629024401", "prev_O": [114.2507851, 22.3035546], "next_O": [114.23809, 22.310845]}, "geometry": {"type": "LineString", "coordinates": [[114.157486, 22.33102], [114.238216, 22.311143]]}}, {"type": "Feature", "properties": {"id": "ghost_XN7430_20240629094612", "plate_no": "XN7430", "gap_start_time": "2024-06-29T09:46:12", "gap_end_time": "2024-06-29T13:15:05", "gap_duration_min": 208.88, "wasted_distance_km": 14.896, "prev_trip": "DA240629003001", "next_trip": "DA240629003811", "prev_O": [114.1786768, 22.3729477], "next_O": [114.1589921, 22.2497932]}, "geometry": {"type": "LineString", "coordinates": [[114.196561, 22.379265], [114.159335, 22.249808]]}}, {"type": "Feature", "properties": {"id": "ghost_XV6358_20240629110210", "plate_no": "XV6358", "gap_start_time": "2024-06-29T11:02:10", "gap_end_time": "2024-06-29T14:00:24", "gap_duration_min": 178.23, "wasted_distance_km": 0.029, "prev_trip": "DA240629006311", "next_trip": "DA240629007311", "prev_O": [114.2489461, 22.2655142], "next_O": [113.934502, 22.319401]}, "geometry": {"type": "LineString", "coordinates": [[113.934095, 22.319711], [113.93431, 22.319545]]}}, {"type": "Feature", "properties": {"id": "ghost_YK7262_20240629095104", "plate_no": "YK7262", "gap_start_time": "2024-06-29T09:51:04", "gap_end_time": "2024-06-29T10:30:49", "gap_duration_min": 39.75, "wasted_distance_km": 1.224, "prev_trip": "DA240629012101", "next_trip": "DA240629015611", "prev_O": [114.1554038, 22.2486236], "next_O": [114.178115, 22.314215]}, "geometry": {"type": "LineString", "coordinates": [[114.183253, 22.324895], [114.17843, 22.314833]]}}, {"type": "Feature", "properties": {"id": "ghost_YK8954_20240629090223", "plate_no": "YK8954", "gap_start_time": "2024-06-29T09:02:23", "gap_end_time": "2024-06-29T11:45:24", "gap_duration_min": 163.02, "wasted_distance_km": 1.338, "prev_trip": "DA240629016901", "next_trip": "DA240629037301", "prev_O": [114.2375737, 22.4230553], "next_O": [114.195234, 22.387932]}, "geometry": {"type": "LineString", "coordinates": [[114.190013, 22.376271], [114.194968, 22.3874]]}}, {"type": "Feature", "properties": {"id": "ghost_YK8969_20240629100825", "plate_no": "YK8969", "gap_start_time": "2024-06-29T10:08:25", "gap_end_time": "2024-06-29T12:50:00", "gap_duration_min": 161.58, "wasted_distance_km": 2.168, "prev_trip": "DA240629000601", "next_trip": "DA240629018501", "prev_O": [114.2492217, 22.2617169], "next_O": [114.2253505, 22.2821867]}, "geometry": {"type": "LineString", "coordinates": [[114.234505, 22.264345], [114.226033, 22.282198]]}}, {"type": "Feature", "properties": {"id": "ghost_YK905_20240629085218", "plate_no": "YK905", "gap_start_time": "2024-06-29T08:52:18", "gap_end_time": "2024-06-29T10:00:18", "gap_duration_min": 68.0, "wasted_distance_km": 3.27, "prev_trip": "DA240629032001", "next_trip": "DA240629030711", "prev_O": [114.2395606, 22.313239], "next_O": [114.2572761, 22.3074503]}, "geometry": {"type": "LineString", "coordinates": [[114.23043, 22.323176], [114.256275, 22.30606]]}}, {"type": "Feature", "properties": {"id": "ghost_YK905_20240629101618", "plate_no": "YK905", "gap_start_time": "2024-06-29T10:16:18", "gap_end_time": "2024-06-29T12:54:48", "gap_duration_min": 158.5, "wasted_distance_km": 1.745, "prev_trip": "DA240629030711", "next_trip": "DA240629024102", "prev_O": [114.2572761, 22.3074503], "next_O": [114.1926653, 22.2861793]}, "geometry": {"type": "LineString", "coordinates": [[114.21076, 22.288845], [114.193796, 22.288718]]}}, {"type": "Feature", "properties": {"id": "ghost_YK905_20240629132115", "plate_no": "YK905", "gap_start_time": "2024-06-29T13:21:15", "gap_end_time": "2024-06-29T17:00:16", "gap_duration_min": 219.02, "wasted_distance_km": 30.568, "prev_trip": "DA240629024102", "next_trip": "DA240629018411", "prev_O": [114.1926653, 22.2861793], "next_O": [113.9784154, 22.3850451]}, "geometry": {"type": "LineString", "coordinates": [[114.246696, 22.26587], [113.978761, 22.384783]]}}, {"type": "Feature", "properties": {"id": "ghost_YL1345_20240629113134", "plate_no": "YL1345", "gap_start_time": "2024-06-29T11:31:34", "gap_end_time": "2024-06-29T14:06:15", "gap_duration_min": 154.68, "wasted_distance_km": 21.592, "prev_trip": "DA240629033302", "next_trip": "DA240629007211", "prev_O": [114.1879151, 22.3351844], "next_O": [113.934502, 22.319401]}, "geometry": {"type": "LineString", "coordinates": [[114.139006, 22.364135], [113.9347, 22.31944]]}}, {"type": "Feature", "properties": {"id": "ghost_YL7929_20240629092358", "plate_no": "YL7929", "gap_start_time": "2024-06-29T09:23:58", "gap_end_time": "2024-06-29T10:00:20", "gap_duration_min": 36.37, "wasted_distance_km": 2.527, "prev_trip": "DA240629015411", "next_trip": "DA240629030411", "prev_O": [114.2163021, 22.3244614], "next_O": [114.1664099, 22.3375315]}, "geometry": {"type": "LineString", "coordinates": [[114.189366, 22.328971], [114.166541, 22.337375]]}}, {"type": "Feature", "properties": {"id": "ghost_YL7929_20240629103320", "plate_no": "YL7929", "gap_start_time": "2024-06-29T10:33:20", "gap_end_time": "2024-06-29T12:00:13", "gap_duration_min": 86.88, "wasted_distance_km": 12.414, "prev_trip": "DA240629030411", "next_trip": "DA240629016902", "prev_O": [114.1664099, 22.3375315], "next_O": [114.1869902, 22.3737698]}, "geometry": {"type": "LineString", "coordinates": [[114.27322, 22.296065], [114.187756, 22.374893]]}}, {"type": "Feature", "properties": {"id": "ghost_YL7929_20240629121244", "plate_no": "YL7929", "gap_start_time": "2024-06-29T12:12:44", "gap_end_time": "2024-06-29T15:00:19", "gap_duration_min": 167.58, "wasted_distance_km": 7.41, "prev_trip": "DA240629016902", "next_trip": "DA240629018001", "prev_O": [114.1869902, 22.3737698], "next_O": [114.1798243, 22.4648327]}, "geometry": {"type": "LineString", "coordinates": [[114.235695, 22.422991], [114.179868, 22.46516]]}}, {"type": "Feature", "properties": {"id": "ghost_YL7929_20240629153349", "plate_no": "YL7929", "gap_start_time": "2024-06-29T15:33:49", "gap_end_time": "2024-06-29T16:45:02", "gap_duration_min": 71.22, "wasted_distance_km": 4.661, "prev_trip": "DA240629018001", "next_trip": "DA240629005011", "prev_O": [114.1798243, 22.4648327], "next_O": [114.1941178, 22.2884225]}, "geometry": {"type": "LineString", "coordinates": [[114.172483, 22.324778], [114.194665, 22.28823]]}}, {"type": "Feature", "properties": {"id": "ghost_YL8082_20240629092625", "plate_no": "YL8082", "gap_start_time": "2024-06-29T09:26:25", "gap_end_time": "2024-06-29T11:00:25", "gap_duration_min": 94.0, "wasted_distance_km": 4.229, "prev_trip": "DA240629010101", "next_trip": "DA240629011101", "prev_O": [114.1245247, 22.2709886], "next_O": [114.170901, 22.276886]}, "geometry": {"type": "LineString", "coordinates": [[114.147213, 22.245723], [114.1711, 22.276673]]}}, {"type": "Feature", "properties": {"id": "ghost_YL8082_20240629111325", "plate_no": "YL8082", "gap_start_time": "2024-06-29T11:13:25", "gap_end_time": "2024-06-29T13:00:14", "gap_duration_min": 106.82, "wasted_distance_km": 10.504, "prev_trip": "DA240629011101", "next_trip": "DA240629023001", "prev_O": [114.170901, 22.276886], "next_O": [114.2518599, 22.2626752]}, "geometry": {"type": "LineString", "coordinates": [[114.153271, 22.28519], [114.252148, 22.261706]]}}, {"type": "Feature", "properties": {"id": "ghost_YY8058_20240629055338", "plate_no": "YY8058", "gap_start_time": "2024-06-29T05:53:38", "gap_end_time": "2024-06-29T06:45:22", "gap_duration_min": 51.73, "wasted_distance_km": 4.996, "prev_trip": "DA240629012501", "next_trip": "DA240629035611", "prev_O": [114.0979333, 22.3489429], "next_O": [114.1466081, 22.2432749]}, "geometry": {"type": "LineString", "coordinates": [[114.173968, 22.280371], [114.146478, 22.243341]]}}, {"type": "Feature", "properties": {"id": "ghost_YY8058_20240629065621", "plate_no": "YY8058", "gap_start_time": "2024-06-29T06:56:21", "gap_end_time": "2024-06-29T13:00:24", "gap_duration_min": 364.05, "wasted_distance_km": 6.47, "prev_trip": "DA240629035611", "next_trip": "DA240629028201", "prev_O": [114.1466081, 22.2432749], "next_O": [114.2269991, 22.2807278]}, "geometry": {"type": "LineString", "coordinates": [[114.174243, 22.250181], [114.227185, 22.281565]]}}, {"type": "Feature", "properties": {"id": "ghost_YZ9431_20240629090808", "plate_no": "YZ9431", "gap_start_time": "2024-06-29T09:08:08", "gap_end_time": "2024-06-29T11:30:19", "gap_duration_min": 142.18, "wasted_distance_km": 6.642, "prev_trip": "DA240629017801", "next_trip": "DA240629021801", "prev_O": [114.2541417, 22.3241801], "next_O": [114.2636145, 22.3187583]}, "geometry": {"type": "LineString", "coordinates": [[114.202541, 22.337668], [114.26369, 22.318458]]}}, {"type": "Feature", "properties": {"id": "ghost_YZ9431_20240629115519", "plate_no": "YZ9431", "gap_start_time": "2024-06-29T11:55:19", "gap_end_time": "2024-06-29T17:10:05", "gap_duration_min": 314.77, "wasted_distance_km": 1.568, "prev_trip": "DA240629021801", "next_trip": "DA240629025611", "prev_O": [114.2636145, 22.3187583], "next_O": [114.1675766, 22.3389067]}, "geometry": {"type": "LineString", "coordinates": [[114.15255, 22.341378], [114.16754, 22.338786]]}}, {"type": "Feature", "properties": {"id": "ghost_ZA3805_20240629141140", "plate_no": "ZA3805", "gap_start_time": "2024-06-29T14:11:40", "gap_end_time": "2024-06-29T15:00:26", "gap_duration_min": 48.77, "wasted_distance_km": 0.747, "prev_trip": "DA240629029101", "next_trip": "DA240629003102", "prev_O": [114.17154, 22.378342], "next_O": [114.1987643, 22.3804685]}, "geometry": {"type": "LineString", "coordinates": [[114.193611, 22.384881], [114.198563, 22.379961]]}}, {"type": "Feature", "properties": {"id": "ghost_ZA3805_20240629151256", "plate_no": "ZA3805", "gap_start_time": "2024-06-29T15:12:56", "gap_end_time": "2024-06-29T17:00:37", "gap_duration_min": 107.68, "wasted_distance_km": 5.516, "prev_trip": "DA240629003102", "next_trip": "DA240629002001", "prev_O": [114.1987643, 22.3804685], "next_O": [114.2269156, 22.4213331]}, "geometry": {"type": "LineString", "coordinates": [[114.197651, 22.37957], [114.22528, 22.42209]]}}, {"type": "Feature", "properties": {"id": "ghost_ZA3805_20240629171137", "plate_no": "ZA3805", "gap_start_time": "2024-06-29T17:11:37", "gap_end_time": "2024-06-29T18:30:08", "gap_duration_min": 78.52, "wasted_distance_km": 9.856, "prev_trip": "DA240629002001", "next_trip": "DA240629025802", "prev_O": [114.2269156, 22.4213331], "next_O": [114.1798555, 22.3398475]}, "geometry": {"type": "LineString", "coordinates": [[114.213928, 22.423411], [114.181145, 22.340116]]}}, {"type": "Feature", "properties": {"id": "ghost_ZA7388_20240629071128", "plate_no": "ZA7388", "gap_start_time": "2024-06-29T07:11:28", "gap_end_time": "2024-06-29T09:40:05", "gap_duration_min": 148.62, "wasted_distance_km": 1.34, "prev_trip": "DA240629016801", "next_trip": "DA240629039802", "prev_O": [114.204565, 22.2898326], "next_O": [114.1882198, 22.278467]}, "geometry": {"type": "LineString", "coordinates": [[114.175071, 22.28081], [114.187941, 22.27896]]}}, {"type": "Feature", "properties": {"id": "ghost_ZB3917_20240629094708", "plate_no": "ZB3917", "gap_start_time": "2024-06-29T09:47:08", "gap_end_time": "2024-06-29T12:50:55", "gap_duration_min": 183.78, "wasted_distance_km": 3.844, "prev_trip": "DA240629008811", "next_trip": "DA240629004211", "prev_O": [114.1309497, 22.3545456], "next_O": [114.1860622, 22.3389527]}, "geometry": {"type": "LineString", "coordinates": [[114.224773, 22.331586], [114.188328, 22.33924]]}}, {"type": "Feature", "properties": {"id": "ghost_ZB3917_20240629142954", "plate_no": "ZB3917", "gap_start_time": "2024-06-29T14:29:54", "gap_end_time": "2024-06-29T16:35:23", "gap_duration_min": 125.48, "wasted_distance_km": 0.304, "prev_trip": "DA240629004211", "next_trip": "DA240629008502", "prev_O": [114.1860622, 22.3389527], "next_O": [114.1927721, 22.2860919]}, "geometry": {"type": "LineString", "coordinates": [[114.195286, 22.286341], [114.192381, 22.285865]]}}]}