{"type": "FeatureCollection", "features": [{"type": "Feature", "properties": {"id": "ghost_RV4356_20240606082701", "plate_no": "RV4356", "gap_start_time": "2024-06-06T08:27:01", "gap_end_time": "2024-06-06T10:20:01", "gap_duration_min": 113.0, "wasted_distance_km": 12.003, "prev_trip": "DA240606013001", "next_trip": "DA240606022701", "prev_O": [114.1958168, 22.3349711], "next_O": [114.1270746, 22.3643915]}, "geometry": {"type": "LineString", "coordinates": [[114.227871, 22.311303], [114.126356, 22.36455]]}}, {"type": "Feature", "properties": {"id": "ghost_RV4356_20240606103826", "plate_no": "RV4356", "gap_start_time": "2024-06-06T10:38:26", "gap_end_time": "2024-06-06T11:00:06", "gap_duration_min": 21.67, "wasted_distance_km": 1.242, "prev_trip": "DA240606022701", "next_trip": "DA240606032501", "prev_O": [114.1270746, 22.3643915], "next_O": [114.1402195, 22.3366356]}, "geometry": {"type": "LineString", "coordinates": [[114.133311, 22.342595], [114.142803, 22.33569]]}}, {"type": "Feature", "properties": {"id": "ghost_RV4356_20240606110535", "plate_no": "RV4356", "gap_start_time": "2024-06-06T11:05:35", "gap_end_time": "2024-06-06T13:20:26", "gap_duration_min": 134.85, "wasted_distance_km": 6.835, "prev_trip": "DA240606032501", "next_trip": "DA240606034601", "prev_O": [114.1402195, 22.3366356], "next_O": [114.1827676, 22.3819893]}, "geometry": {"type": "LineString", "coordinates": [[114.131658, 22.342836], [114.182806, 22.382091]]}}, {"type": "Feature", "properties": {"id": "ghost_RV4356_20240606134102", "plate_no": "RV4356", "gap_start_time": "2024-06-06T13:41:02", "gap_end_time": "2024-06-06T14:45:24", "gap_duration_min": 64.37, "wasted_distance_km": 1.224, "prev_trip": "DA240606034601", "next_trip": "DA240606022402", "prev_O": [114.1827676, 22.3819893], "next_O": [114.18052, 22.32278]}, "geometry": {"type": "LineString", "coordinates": [[114.17563, 22.313216], [114.179186, 22.323718]]}}, {"type": "Feature", "properties": {"id": "ghost_RV8266_20240606090437", "plate_no": "RV8266", "gap_start_time": "2024-06-06T09:04:37", "gap_end_time": "2024-06-06T11:50:25", "gap_duration_min": 165.8, "wasted_distance_km": 5.109, "prev_trip": "DA240606005811", "next_trip": "DA240606014802", "prev_O": [114.1984321, 22.3438543], "next_O": [114.1832816, 22.3250389]}, "geometry": {"type": "LineString", "coordinates": [[114.23006, 22.310028], [114.183006, 22.324723]]}}, {"type": "Feature", "properties": {"id": "ghost_RX3329_20240606065303", "plate_no": "RX3329", "gap_start_time": "2024-06-06T06:53:03", "gap_end_time": "2024-06-06T07:45:06", "gap_duration_min": 52.05, "wasted_distance_km": 4.35, "prev_trip": "DA240606024101", "next_trip": "DA240606016111", "prev_O": [114.2018517, 22.3360239], "next_O": [114.1395591, 22.3391912]}, "geometry": {"type": "LineString", "coordinates": [[114.172405, 22.3145], [114.139316, 22.33886]]}}, {"type": "Feature", "properties": {"id": "ghost_RX3329_20240606081606", "plate_no": "RX3329", "gap_start_time": "2024-06-06T08:16:06", "gap_end_time": "2024-06-06T08:50:06", "gap_duration_min": 34.0, "wasted_distance_km": 1.346, "prev_trip": "DA240606016111", "next_trip": "DA240606029301", "prev_O": [114.1395591, 22.3391912], "next_O": [114.186736, 22.30968]}, "geometry": {"type": "LineString", "coordinates": [[114.174018, 22.306968], [114.18675, 22.309763]]}}, {"type": "Feature", "properties": {"id": "ghost_RX3329_20240606090006", "plate_no": "RX3329", "gap_start_time": "2024-06-06T09:00:06", "gap_end_time": "2024-06-06T11:45:12", "gap_duration_min": 165.1, "wasted_distance_km": 1.433, "prev_trip": "DA240606029301", "next_trip": "DA240606010402", "prev_O": [114.186736, 22.30968], "next_O": [114.1785889, 22.3167604]}, "geometry": {"type": "LineString", "coordinates": [[114.17778, 22.303435], [114.181101, 22.315951]]}}, {"type": "Feature", "properties": {"id": "ghost_RX3329_20240606115412", "plate_no": "RX3329", "gap_start_time": "2024-06-06T11:54:12", "gap_end_time": "2024-06-06T13:45:04", "gap_duration_min": 110.87, "wasted_distance_km": 2.554, "prev_trip": "DA240606010402", "next_trip": "DA240606028511", "prev_O": [114.1785889, 22.3167604], "next_O": [114.192812, 22.308068]}, "geometry": {"type": "LineString", "coordinates": [[114.170061, 22.319458], [114.19171, 22.308205]]}}, {"type": "Feature", "properties": {"id": "ghost_RX5674_20240606080512", "plate_no": "RX5674", "gap_start_time": "2024-06-06T08:05:12", "gap_end_time": "2024-06-06T09:00:12", "gap_duration_min": 55.0, "wasted_distance_km": 6.53, "prev_trip": "DA240606032601", "next_trip": "DA240606009501", "prev_O": [114.113115, 22.369607], "next_O": [114.162866, 22.3270262]}, "geometry": {"type": "LineString", "coordinates": [[114.116775, 22.367461], [114.162956, 22.327153]]}}, {"type": "Feature", "properties": {"id": "ghost_RX5674_20240606091112", "plate_no": "RX5674", "gap_start_time": "2024-06-06T09:11:12", "gap_end_time": "2024-06-06T13:00:09", "gap_duration_min": 228.95, "wasted_distance_km": 7.97, "prev_trip": "DA240606009501", "next_trip": "DA240606035901", "prev_O": [114.162866, 22.3270262], "next_O": [114.2284154, 22.314391]}, "geometry": {"type": "LineString", "coordinates": [[114.155098, 22.339126], [114.227811, 22.314366]]}}, {"type": "Feature", "properties": {"id": "ghost_RX5674_20240606130637", "plate_no": "RX5674", "gap_start_time": "2024-06-06T13:06:37", "gap_end_time": "2024-06-06T15:00:25", "gap_duration_min": 113.8, "wasted_distance_km": 2.026, "prev_trip": "DA240606035901", "next_trip": "DA240606009311", "prev_O": [114.2284154, 22.314391], "next_O": [114.2159696, 22.3221985]}, "geometry": {"type": "LineString", "coordinates": [[114.230121, 22.30979], [114.215456, 22.321946]]}}, {"type": "Feature", "properties": {"id": "ghost_SL9703_20240606111915", "plate_no": "SL9703", "gap_start_time": "2024-06-06T11:19:15", "gap_end_time": "2024-06-06T13:30:24", "gap_duration_min": 131.15, "wasted_distance_km": 4.129, "prev_trip": "DA240606027201", "next_trip": "DA240606038401", "prev_O": [114.1579159, 22.3295301], "next_O": [114.2640324, 22.3147268]}, "geometry": {"type": "LineString", "coordinates": [[114.224696, 22.313203], [114.264821, 22.314031]]}}, {"type": "Feature", "properties": {"id": "ghost_SL9703_20240606134354", "plate_no": "SL9703", "gap_start_time": "2024-06-06T13:43:54", "gap_end_time": "2024-06-06T14:30:18", "gap_duration_min": 46.4, "wasted_distance_km": 0.253, "prev_trip": "DA240606038401", "next_trip": "DA240606026011", "prev_O": [114.2640324, 22.3147268], "next_O": [114.2269991, 22.3068786]}, "geometry": {"type": "LineString", "coordinates": [[114.228148, 22.30602], [114.228111, 22.308293]]}}, {"type": "Feature", "properties": {"id": "ghost_TE7832_20240606143414", "plate_no": "TE7832", "gap_start_time": "2024-06-06T14:34:14", "gap_end_time": "2024-06-06T17:55:03", "gap_duration_min": 200.82, "wasted_distance_km": 10.895, "prev_trip": "DA240606029802", "next_trip": "DA240606012302", "prev_O": [114.1777194, 22.2755944], "next_O": [114.2436006, 22.2729853]}, "geometry": {"type": "LineString", "coordinates": [[114.139195, 22.256308], [114.243595, 22.2726]]}}, {"type": "Feature", "properties": {"id": "ghost_TF2479_20240606070925", "plate_no": "TF2479", "gap_start_time": "2024-06-06T07:09:25", "gap_end_time": "2024-06-06T08:00:15", "gap_duration_min": 50.83, "wasted_distance_km": 0.305, "prev_trip": "DA240606026101", "next_trip": "DA240606001311", "prev_O": [114.204565, 22.2898326], "next_O": [114.1728298, 22.2766709]}, "geometry": {"type": "LineString", "coordinates": [[114.174505, 22.278375], [114.172235, 22.276618]]}}, {"type": "Feature", "properties": {"id": "ghost_TF443_20240606080248", "plate_no": "TF443", "gap_start_time": "2024-06-06T08:02:48", "gap_end_time": "2024-06-06T08:31:48", "gap_duration_min": 29.0, "wasted_distance_km": 0.735, "prev_trip": "DA240606020801", "next_trip": "DA240606017101", "prev_O": [114.226526, 22.3299506], "next_O": [114.2299447, 22.3143508]}, "geometry": {"type": "LineString", "coordinates": [[114.225596, 22.324346], [114.227741, 22.318045]]}}, {"type": "Feature", "properties": {"id": "ghost_TF443_20240606083618", "plate_no": "TF443", "gap_start_time": "2024-06-06T08:36:18", "gap_end_time": "2024-06-06T11:16:19", "gap_duration_min": 160.02, "wasted_distance_km": 7.007, "prev_trip": "DA240606017101", "next_trip": "DA240606022202", "prev_O": [114.2299447, 22.3143508], "next_O": [114.1762882, 22.2781796]}, "geometry": {"type": "LineString", "coordinates": [[114.227118, 22.319946], [114.174026, 22.280471]]}}, {"type": "Feature", "properties": {"id": "ghost_TX9739_20240606055231", "plate_no": "TX9739", "gap_start_time": "2024-06-06T05:52:31", "gap_end_time": "2024-06-06T07:00:10", "gap_duration_min": 67.65, "wasted_distance_km": 3.271, "prev_trip": "DA240606022201", "next_trip": "DA240606040011", "prev_O": [114.0979333, 22.3489429], "next_O": [114.1868509, 22.3046948]}, "geometry": {"type": "LineString", "coordinates": [[114.174495, 22.278433], [114.186483, 22.305681]]}}, {"type": "Feature", "properties": {"id": "ghost_TX9739_20240606072210", "plate_no": "TX9739", "gap_start_time": "2024-06-06T07:22:10", "gap_end_time": "2024-06-06T09:15:15", "gap_duration_min": 113.08, "wasted_distance_km": 5.318, "prev_trip": "DA240606040011", "next_trip": "DA240606022501", "prev_O": [114.1868509, 22.3046948], "next_O": [114.1316498, 22.2619987]}, "geometry": {"type": "LineString", "coordinates": [[114.183663, 22.269361], [114.132368, 22.26352]]}}, {"type": "Feature", "properties": {"id": "ghost_TX9739_20240606092745", "plate_no": "TX9739", "gap_start_time": "2024-06-06T09:27:45", "gap_end_time": "2024-06-06T13:15:17", "gap_duration_min": 227.53, "wasted_distance_km": 4.301, "prev_trip": "DA240606022501", "next_trip": "DA240606042201", "prev_O": [114.1316498, 22.2619987], "next_O": [114.160647, 22.3194144]}, "geometry": {"type": "LineString", "coordinates": [[114.140075, 22.285665], [114.160691, 22.31932], [114.160691, 22.31932]]}}, {"type": "Feature", "properties": {"id": "ghost_TX9893_20240606092100", "plate_no": "TX9893", "gap_start_time": "2024-06-06T09:21:00", "gap_end_time": "2024-06-06T11:20:29", "gap_duration_min": 119.48, "wasted_distance_km": 8.291, "prev_trip": "DA240606007601", "next_trip": "DA240606034811", "prev_O": [114.1786768, 22.3729477], "next_O": [114.1178066, 22.3689762]}, "geometry": {"type": "LineString", "coordinates": [[114.197181, 22.37971], [114.117386, 22.368973]]}}, {"type": "Feature", "properties": {"id": "ghost_TX9893_20240606114656", "plate_no": "TX9893", "gap_start_time": "2024-06-06T11:46:56", "gap_end_time": "2024-06-06T13:55:16", "gap_duration_min": 128.33, "wasted_distance_km": 5.637, "prev_trip": "DA240606034811", "next_trip": "DA240606029601", "prev_O": [114.1178066, 22.3689762], "next_O": [114.2323362, 22.3168657]}, "geometry": {"type": "LineString", "coordinates": [[114.17763, 22.317858], [114.232426, 22.317158]]}}, {"type": "Feature", "properties": {"id": "ghost_TX9893_20240606135914", "plate_no": "TX9893", "gap_start_time": "2024-06-06T13:59:14", "gap_end_time": "2024-06-06T14:35:11", "gap_duration_min": 35.95, "wasted_distance_km": 1.73, "prev_trip": "DA240606029601", "next_trip": "DA240606035902", "prev_O": [114.2323362, 22.3168657], "next_O": [114.2285538, 22.3079624]}, "geometry": {"type": "LineString", "coordinates": [[114.225741, 22.323025], [114.229156, 22.307791]]}}, {"type": "Feature", "properties": {"id": "ghost_UL3556_20240606085235", "plate_no": "UL3556", "gap_start_time": "2024-06-06T08:52:35", "gap_end_time": "2024-06-06T09:20:16", "gap_duration_min": 27.68, "wasted_distance_km": 2.097, "prev_trip": "DA240606002701", "next_trip": "DA240606026511", "prev_O": [114.268715, 22.2962922], "next_O": [114.2216835, 22.3196755]}, "geometry": {"type": "LineString", "coordinates": [[114.213165, 22.335881], [114.222653, 22.319186]]}}, {"type": "Feature", "properties": {"id": "ghost_UL3556_20240606100146", "plate_no": "UL3556", "gap_start_time": "2024-06-06T10:01:46", "gap_end_time": "2024-06-06T13:30:11", "gap_duration_min": 208.42, "wasted_distance_km": 0.081, "prev_trip": "DA240606026511", "next_trip": "DA240606026611", "prev_O": [114.2216835, 22.3196755], "next_O": [114.23366, 22.26308]}, "geometry": {"type": "LineString", "coordinates": [[114.23445, 22.262871], [114.233666, 22.262966]]}}, {"type": "Feature", "properties": {"id": "ghost_UL7804_20240606083804", "plate_no": "UL7804", "gap_start_time": "2024-06-06T08:38:04", "gap_end_time": "2024-06-06T12:15:25", "gap_duration_min": 217.35, "wasted_distance_km": 2.527, "prev_trip": "DA240606006811", "next_trip": "DA240606026811", "prev_O": [114.2567421, 22.3113053], "next_O": [114.2302479, 22.308176]}, "geometry": {"type": "LineString", "coordinates": [[114.248268, 22.323673], [114.230831, 22.30766]]}}, {"type": "Feature", "properties": {"id": "ghost_UL7804_20240606122724", "plate_no": "UL7804", "gap_start_time": "2024-06-06T12:27:24", "gap_end_time": "2024-06-06T13:16:50", "gap_duration_min": 49.43, "wasted_distance_km": 7.394, "prev_trip": "DA240606026811", "next_trip": "DA240606035102", "prev_O": [114.2302479, 22.308176], "next_O": [114.1266854, 22.3621829]}, "geometry": {"type": "LineString", "coordinates": [[114.198546, 22.340621], [114.130673, 22.36255]]}}, {"type": "Feature", "properties": {"id": "ghost_UM4207_20240606084337", "plate_no": "UM4207", "gap_start_time": "2024-06-06T08:43:37", "gap_end_time": "2024-06-06T09:22:57", "gap_duration_min": 39.33, "wasted_distance_km": 7.815, "prev_trip": "DA240606000811", "next_trip": "DA240606043201", "prev_O": [114.217242, 22.322492], "next_O": [114.2572761, 22.3074503]}, "geometry": {"type": "LineString", "coordinates": [[114.184606, 22.324393], [114.258071, 22.306495]]}}, {"type": "Feature", "properties": {"id": "ghost_UM4207_20240606094127", "plate_no": "UM4207", "gap_start_time": "2024-06-06T09:41:27", "gap_end_time": "2024-06-06T14:31:20", "gap_duration_min": 289.88, "wasted_distance_km": 3.86, "prev_trip": "DA240606043201", "next_trip": "DA240606018001", "prev_O": [114.2572761, 22.3074503], "next_O": [114.1926114, 22.3085362]}, "geometry": {"type": "LineString", "coordinates": [[114.228198, 22.306036], [114.19078, 22.30864]]}}, {"type": "Feature", "properties": {"id": "ghost_UM7167_20240606095243", "plate_no": "UM7167", "gap_start_time": "2024-06-06T09:52:43", "gap_end_time": "2024-06-06T13:40:09", "gap_duration_min": 227.43, "wasted_distance_km": 12.464, "prev_trip": "DA240606029701", "next_trip": "DA240606008501", "prev_O": [114.1744015, 22.276511], "next_O": [114.2168753, 22.3806145]}, "geometry": {"type": "LineString", "coordinates": [[114.17414, 22.275741], [114.21707, 22.380558]]}}, {"type": "Feature", "properties": {"id": "ghost_UN9553_20240606130753", "plate_no": "UN9553", "gap_start_time": "2024-06-06T13:07:53", "gap_end_time": "2024-06-06T17:15:03", "gap_duration_min": 247.17, "wasted_distance_km": 10.124, "prev_trip": "DA240606031702", "next_trip": "DA240606013602", "prev_O": [114.1486249, 22.3373874], "next_O": [114.2011575, 22.2900879]}, "geometry": {"type": "LineString", "coordinates": [[114.142161, 22.368178], [114.197621, 22.292956]]}}, {"type": "Feature", "properties": {"id": "ghost_UN9790_20240606102549", "plate_no": "UN9790", "gap_start_time": "2024-06-06T10:25:49", "gap_end_time": "2024-06-06T13:00:02", "gap_duration_min": 154.22, "wasted_distance_km": 14.03, "prev_trip": "DA240606011301", "next_trip": "DA240606040702", "prev_O": [114.049219, 22.473131], "next_O": [114.1113314, 22.3751831]}, "geometry": {"type": "LineString", "coordinates": [[114.00403, 22.453258], [114.11135, 22.375306]]}}, {"type": "Feature", "properties": {"id": "ghost_UP3870_20240606090850", "plate_no": "UP3870", "gap_start_time": "2024-06-06T09:08:50", "gap_end_time": "2024-06-06T12:32:21", "gap_duration_min": 203.52, "wasted_distance_km": 4.523, "prev_trip": "DA240606007701", "next_trip": "DA240606039211", "prev_O": [114.23134, 22.42554], "next_O": [114.1992046, 22.3382294]}, "geometry": {"type": "LineString", "coordinates": [[114.198806, 22.37998], [114.198905, 22.3393]]}}, {"type": "Feature", "properties": {"id": "ghost_UP6525_20240606133037", "plate_no": "UP6525", "gap_start_time": "2024-06-06T13:30:37", "gap_end_time": "2024-06-06T16:13:59", "gap_duration_min": 163.37, "wasted_distance_km": 8.537, "prev_trip": "DA240606015901", "next_trip": "DA240606008102", "prev_O": [114.2361201, 22.2995866], "next_O": [114.153821, 22.2754093]}, "geometry": {"type": "LineString", "coordinates": [[114.228606, 22.310808], [114.154748, 22.275815]]}}, {"type": "Feature", "properties": {"id": "ghost_UP6949_20240606115609", "plate_no": "UP6949", "gap_start_time": "2024-06-06T11:56:09", "gap_end_time": "2024-06-06T12:31:13", "gap_duration_min": 35.07, "wasted_distance_km": 6.852, "prev_trip": "DA240606041001", "next_trip": "DA240606041902", "prev_O": [114.2223687, 22.4105226], "next_O": [114.201222, 22.378404]}, "geometry": {"type": "LineString", "coordinates": [[114.244398, 22.428635], [114.203918, 22.379678]]}}, {"type": "Feature", "properties": {"id": "ghost_VA7986_20240606095613", "plate_no": "VA7986", "gap_start_time": "2024-06-06T09:56:13", "gap_end_time": "2024-06-06T12:35:02", "gap_duration_min": 158.82, "wasted_distance_km": 5.611, "prev_trip": "DA240606022601", "next_trip": "DA240606040811", "prev_O": [114.1430877, 22.2850022], "next_O": [114.1344175, 22.3403932]}, "geometry": {"type": "LineString", "coordinates": [[114.169995, 22.303088], [114.134306, 22.34125]]}}, {"type": "Feature", "properties": {"id": "ghost_VD4748_20240606103501", "plate_no": "VD4748", "gap_start_time": "2024-06-06T10:35:01", "gap_end_time": "2024-06-06T13:00:29", "gap_duration_min": 145.47, "wasted_distance_km": 0.65, "prev_trip": "DA240606016511", "next_trip": "DA240606021502", "prev_O": [114.145401, 22.2434883], "next_O": [114.1713296, 22.3304227]}, "geometry": {"type": "LineString", "coordinates": [[114.173305, 22.324765], [114.171821, 22.33045]]}}, {"type": "Feature", "properties": {"id": "ghost_VD768_20240606142124", "plate_no": "VD768", "gap_start_time": "2024-06-06T14:21:24", "gap_end_time": "2024-06-06T15:35:54", "gap_duration_min": 74.5, "wasted_distance_km": 5.912, "prev_trip": "DA240606012601", "next_trip": "DA240606015002", "prev_O": [114.1808597, 22.3802319], "next_O": [114.1219651, 22.3714765]}, "geometry": {"type": "LineString", "coordinates": [[114.181911, 22.377585], [114.12485, 22.371035]]}}, {"type": "Feature", "properties": {"id": "ghost_VD768_20240606155551", "plate_no": "VD768", "gap_start_time": "2024-06-06T15:55:51", "gap_end_time": "2024-06-06T17:15:13", "gap_duration_min": 79.37, "wasted_distance_km": 1.792, "prev_trip": "DA240606015002", "next_trip": "DA240606002011", "prev_O": [114.1219651, 22.3714765], "next_O": [114.1228036, 22.3745621]}, "geometry": {"type": "LineString", "coordinates": [[114.137356, 22.370773], [114.120413, 22.374536]]}}, {"type": "Feature", "properties": {"id": "ghost_VG427_20240606143359", "plate_no": "VG427", "gap_start_time": "2024-06-06T14:33:59", "gap_end_time": "2024-06-06T17:25:10", "gap_duration_min": 171.18, "wasted_distance_km": 8.849, "prev_trip": "DA240606045802", "next_trip": "DA240606034911", "prev_O": [114.2564867, 22.3243972], "next_O": [114.1791746, 22.3199438]}, "geometry": {"type": "LineString", "coordinates": [[114.26533, 22.31719], [114.17931, 22.317081]]}}, {"type": "Feature", "properties": {"id": "ghost_VV6972_20240606093804", "plate_no": "VV6972", "gap_start_time": "2024-06-06T09:38:04", "gap_end_time": "2024-06-06T13:45:27", "gap_duration_min": 247.38, "wasted_distance_km": 8.948, "prev_trip": "DA240606012201", "next_trip": "DA240606031001", "prev_O": [114.2707867, 22.383689], "next_O": [114.2025251, 22.3443523]}, "geometry": {"type": "LineString", "coordinates": [[114.119528, 22.368163], [114.202675, 22.344461]]}}, {"type": "Feature", "properties": {"id": "ghost_VV6972_20240606140252", "plate_no": "VV6972", "gap_start_time": "2024-06-06T14:02:52", "gap_end_time": "2024-06-06T17:09:25", "gap_duration_min": 186.55, "wasted_distance_km": 1.025, "prev_trip": "DA240606031001", "next_trip": "DA240606011902", "prev_O": [114.2025251, 22.3443523], "next_O": [114.1743747, 22.3091816]}, "geometry": {"type": "LineString", "coordinates": [[114.170896, 22.312938], [114.17748, 22.306015]]}}, {"type": "Feature", "properties": {"id": "ghost_VV7298_20240606124035", "plate_no": "VV7298", "gap_start_time": "2024-06-06T12:40:35", "gap_end_time": "2024-06-06T14:00:13", "gap_duration_min": 79.63, "wasted_distance_km": 2.321, "prev_trip": "DA240606039702", "next_trip": "DA240606041611", "prev_O": [114.1572301, 22.280245], "next_O": [114.1034949, 22.3485601]}, "geometry": {"type": "LineString", "coordinates": [[114.114655, 22.366263], [114.103138, 22.34831]]}}, {"type": "Feature", "properties": {"id": "ghost_VW3047_20240606124425", "plate_no": "VW3047", "gap_start_time": "2024-06-06T12:44:25", "gap_end_time": "2024-06-06T13:46:01", "gap_duration_min": 61.6, "wasted_distance_km": 11.242, "prev_trip": "DA240606037302", "next_trip": "DA240606017702", "prev_O": [114.1832816, 22.3250389], "next_O": [114.107411, 22.374918]}, "geometry": {"type": "LineString", "coordinates": [[114.1901, 22.308865], [114.106343, 22.373828]]}}, {"type": "Feature", "properties": {"id": "ghost_WN8723_20240606131934", "plate_no": "WN8723", "gap_start_time": "2024-06-06T13:19:34", "gap_end_time": "2024-06-06T14:50:04", "gap_duration_min": 90.5, "wasted_distance_km": 3.646, "prev_trip": "DA240606027202", "next_trip": "DA240606006611", "prev_O": [114.2286568, 22.3119002], "next_O": [114.192478, 22.338538]}, "geometry": {"type": "LineString", "coordinates": [[114.161156, 22.326535], [114.19407, 22.3387]]}}, {"type": "Feature", "properties": {"id": "ghost_WN9330_20240606154920", "plate_no": "WN9330", "gap_start_time": "2024-06-06T15:49:20", "gap_end_time": "2024-06-06T16:46:17", "gap_duration_min": 56.95, "wasted_distance_km": 0.42, "prev_trip": "DA240606007602", "next_trip": "DA240606015402", "prev_O": [114.1987643, 22.3804685], "next_O": [114.1700846, 22.3760056]}, "geometry": {"type": "LineString", "coordinates": [[114.175856, 22.37513], [114.172343, 22.377055]]}}, {"type": "Feature", "properties": {"id": "ghost_WN9331_20240606080413", "plate_no": "WN9331", "gap_start_time": "2024-06-06T08:04:13", "gap_end_time": "2024-06-06T15:40:21", "gap_duration_min": 456.13, "wasted_distance_km": 8.734, "prev_trip": "DA240606000301", "next_trip": "DA240606002902", "prev_O": [114.1266489, 22.3476314], "next_O": [114.212997, 22.3358478]}, "geometry": {"type": "LineString", "coordinates": [[114.129083, 22.346316], [114.213218, 22.335683]]}}, {"type": "Feature", "properties": {"id": "ghost_WP3895_20240606063208", "plate_no": "WP3895", "gap_start_time": "2024-06-06T06:32:08", "gap_end_time": "2024-06-06T11:40:26", "gap_duration_min": 308.3, "wasted_distance_km": 6.583, "prev_trip": "DA240606010401", "next_trip": "DA240606009701", "prev_O": [114.167627, 22.316376], "next_O": [114.23931, 22.306717]}, "geometry": {"type": "LineString", "coordinates": [[114.175261, 22.31824], [114.238111, 22.307083]]}}, {"type": "Feature", "properties": {"id": "ghost_WP3895_20240606115656", "plate_no": "WP3895", "gap_start_time": "2024-06-06T11:56:56", "gap_end_time": "2024-06-06T13:30:28", "gap_duration_min": 93.53, "wasted_distance_km": 7.254, "prev_trip": "DA240606009701", "next_trip": "DA240606025101", "prev_O": [114.23931, 22.306717], "next_O": [114.186744, 22.375414]}, "geometry": {"type": "LineString", "coordinates": [[114.22657, 22.321141], [114.18682, 22.37503]]}}, {"type": "Feature", "properties": {"id": "ghost_WP4172_20240606161913", "plate_no": "WP4172", "gap_start_time": "2024-06-06T16:19:13", "gap_end_time": "2024-06-06T20:05:08", "gap_duration_min": 225.92, "wasted_distance_km": 23.768, "prev_trip": "DA240606024502", "next_trip": "DA240606005202", "prev_O": [114.1966145, 22.3456548], "next_O": [113.9708854, 22.404466]}, "geometry": {"type": "LineString", "coordinates": [[114.192143, 22.340991], [113.971448, 22.404558]]}}, {"type": "Feature", "properties": {"id": "ghost_WP5387_20240606103400", "plate_no": "WP5387", "gap_start_time": "2024-06-06T10:34:00", "gap_end_time": "2024-06-06T13:00:08", "gap_duration_min": 146.13, "wasted_distance_km": 6.335, "prev_trip": "DA240606023811", "next_trip": "DA240606037802", "prev_O": [114.1924704, 22.2722034], "next_O": [114.1312907, 22.269962]}, "geometry": {"type": "LineString", "coordinates": [[114.192175, 22.27211], [114.130655, 22.26997]]}}, {"type": "Feature", "properties": {"id": "ghost_XE7053_20240606084018", "plate_no": "XE7053", "gap_start_time": "2024-06-06T08:40:18", "gap_end_time": "2024-06-06T09:20:18", "gap_duration_min": 40.0, "wasted_distance_km": 5.937, "prev_trip": "DA240606010501", "next_trip": "DA240606032401", "prev_O": [114.1704284, 22.3248465], "next_O": [114.1315599, 22.3482156]}, "geometry": {"type": "LineString", "coordinates": [[114.175766, 22.313026], [114.13179, 22.347605]]}}, {"type": "Feature", "properties": {"id": "ghost_XE7053_20240606094248", "plate_no": "XE7053", "gap_start_time": "2024-06-06T09:42:48", "gap_end_time": "2024-06-06T10:50:18", "gap_duration_min": 67.5, "wasted_distance_km": 9.956, "prev_trip": "DA240606032401", "next_trip": "DA240606036502", "prev_O": [114.1315599, 22.3482156], "next_O": [114.207831, 22.32266]}, "geometry": {"type": "LineString", "coordinates": [[114.125093, 22.367246], [114.208438, 22.321693]]}}, {"type": "Feature", "properties": {"id": "ghost_XE7168_20240606094454", "plate_no": "XE7168", "gap_start_time": "2024-06-06T09:44:54", "gap_end_time": "2024-06-06T10:45:23", "gap_duration_min": 60.48, "wasted_distance_km": 2.449, "prev_trip": "DA240606042511", "next_trip": "DA240606020211", "prev_O": [114.1699138, 22.324487], "next_O": [114.129029, 22.3585969]}, "geometry": {"type": "LineString", "coordinates": [[114.12473, 22.381055], [114.1269, 22.359121]]}}, {"type": "Feature", "properties": {"id": "ghost_XE7168_20240606110053", "plate_no": "XE7168", "gap_start_time": "2024-06-06T11:00:53", "gap_end_time": "2024-06-06T13:30:37", "gap_duration_min": 149.73, "wasted_distance_km": 1.706, "prev_trip": "DA240606020211", "next_trip": "DA240606045101", "prev_O": [114.129029, 22.3585969], "next_O": [114.1044996, 22.3628012]}, "geometry": {"type": "LineString", "coordinates": [[114.111655, 22.375203], [114.101963, 22.362751]]}}, {"type": "Feature", "properties": {"id": "ghost_XE7168_20240606135707", "plate_no": "XE7168", "gap_start_time": "2024-06-06T13:57:07", "gap_end_time": "2024-06-06T14:40:07", "gap_duration_min": 43.0, "wasted_distance_km": 3.892, "prev_trip": "DA240606045101", "next_trip": "DA240606000611", "prev_O": [114.1044996, 22.3628012], "next_O": [114.1831334, 22.3223645]}, "geometry": {"type": "LineString", "coordinates": [[114.149181, 22.338285], [114.18279, 22.322196]]}}, {"type": "Feature", "properties": {"id": "ghost_XE782_20240606145320", "plate_no": "XE782", "gap_start_time": "2024-06-06T14:53:20", "gap_end_time": "2024-06-06T16:30:05", "gap_duration_min": 96.75, "wasted_distance_km": 10.238, "prev_trip": "DA240606022502", "next_trip": "DA240606038202", "prev_O": [114.2362653, 22.2695993], "next_O": [114.2372851, 22.2701475]}, "geometry": {"type": "LineString", "coordinates": [[114.140811, 22.288525], [114.23857, 22.271363]]}}, {"type": "Feature", "properties": {"id": "ghost_XE8413_20240606100242", "plate_no": "XE8413", "gap_start_time": "2024-06-06T10:02:42", "gap_end_time": "2024-06-06T11:45:00", "gap_duration_min": 102.3, "wasted_distance_km": 0.345, "prev_trip": "DA240606002101", "next_trip": "DA240606012902", "prev_O": [114.0245029, 22.4512088], "next_O": [113.9649146, 22.3748696]}, "geometry": {"type": "LineString", "coordinates": [[113.96685, 22.377786], [113.964836, 22.375308]]}}, {"type": "Feature", "properties": {"id": "ghost_XM9877_20240606160133", "plate_no": "XM9877", "gap_start_time": "2024-06-06T16:01:33", "gap_end_time": "2024-06-06T16:45:03", "gap_duration_min": 43.5, "wasted_distance_km": 6.641, "prev_trip": "DA240606032602", "next_trip": "DA240606012602", "prev_O": [114.118883, 22.369655], "next_O": [114.1795006, 22.3746384]}, "geometry": {"type": "LineString", "coordinates": [[114.114903, 22.371335], [114.17938, 22.374786]]}}, {"type": "Feature", "properties": {"id": "ghost_XM9877_20240606165143", "plate_no": "XM9877", "gap_start_time": "2024-06-06T16:51:43", "gap_end_time": "2024-06-06T17:15:03", "gap_duration_min": 23.33, "wasted_distance_km": 2.077, "prev_trip": "DA240606012602", "next_trip": "DA240606035002", "prev_O": [114.1795006, 22.3746384], "next_O": [114.201222, 22.378404]}, "geometry": {"type": "LineString", "coordinates": [[114.182233, 22.377201], [114.202153, 22.380296]]}}, {"type": "Feature", "properties": {"id": "ghost_XN5447_20240606114308", "plate_no": "XN5447", "gap_start_time": "2024-06-06T11:43:08", "gap_end_time": "2024-06-06T14:00:15", "gap_duration_min": 137.12, "wasted_distance_km": 5.453, "prev_trip": "DA240606043902", "next_trip": "DA240606045601", "prev_O": [114.1311358, 22.2701849], "next_O": [114.21284, 22.335789]}, "geometry": {"type": "LineString", "coordinates": [[114.167963, 22.309856], [114.213045, 22.335655]]}}, {"type": "Feature", "properties": {"id": "ghost_XN7430_20240606130001", "plate_no": "XN7430", "gap_start_time": "2024-06-06T13:00:01", "gap_end_time": "2024-06-06T14:40:03", "gap_duration_min": 100.03, "wasted_distance_km": 1.106, "prev_trip": "DA240606010602", "next_trip": "DA240606001202", "prev_O": [114.1677748, 22.3170666], "next_O": [114.1831334, 22.3223645]}, "geometry": {"type": "LineString", "coordinates": [[114.179628, 22.313165], [114.182996, 22.322613]]}}, {"type": "Feature", "properties": {"id": "ghost_XN7430_20240606152403", "plate_no": "XN7430", "gap_start_time": "2024-06-06T15:24:03", "gap_end_time": "2024-06-06T17:00:33", "gap_duration_min": 96.5, "wasted_distance_km": 5.628, "prev_trip": "DA240606001202", "next_trip": "DA240606033111", "prev_O": [114.1831334, 22.3223645], "next_O": [114.1344118, 22.2867874]}, "geometry": {"type": "LineString", "coordinates": [[114.186315, 22.278065], [114.13247, 22.286955]]}}, {"type": "Feature", "properties": {"id": "ghost_XV1460_20240606101713", "plate_no": "XV1460", "gap_start_time": "2024-06-06T10:17:13", "gap_end_time": "2024-06-06T12:50:11", "gap_duration_min": 152.97, "wasted_distance_km": 7.068, "prev_trip": "DA240606037911", "next_trip": "DA240606038711", "prev_O": [114.1692792, 22.2746736], "next_O": [114.1245247, 22.2709886]}, "geometry": {"type": "LineString", "coordinates": [[114.191031, 22.285228], [114.124113, 22.270886]]}}, {"type": "Feature", "properties": {"id": "ghost_XV1460_20240606131711", "plate_no": "XV1460", "gap_start_time": "2024-06-06T13:17:11", "gap_end_time": "2024-06-06T14:15:17", "gap_duration_min": 58.1, "wasted_distance_km": 1.624, "prev_trip": "DA240606038711", "next_trip": "DA240606038201", "prev_O": [114.1245247, 22.2709886], "next_O": [114.2009229, 22.2896155]}, "geometry": {"type": "LineString", "coordinates": [[114.193311, 22.277248], [114.201208, 22.289893]]}}, {"type": "Feature", "properties": {"id": "ghost_XV2836_20240606130746", "plate_no": "XV2836", "gap_start_time": "2024-06-06T13:07:46", "gap_end_time": "2024-06-06T14:45:29", "gap_duration_min": 97.72, "wasted_distance_km": 4.631, "prev_trip": "DA240606030411", "next_trip": "DA240606003611", "prev_O": [114.2516341, 22.3048796], "next_O": [114.2336165, 22.2637098]}, "geometry": {"type": "LineString", "coordinates": [[114.227798, 22.305703], [114.23314, 22.26435]]}}, {"type": "Feature", "properties": {"id": "ghost_XV2836_20240606151030", "plate_no": "XV2836", "gap_start_time": "2024-06-06T15:10:30", "gap_end_time": "2024-06-06T16:09:52", "gap_duration_min": 59.37, "wasted_distance_km": 1.509, "prev_trip": "DA240606003611", "next_trip": "DA240606003711", "prev_O": [114.2336165, 22.2637098], "next_O": [114.2336165, 22.2637098]}, "geometry": {"type": "LineString", "coordinates": [[114.237905, 22.278036], [114.234195, 22.264903]]}}, {"type": "Feature", "properties": {"id": "ghost_XV3002_20240606094123", "plate_no": "XV3002", "gap_start_time": "2024-06-06T09:41:23", "gap_end_time": "2024-06-06T10:30:01", "gap_duration_min": 48.63, "wasted_distance_km": 3.192, "prev_trip": "DA240606013601", "next_trip": "DA240606046011", "prev_O": [114.2410423, 22.27625], "next_O": [114.1753051, 22.2758454]}, "geometry": {"type": "LineString", "coordinates": [[114.201496, 22.290436], [114.174888, 22.275671], [114.174888, 22.275671]]}}, {"type": "Feature", "properties": {"id": "ghost_XV3002_20240606110910", "plate_no": "XV3002", "gap_start_time": "2024-06-06T11:09:10", "gap_end_time": "2024-06-06T13:45:15", "gap_duration_min": 156.08, "wasted_distance_km": 16.936, "prev_trip": "DA240606046011", "next_trip": "DA240606026911", "prev_O": [114.1753051, 22.2758454], "next_O": [114.23366, 22.26308]}, "geometry": {"type": "LineString", "coordinates": [[114.223228, 22.415105], [114.233646, 22.2631]]}}, {"type": "Feature", "properties": {"id": "ghost_XV7112_20240606145328", "plate_no": "XV7112", "gap_start_time": "2024-06-06T14:53:28", "gap_end_time": "2024-06-06T16:00:27", "gap_duration_min": 66.98, "wasted_distance_km": 2.853, "prev_trip": "DA240606022602", "next_trip": "DA240606021211", "prev_O": [114.1725229, 22.3019182], "next_O": [114.1242972, 22.2706361]}, "geometry": {"type": "LineString", "coordinates": [[114.143865, 22.288773], [114.124136, 22.270745]]}}, {"type": "Feature", "properties": {"id": "ghost_XV7112_20240606163657", "plate_no": "XV7112", "gap_start_time": "2024-06-06T16:36:57", "gap_end_time": "2024-06-06T16:52:27", "gap_duration_min": 15.5, "wasted_distance_km": 5.826, "prev_trip": "DA240606021211", "next_trip": "DA240606016302", "prev_O": [114.1242972, 22.2706361], "next_O": [114.1611131, 22.3341651]}, "geometry": {"type": "LineString", "coordinates": [[114.106298, 22.343663], [114.161695, 22.332705]]}}, {"type": "Feature", "properties": {"id": "ghost_YK3534_20240606095209", "plate_no": "YK3534", "gap_start_time": "2024-06-06T09:52:09", "gap_end_time": "2024-06-06T14:30:42", "gap_duration_min": 278.55, "wasted_distance_km": 1.301, "prev_trip": "DA240606014801", "next_trip": "DA240606016611", "prev_O": [114.2297222, 22.4252778], "next_O": [114.1723194, 22.3231937]}, "geometry": {"type": "LineString", "coordinates": [[114.185998, 22.325145], [114.173388, 22.324296]]}}, {"type": "Feature", "properties": {"id": "ghost_YK4725_20240606140930", "plate_no": "YK4725", "gap_start_time": "2024-06-06T14:09:30", "gap_end_time": "2024-06-06T16:30:00", "gap_duration_min": 140.5, "wasted_distance_km": 6.645, "prev_trip": "DA240606011801", "next_trip": "DA240606034411", "prev_O": [114.159077, 22.3314835], "next_O": [114.2303424, 22.3079333]}, "geometry": {"type": "LineString", "coordinates": [[114.16923, 22.31917], [114.232341, 22.306425]]}}, {"type": "Feature", "properties": {"id": "ghost_YK4725_20240606165300", "plate_no": "YK4725", "gap_start_time": "2024-06-06T16:53:00", "gap_end_time": "2024-06-06T17:50:00", "gap_duration_min": 57.0, "wasted_distance_km": 3.848, "prev_trip": "DA240606034411", "next_trip": "DA240606010811", "prev_O": [114.2303424, 22.3079333], "next_O": [114.2303424, 22.3079333]}, "geometry": {"type": "LineString", "coordinates": [[114.266888, 22.316653], [114.230668, 22.307993]]}}, {"type": "Feature", "properties": {"id": "ghost_YK6404_20240606125521", "plate_no": "YK6404", "gap_start_time": "2024-06-06T12:55:21", "gap_end_time": "2024-06-06T14:40:07", "gap_duration_min": 104.77, "wasted_distance_km": 4.574, "prev_trip": "DA240606032201", "next_trip": "DA240606000911", "prev_O": [114.2393516, 22.2942923], "next_O": [114.1831334, 22.3223645]}, "geometry": {"type": "LineString", "coordinates": [[114.227275, 22.319853], [114.182896, 22.322505]]}}, {"type": "Feature", "properties": {"id": "ghost_YK7541_20240606083737", "plate_no": "YK7541", "gap_start_time": "2024-06-06T08:37:37", "gap_end_time": "2024-06-06T16:03:21", "gap_duration_min": 445.73, "wasted_distance_km": 0.058, "prev_trip": "DA240606029511", "next_trip": "DA240606028402", "prev_O": [114.0048658, 22.4494779], "next_O": [114.041434, 22.445448]}, "geometry": {"type": "LineString", "coordinates": [[114.041286, 22.444946], [114.041573, 22.445393]]}}, {"type": "Feature", "properties": {"id": "ghost_YK905_20240606101325", "plate_no": "YK905", "gap_start_time": "2024-06-06T10:13:25", "gap_end_time": "2024-06-06T15:15:26", "gap_duration_min": 302.02, "wasted_distance_km": 10.528, "prev_trip": "DA240606031601", "next_trip": "DA240606010701", "prev_O": [114.1714779, 22.310214], "next_O": [114.0974479, 22.3543394]}, "geometry": {"type": "LineString", "coordinates": [[114.19783, 22.3395], [114.096515, 22.353048]]}}, {"type": "Feature", "properties": {"id": "ghost_YK905_20240606154626", "plate_no": "YK905", "gap_start_time": "2024-06-06T15:46:26", "gap_end_time": "2024-06-06T17:00:16", "gap_duration_min": 73.83, "wasted_distance_km": 1.397, "prev_trip": "DA240606010701", "next_trip": "DA240606032011", "prev_O": [114.0974479, 22.3543394], "next_O": [114.190279, 22.274745]}, "geometry": {"type": "LineString", "coordinates": [[114.19532, 22.28689], [114.19043, 22.275171]]}}, {"type": "Feature", "properties": {"id": "ghost_YK9198_20240606080430", "plate_no": "YK9198", "gap_start_time": "2024-06-06T08:04:30", "gap_end_time": "2024-06-06T09:30:00", "gap_duration_min": 85.5, "wasted_distance_km": 4.026, "prev_trip": "DA240606004111", "next_trip": "DA240606016201", "prev_O": [114.173386, 22.277853], "next_O": [114.14934, 22.24465]}, "geometry": {"type": "LineString", "coordinates": [[114.172335, 22.272768], [114.150235, 22.242891]]}}, {"type": "Feature", "properties": {"id": "ghost_YL1783_20240606155206", "plate_no": "YL1783", "gap_start_time": "2024-06-06T15:52:06", "gap_end_time": "2024-06-06T16:50:05", "gap_duration_min": 57.98, "wasted_distance_km": 2.474, "prev_trip": "DA240606031302", "next_trip": "DA240606043202", "prev_O": [114.2506126, 22.3076559], "next_O": [114.2303424, 22.3079333]}, "geometry": {"type": "LineString", "coordinates": [[114.224776, 22.28279], [114.22928, 22.304648]]}}, {"type": "Feature", "properties": {"id": "ghost_YL6700_20240606121024", "plate_no": "YL6700", "gap_start_time": "2024-06-06T12:10:24", "gap_end_time": "2024-06-06T13:00:24", "gap_duration_min": 50.0, "wasted_distance_km": 3.273, "prev_trip": "DA240606018802", "next_trip": "DA240606022401", "prev_O": [114.1832816, 22.3250389], "next_O": [114.1708277, 22.3073518]}, "geometry": {"type": "LineString", "coordinates": [[114.190448, 22.330361], [114.170866, 22.307156]]}}, {"type": "Feature", "properties": {"id": "ghost_YL8082_20240606104358", "plate_no": "YL8082", "gap_start_time": "2024-06-06T10:43:58", "gap_end_time": "2024-06-06T12:11:51", "gap_duration_min": 87.88, "wasted_distance_km": 9.079, "prev_trip": "DA240606029801", "next_trip": "DA240606025702", "prev_O": [114.13917, 22.258037], "next_O": [114.2579494, 22.3113757]}, "geometry": {"type": "LineString", "coordinates": [[114.179611, 22.27283], [114.257771, 22.310738]]}}, {"type": "Feature", "properties": {"id": "ghost_YL9716_20240606082057", "plate_no": "YL9716", "gap_start_time": "2024-06-06T08:20:57", "gap_end_time": "2024-06-06T09:00:15", "gap_duration_min": 39.3, "wasted_distance_km": 7.619, "prev_trip": "DA240606015501", "next_trip": "DA240606029911", "prev_O": [114.1819743, 22.3714238], "next_O": [114.1594908, 22.4560376]}, "geometry": {"type": "LineString", "coordinates": [[114.195316, 22.396383], [114.158435, 22.455816]]}}, {"type": "Feature", "properties": {"id": "ghost_YL9716_20240606092945", "plate_no": "YL9716", "gap_start_time": "2024-06-06T09:29:45", "gap_end_time": "2024-06-06T13:45:04", "gap_duration_min": 255.32, "wasted_distance_km": 11.046, "prev_trip": "DA240606029911", "next_trip": "DA240606013801", "prev_O": [114.1594908, 22.4560376], "next_O": [114.2518906, 22.3049429]}, "geometry": {"type": "LineString", "coordinates": [[114.196308, 22.390921], [114.251483, 22.305696]]}}, {"type": "Feature", "properties": {"id": "ghost_YY6773_20240606130753", "plate_no": "YY6773", "gap_start_time": "2024-06-06T13:07:53", "gap_end_time": "2024-06-06T14:45:20", "gap_duration_min": 97.45, "wasted_distance_km": 0.82, "prev_trip": "DA240606027301", "next_trip": "DA240606001411", "prev_O": [114.2314025, 22.2787402], "next_O": [114.1734816, 22.2725317]}, "geometry": {"type": "LineString", "coordinates": [[114.180461, 22.274978], [114.172976, 22.272448]]}}, {"type": "Feature", "properties": {"id": "ghost_YY6773_20240606153520", "plate_no": "YY6773", "gap_start_time": "2024-06-06T15:35:20", "gap_end_time": "2024-06-06T16:35:50", "gap_duration_min": 60.5, "wasted_distance_km": 0.964, "prev_trip": "DA240606001411", "next_trip": "DA240606001502", "prev_O": [114.1734816, 22.2725317], "next_O": [114.1734816, 22.2725317]}, "geometry": {"type": "LineString", "coordinates": [[114.18157, 22.278916], [114.177965, 22.270915]]}}, {"type": "Feature", "properties": {"id": "ghost_YY7490_20240606132908", "plate_no": "YY7490", "gap_start_time": "2024-06-06T13:29:08", "gap_end_time": "2024-06-06T14:41:15", "gap_duration_min": 72.12, "wasted_distance_km": 2.135, "prev_trip": "DA240606008101", "next_trip": "DA240606003111", "prev_O": [114.1500007, 22.2852085], "next_O": [114.173637, 22.2733649]}, "geometry": {"type": "LineString", "coordinates": [[114.15347, 22.275536], [114.174, 22.272751]]}}, {"type": "Feature", "properties": {"id": "ghost_YZ9431_20240606094757", "plate_no": "YZ9431", "gap_start_time": "2024-06-06T09:47:57", "gap_end_time": "2024-06-06T12:16:14", "gap_duration_min": 148.28, "wasted_distance_km": 3.426, "prev_trip": "DA240606025701", "next_trip": "DA240606041101", "prev_O": [114.139128, 22.2504021], "next_O": [114.2399321, 22.3366271]}, "geometry": {"type": "LineString", "coordinates": [[114.258293, 22.31149], [114.240035, 22.337263]]}}, {"type": "Feature", "properties": {"id": "ghost_ZA2376_20240606110836", "plate_no": "ZA2376", "gap_start_time": "2024-06-06T11:08:36", "gap_end_time": "2024-06-06T14:30:29", "gap_duration_min": 201.88, "wasted_distance_km": 6.164, "prev_trip": "DA240606017102", "next_trip": "DA240606018511", "prev_O": [114.2270078, 22.323232], "next_O": [114.1687962, 22.3240273]}, "geometry": {"type": "LineString", "coordinates": [[114.229245, 22.316355], [114.17006, 22.325051]]}}, {"type": "Feature", "properties": {"id": "ghost_ZA6941_20240606104456", "plate_no": "ZA6941", "gap_start_time": "2024-06-06T10:44:56", "gap_end_time": "2024-06-06T13:00:08", "gap_duration_min": 135.2, "wasted_distance_km": 9.702, "prev_trip": "DA240606021501", "next_trip": "DA240606036201", "prev_O": [113.9405304, 22.2884302], "next_O": [114.26277, 22.308295]}, "geometry": {"type": "LineString", "coordinates": [[114.170333, 22.331618], [114.261431, 22.309008]]}}, {"type": "Feature", "properties": {"id": "ghost_ZA7388_20240606081741", "plate_no": "ZA7388", "gap_start_time": "2024-06-06T08:17:41", "gap_end_time": "2024-06-06T09:25:10", "gap_duration_min": 67.48, "wasted_distance_km": 10.893, "prev_trip": "DA240606004511", "next_trip": "DA240606026711", "prev_O": [114.192092, 22.281794], "next_O": [114.2295647, 22.2779318]}, "geometry": {"type": "LineString", "coordinates": [[114.123078, 22.272311], [114.22879, 22.277486]]}}, {"type": "Feature", "properties": {"id": "ghost_ZA7388_20240606094111", "plate_no": "ZA7388", "gap_start_time": "2024-06-06T09:41:11", "gap_end_time": "2024-06-06T15:50:20", "gap_duration_min": 369.15, "wasted_distance_km": 11.461, "prev_trip": "DA240606026711", "next_trip": "DA240606004611", "prev_O": [114.2295647, 22.2779318], "next_O": [114.1245247, 22.2709886]}, "geometry": {"type": "LineString", "coordinates": [[114.235601, 22.26365], [114.124483, 22.270685]]}}, {"type": "Feature", "properties": {"id": "ghost_ZB1369_20240606122615", "plate_no": "ZB1369", "gap_start_time": "2024-06-06T12:26:15", "gap_end_time": "2024-06-06T13:15:15", "gap_duration_min": 49.0, "wasted_distance_km": 3.405, "prev_trip": "DA240606011702", "next_trip": "DA240606039301", "prev_O": [114.180362, 22.339322], "next_O": [114.1686262, 22.2768098]}, "geometry": {"type": "LineString", "coordinates": [[114.200128, 22.285283], [114.168148, 22.277408]]}}, {"type": "Feature", "properties": {"id": "ghost_ZB1369_20240606133115", "plate_no": "ZB1369", "gap_start_time": "2024-06-06T13:31:15", "gap_end_time": "2024-06-06T15:50:24", "gap_duration_min": 139.15, "wasted_distance_km": 11.261, "prev_trip": "DA240606039301", "next_trip": "DA240606004411", "prev_O": [114.1686262, 22.2768098], "next_O": [114.1245247, 22.2709886]}, "geometry": {"type": "LineString", "coordinates": [[114.233541, 22.268868], [114.12412, 22.270738]]}}]}