{"type": "FeatureCollection", "features": [{"type": "Feature", "properties": {"id": "ghost_RV3951_20240614092900", "plate_no": "RV3951", "gap_start_time": "2024-06-14T09:29:00", "gap_end_time": "2024-06-14T12:00:29", "gap_duration_min": 151.48, "wasted_distance_km": 0.272, "prev_trip": "DA240614011301", "next_trip": "DA240614011302", "prev_O": [114.2367575, 22.3003805], "next_O": [114.1832816, 22.3250389]}, "geometry": {"type": "LineString", "coordinates": [[114.185498, 22.325751], [114.1831, 22.324726]]}}, {"type": "Feature", "properties": {"id": "ghost_RV8266_20240614081907", "plate_no": "RV8266", "gap_start_time": "2024-06-14T08:19:07", "gap_end_time": "2024-06-14T08:50:07", "gap_duration_min": 31.0, "wasted_distance_km": 4.874, "prev_trip": "DA240614024911", "next_trip": "DA240614023901", "prev_O": [114.2386318, 22.3044081], "next_O": [114.1096204, 22.3422999]}, "geometry": {"type": "LineString", "coordinates": [[114.155695, 22.332266], [114.109581, 22.34236]]}}, {"type": "Feature", "properties": {"id": "ghost_RX5674_20240614081804", "plate_no": "RX5674", "gap_start_time": "2024-06-14T08:18:04", "gap_end_time": "2024-06-14T09:00:04", "gap_duration_min": 42.0, "wasted_distance_km": 3.373, "prev_trip": "DA240614013501", "next_trip": "DA240614007511", "prev_O": [114.2536773, 22.3225977], "next_O": [114.2092476, 22.3320719]}, "geometry": {"type": "LineString", "coordinates": [[114.231265, 22.310591], [114.209951, 22.33364]]}}, {"type": "Feature", "properties": {"id": "ghost_RX5674_20240614093434", "plate_no": "RX5674", "gap_start_time": "2024-06-14T09:34:34", "gap_end_time": "2024-06-14T13:15:28", "gap_duration_min": 220.9, "wasted_distance_km": 3.981, "prev_trip": "DA240614007511", "next_trip": "DA240614032401", "prev_O": [114.2092476, 22.3320719], "next_O": [114.2414181, 22.2974304]}, "geometry": {"type": "LineString", "coordinates": [[114.216036, 22.32383], [114.241931, 22.29723]]}}, {"type": "Feature", "properties": {"id": "ghost_SL7802_20240614093825", "plate_no": "SL7802", "gap_start_time": "2024-06-14T09:38:25", "gap_end_time": "2024-06-14T12:15:24", "gap_duration_min": 156.98, "wasted_distance_km": 12.829, "prev_trip": "DA240614049901", "next_trip": "DA240614041801", "prev_O": [114.2364055, 22.310251], "next_O": [114.2675776, 22.3164593]}, "geometry": {"type": "LineString", "coordinates": [[114.144701, 22.337383], [114.267395, 22.316628]]}}, {"type": "Feature", "properties": {"id": "ghost_TD7860_20240614081615", "plate_no": "TD7860", "gap_start_time": "2024-06-14T08:16:15", "gap_end_time": "2024-06-14T12:15:06", "gap_duration_min": 238.85, "wasted_distance_km": 3.561, "prev_trip": "DA240614014301", "next_trip": "DA240614014411", "prev_O": [114.1819743, 22.3714238], "next_O": [114.1712374, 22.3730379]}, "geometry": {"type": "LineString", "coordinates": [[114.195941, 22.395771], [114.171596, 22.372996]]}}, {"type": "Feature", "properties": {"id": "ghost_TF2479_20240614065227", "plate_no": "TF2479", "gap_start_time": "2024-06-14T06:52:27", "gap_end_time": "2024-06-14T08:00:04", "gap_duration_min": 67.62, "wasted_distance_km": 10.956, "prev_trip": "DA240614018211", "next_trip": "DA240614008411", "prev_O": [114.179555, 22.276041], "next_O": [114.2365271, 22.2631632]}, "geometry": {"type": "LineString", "coordinates": [[114.130163, 22.273715], [114.236066, 22.263553]]}}, {"type": "Feature", "properties": {"id": "ghost_TX9769_20240614095441", "plate_no": "TX9769", "gap_start_time": "2024-06-14T09:54:41", "gap_end_time": "2024-06-14T11:50:10", "gap_duration_min": 115.48, "wasted_distance_km": 0.019, "prev_trip": "DA240614040901", "next_trip": "DA240614040902", "prev_O": [114.190706, 22.342478], "next_O": [114.1841339, 22.3775127]}, "geometry": {"type": "LineString", "coordinates": [[114.184548, 22.377495], [114.184406, 22.377386]]}}, {"type": "Feature", "properties": {"id": "ghost_TX9769_20240614120611", "plate_no": "TX9769", "gap_start_time": "2024-06-14T12:06:11", "gap_end_time": "2024-06-14T13:00:08", "gap_duration_min": 53.95, "wasted_distance_km": 6.382, "prev_trip": "DA240614040902", "next_trip": "DA240614041201", "prev_O": [114.1841339, 22.3775127], "next_O": [114.2378009, 22.3051463]}, "geometry": {"type": "LineString", "coordinates": [[114.190756, 22.34238], [114.238033, 22.305211]]}}, {"type": "Feature", "properties": {"id": "ghost_TY3130_20240614131244", "plate_no": "TY3130", "gap_start_time": "2024-06-14T13:12:44", "gap_end_time": "2024-06-14T17:30:29", "gap_duration_min": 257.75, "wasted_distance_km": 3.715, "prev_trip": "DA240614033601", "next_trip": "DA240614013102", "prev_O": [114.1873018, 22.3262212], "next_O": [114.2087918, 22.3157859]}, "geometry": {"type": "LineString", "coordinates": [[114.17575, 22.313145], [114.211641, 22.316816]]}}, {"type": "Feature", "properties": {"id": "ghost_TY3250_20240614094143", "plate_no": "TY3250", "gap_start_time": "2024-06-14T09:41:43", "gap_end_time": "2024-06-14T14:00:29", "gap_duration_min": 258.77, "wasted_distance_km": 12.689, "prev_trip": "DA240614038601", "next_trip": "DA240614013801", "prev_O": [114.1919131, 22.3063812], "next_O": [114.2297222, 22.4252778]}, "geometry": {"type": "LineString", "coordinates": [[114.227816, 22.311291], [114.229758, 22.425388]]}}, {"type": "Feature", "properties": {"id": "ghost_TY3864_20240614135745", "plate_no": "TY3864", "gap_start_time": "2024-06-14T13:57:45", "gap_end_time": "2024-06-14T17:02:22", "gap_duration_min": 184.62, "wasted_distance_km": 5.492, "prev_trip": "DA240614030201", "next_trip": "DA240614014702", "prev_O": [114.2516341, 22.3048796], "next_O": [114.1743747, 22.3091816]}, "geometry": {"type": "LineString", "coordinates": [[114.22716, 22.319978], [114.174981, 22.309536]]}}, {"type": "Feature", "properties": {"id": "ghost_UL6685_20240614100106", "plate_no": "UL6685", "gap_start_time": "2024-06-14T10:01:06", "gap_end_time": "2024-06-14T12:30:08", "gap_duration_min": 149.03, "wasted_distance_km": 6.387, "prev_trip": "DA240614019411", "next_trip": "DA240614024202", "prev_O": [114.219972, 22.322515], "next_O": [114.1628717, 22.3221939]}, "geometry": {"type": "LineString", "coordinates": [[114.225041, 22.322346], [114.162953, 22.322315]]}}, {"type": "Feature", "properties": {"id": "ghost_UL7804_20240614103205", "plate_no": "UL7804", "gap_start_time": "2024-06-14T10:32:05", "gap_end_time": "2024-06-14T11:32:24", "gap_duration_min": 60.32, "wasted_distance_km": 0.312, "prev_trip": "DA240614034111", "next_trip": "DA240614034011", "prev_O": [114.1613761, 22.3200828], "next_O": [114.1844751, 22.3776458]}, "geometry": {"type": "LineString", "coordinates": [[114.185285, 22.374511], [114.183296, 22.376591], [114.183268, 22.376585]]}}, {"type": "Feature", "properties": {"id": "ghost_UM5926_20240614101411", "plate_no": "UM5926", "gap_start_time": "2024-06-14T10:14:11", "gap_end_time": "2024-06-14T12:20:11", "gap_duration_min": 126.0, "wasted_distance_km": 0.306, "prev_trip": "DA240614041901", "next_trip": "DA240614041902", "prev_O": [114.188853, 22.303809], "next_O": [114.1750342, 22.3095921]}, "geometry": {"type": "LineString", "coordinates": [[114.176706, 22.311841], [114.17511, 22.309518]]}}, {"type": "Feature", "properties": {"id": "ghost_UM5926_20240614123237", "plate_no": "UM5926", "gap_start_time": "2024-06-14T12:32:37", "gap_end_time": "2024-06-14T14:05:02", "gap_duration_min": 92.42, "wasted_distance_km": 1.961, "prev_trip": "DA240614041902", "next_trip": "DA240614035901", "prev_O": [114.1750342, 22.3095921], "next_O": [114.1714779, 22.310214]}, "geometry": {"type": "LineString", "coordinates": [[114.189018, 22.30337], [114.171333, 22.30994]]}}, {"type": "Feature", "properties": {"id": "ghost_UP3870_20240614081551", "plate_no": "UP3870", "gap_start_time": "2024-06-14T08:15:51", "gap_end_time": "2024-06-14T10:45:11", "gap_duration_min": 149.33, "wasted_distance_km": 8.117, "prev_trip": "DA240614048211", "next_trip": "DA240614023411", "prev_O": [114.2168288, 22.3339402], "next_O": [114.1779376, 22.3712182]}, "geometry": {"type": "LineString", "coordinates": [[114.227653, 22.311685], [114.178338, 22.36868]]}}, {"type": "Feature", "properties": {"id": "ghost_UP3870_20240614105641", "plate_no": "UP3870", "gap_start_time": "2024-06-14T10:56:41", "gap_end_time": "2024-06-14T14:00:24", "gap_duration_min": 183.72, "wasted_distance_km": 5.49, "prev_trip": "DA240614023411", "next_trip": "DA240614017411", "prev_O": [114.1779376, 22.3712182], "next_O": [114.2253605, 22.4230226]}, "geometry": {"type": "LineString", "coordinates": [[114.20188, 22.378146], [114.225456, 22.422446]]}}, {"type": "Feature", "properties": {"id": "ghost_VD768_20240614112421", "plate_no": "VD768", "gap_start_time": "2024-06-14T11:24:21", "gap_end_time": "2024-06-14T14:20:19", "gap_duration_min": 175.97, "wasted_distance_km": 6.909, "prev_trip": "DA240614035001", "next_trip": "DA240614010101", "prev_O": [114.2271621, 22.2808967], "next_O": [114.1919743, 22.3389479]}, "geometry": {"type": "LineString", "coordinates": [[114.181326, 22.27812], [114.191935, 22.339473]]}}, {"type": "Feature", "properties": {"id": "ghost_VD768_20240614143119", "plate_no": "VD768", "gap_start_time": "2024-06-14T14:31:19", "gap_end_time": "2024-06-14T15:45:05", "gap_duration_min": 73.77, "wasted_distance_km": 8.437, "prev_trip": "DA240614010101", "next_trip": "DA240614013902", "prev_O": [114.1919743, 22.3389479], "next_O": [114.1219651, 22.3714765]}, "geometry": {"type": "LineString", "coordinates": [[114.187446, 22.325975], [114.121966, 22.37168]]}}, {"type": "Feature", "properties": {"id": "ghost_VE7344_20240614111927", "plate_no": "VE7344", "gap_start_time": "2024-06-14T11:19:27", "gap_end_time": "2024-06-14T12:30:19", "gap_duration_min": 70.87, "wasted_distance_km": 5.502, "prev_trip": "DA240614020101", "next_trip": "DA240614048602", "prev_O": [114.1219651, 22.3751398], "next_O": [114.1832816, 22.3250389]}, "geometry": {"type": "LineString", "coordinates": [[114.133266, 22.342536], [114.183205, 22.324808]]}}, {"type": "Feature", "properties": {"id": "ghost_VE7751_20240614194650", "plate_no": "VE7751", "gap_start_time": "2024-06-14T19:46:50", "gap_end_time": "2024-06-14T21:30:12", "gap_duration_min": 103.37, "wasted_distance_km": 0.041, "prev_trip": "DA240614021101", "next_trip": "DA240614021102", "prev_O": [114.1942585, 22.3864175], "next_O": [114.1730979, 22.3316763]}, "geometry": {"type": "LineString", "coordinates": [[114.17331, 22.331575], [114.17339, 22.331936]]}}, {"type": "Feature", "properties": {"id": "ghost_VE8500_20240614102457", "plate_no": "VE8500", "gap_start_time": "2024-06-14T10:24:57", "gap_end_time": "2024-06-14T17:00:01", "gap_duration_min": 395.07, "wasted_distance_km": 7.042, "prev_trip": "DA240614024201", "next_trip": "DA240614006211", "prev_O": [114.2094681, 22.3284564], "next_O": [114.2303424, 22.3079333]}, "geometry": {"type": "LineString", "coordinates": [[114.16389, 22.322098], [114.230661, 22.308115]]}}, {"type": "Feature", "properties": {"id": "ghost_VV6972_20240614101344", "plate_no": "VV6972", "gap_start_time": "2024-06-14T10:13:44", "gap_end_time": "2024-06-14T14:40:18", "gap_duration_min": 266.57, "wasted_distance_km": 2.71, "prev_trip": "DA240614024711", "next_trip": "DA240614000711", "prev_O": [114.178114, 22.314217], "next_O": [114.1831334, 22.3223645]}, "geometry": {"type": "LineString", "coordinates": [[114.209066, 22.322243], [114.182721, 22.322253]]}}, {"type": "Feature", "properties": {"id": "ghost_VY5967_20240614082534", "plate_no": "VY5967", "gap_start_time": "2024-06-14T08:25:34", "gap_end_time": "2024-06-14T16:00:12", "gap_duration_min": 454.63, "wasted_distance_km": 16.231, "prev_trip": "DA240614013901", "next_trip": "DA240614006402", "prev_O": [114.1414736, 22.3728484], "next_O": [113.9649146, 22.3748696]}, "geometry": {"type": "LineString", "coordinates": [[114.12263, 22.368833], [113.964928, 22.375186]]}}, {"type": "Feature", "properties": {"id": "ghost_WP3895_20240614084119", "plate_no": "WP3895", "gap_start_time": "2024-06-14T08:41:19", "gap_end_time": "2024-06-14T10:30:21", "gap_duration_min": 109.03, "wasted_distance_km": 7.971, "prev_trip": "DA240614000801", "next_trip": "DA240614042301", "prev_O": [114.2004947, 22.2912707], "next_O": [114.260083, 22.3209665]}, "geometry": {"type": "LineString", "coordinates": [[114.182735, 22.322036], [114.260218, 22.321145]]}}, {"type": "Feature", "properties": {"id": "ghost_WP3895_20240614104452", "plate_no": "WP3895", "gap_start_time": "2024-06-14T10:44:52", "gap_end_time": "2024-06-14T12:30:40", "gap_duration_min": 105.8, "wasted_distance_km": 0.568, "prev_trip": "DA240614042301", "next_trip": "DA240614042302", "prev_O": [114.260083, 22.3209665], "next_O": [114.2667855, 22.3075063]}, "geometry": {"type": "LineString", "coordinates": [[114.26519, 22.311588], [114.266658, 22.306661]]}}, {"type": "Feature", "properties": {"id": "ghost_WP3895_20240614124539", "plate_no": "WP3895", "gap_start_time": "2024-06-14T12:45:39", "gap_end_time": "2024-06-14T17:00:20", "gap_duration_min": 254.68, "wasted_distance_km": 3.984, "prev_trip": "DA240614042302", "next_trip": "DA240614042902", "prev_O": [114.2667855, 22.3075063], "next_O": [114.2240966, 22.3095383]}, "geometry": {"type": "LineString", "coordinates": [[114.260465, 22.321275], [114.22442, 22.308173]]}}, {"type": "Feature", "properties": {"id": "ghost_WP510_20240614112711", "plate_no": "WP510", "gap_start_time": "2024-06-14T11:27:11", "gap_end_time": "2024-06-14T12:45:03", "gap_duration_min": 77.87, "wasted_distance_km": 7.644, "prev_trip": "DA240614014901", "next_trip": "DA240614033711", "prev_O": [114.2162483, 22.2809209], "next_O": [114.230334, 22.307947]}, "geometry": {"type": "LineString", "coordinates": [[114.160845, 22.331616], [114.23065, 22.30804]]}}, {"type": "Feature", "properties": {"id": "ghost_XE1886_20240614150250", "plate_no": "XE1886", "gap_start_time": "2024-06-14T15:02:50", "gap_end_time": "2024-06-14T16:50:20", "gap_duration_min": 107.5, "wasted_distance_km": 0.313, "prev_trip": "DA240614038001", "next_trip": "DA240614017511", "prev_O": [114.2369601, 22.4250459], "next_O": [114.201222, 22.378404]}, "geometry": {"type": "LineString", "coordinates": [[114.204876, 22.378978], [114.201958, 22.378173]]}}, {"type": "Feature", "properties": {"id": "ghost_XE612_20240614142019", "plate_no": "XE612", "gap_start_time": "2024-06-14T14:20:19", "gap_end_time": "2024-06-14T16:13:15", "gap_duration_min": 112.93, "wasted_distance_km": 2.964, "prev_trip": "DA240614020501", "next_trip": "DA240614011702", "prev_O": [114.157823, 22.2486203], "next_O": [114.1762882, 22.2781796]}, "geometry": {"type": "LineString", "coordinates": [[114.198748, 22.292398], [114.174618, 22.277833]]}}, {"type": "Feature", "properties": {"id": "ghost_XE7168_20240614093634", "plate_no": "XE7168", "gap_start_time": "2024-06-14T09:36:34", "gap_end_time": "2024-06-14T13:40:00", "gap_duration_min": 243.43, "wasted_distance_km": 3.263, "prev_trip": "DA240614023601", "next_trip": "DA240614037701", "prev_O": [114.110796, 22.367541], "next_O": [114.1421239, 22.3725714]}, "geometry": {"type": "LineString", "coordinates": [[114.110538, 22.376693], [114.14205, 22.373243]]}}, {"type": "Feature", "properties": {"id": "ghost_XF1493_20240614085956", "plate_no": "XF1493", "gap_start_time": "2024-06-14T08:59:56", "gap_end_time": "2024-06-14T09:35:36", "gap_duration_min": 35.67, "wasted_distance_km": 4.959, "prev_trip": "DA240614033901", "next_trip": "DA240614048601", "prev_O": [114.103968, 22.354063], "next_O": [114.2004355, 22.3350817]}, "geometry": {"type": "LineString", "coordinates": [[114.152273, 22.341273], [114.200023, 22.335118]]}}, {"type": "Feature", "properties": {"id": "ghost_XF1493_20240614094836", "plate_no": "XF1493", "gap_start_time": "2024-06-14T09:48:36", "gap_end_time": "2024-06-14T14:00:03", "gap_duration_min": 251.45, "wasted_distance_km": 3.598, "prev_trip": "DA240614048601", "next_trip": "DA240614042901", "prev_O": [114.2004355, 22.3350817], "next_O": [114.2204976, 22.323161]}, "geometry": {"type": "LineString", "coordinates": [[114.185541, 22.326886], [114.220241, 22.32279]]}}, {"type": "Feature", "properties": {"id": "ghost_XM4556_20240614120803", "plate_no": "XM4556", "gap_start_time": "2024-06-14T12:08:03", "gap_end_time": "2024-06-14T13:21:33", "gap_duration_min": 73.5, "wasted_distance_km": 5.488, "prev_trip": "DA240614043302", "next_trip": "DA240614041611", "prev_O": [114.1743747, 22.3091816], "next_O": [114.1864329, 22.3433418]}, "geometry": {"type": "LineString", "coordinates": [[114.234438, 22.320976], [114.187661, 22.344723]]}}, {"type": "Feature", "properties": {"id": "ghost_XM4556_20240614134746", "plate_no": "XM4556", "gap_start_time": "2024-06-14T13:47:46", "gap_end_time": "2024-06-14T15:00:17", "gap_duration_min": 72.52, "wasted_distance_km": 4.482, "prev_trip": "DA240614041611", "next_trip": "DA240614029201", "prev_O": [114.1864329, 22.3433418], "next_O": [114.2149902, 22.3254325]}, "geometry": {"type": "LineString", "coordinates": [[114.175541, 22.3084], [114.21495, 22.325591]]}}, {"type": "Feature", "properties": {"id": "ghost_XM6122_20240614131154", "plate_no": "XM6122", "gap_start_time": "2024-06-14T13:11:54", "gap_end_time": "2024-06-14T15:40:21", "gap_duration_min": 148.45, "wasted_distance_km": 3.404, "prev_trip": "DA240614029811", "next_trip": "DA240614003102", "prev_O": [114.1668169, 22.330322], "next_O": [114.212997, 22.3358478]}, "geometry": {"type": "LineString", "coordinates": [[114.181581, 22.327091], [114.213366, 22.335626]]}}, {"type": "Feature", "properties": {"id": "ghost_XM9047_20240614160639", "plate_no": "XM9047", "gap_start_time": "2024-06-14T16:06:39", "gap_end_time": "2024-06-14T16:45:09", "gap_duration_min": 38.5, "wasted_distance_km": 1.816, "prev_trip": "DA240614035902", "next_trip": "DA240614025202", "prev_O": [114.1743747, 22.3091816], "next_O": [114.1832816, 22.3250389]}, "geometry": {"type": "LineString", "coordinates": [[114.175136, 22.310065], [114.183056, 22.324656]]}}, {"type": "Feature", "properties": {"id": "ghost_XU8126_20240614123437", "plate_no": "XU8126", "gap_start_time": "2024-06-14T12:34:37", "gap_end_time": "2024-06-14T14:00:20", "gap_duration_min": 85.72, "wasted_distance_km": 4.759, "prev_trip": "DA240614040711", "next_trip": "DA240614018102", "prev_O": [114.1832816, 22.3250389], "next_O": [114.1743747, 22.3091816]}, "geometry": {"type": "LineString", "coordinates": [[114.216563, 22.325098], [114.174423, 22.307425]]}}, {"type": "Feature", "properties": {"id": "ghost_XV3002_20240614133729", "plate_no": "XV3002", "gap_start_time": "2024-06-14T13:37:29", "gap_end_time": "2024-06-14T15:45:00", "gap_duration_min": 127.52, "wasted_distance_km": 5.24, "prev_trip": "DA240614035002", "next_trip": "DA240614004611", "prev_O": [114.1776577, 22.2751786], "next_O": [114.173637, 22.2733649]}, "geometry": {"type": "LineString", "coordinates": [[114.224346, 22.28173], [114.174103, 22.274016]]}}, {"type": "Feature", "properties": {"id": "ghost_XV3002_20240614161401", "plate_no": "XV3002", "gap_start_time": "2024-06-14T16:14:01", "gap_end_time": "2024-06-14T17:55:45", "gap_duration_min": 101.73, "wasted_distance_km": 6.564, "prev_trip": "DA240614004611", "next_trip": "DA240614015102", "prev_O": [114.173637, 22.2733649], "next_O": [114.2435956, 22.2730305]}, "geometry": {"type": "LineString", "coordinates": [[114.17725, 22.27517], [114.24104, 22.275908]]}}, {"type": "Feature", "properties": {"id": "ghost_XV4803_20240614153944", "plate_no": "XV4803", "gap_start_time": "2024-06-14T15:39:44", "gap_end_time": "2024-06-14T16:30:14", "gap_duration_min": 50.5, "wasted_distance_km": 0.924, "prev_trip": "DA240614003701", "next_trip": "DA240614003702", "prev_O": [114.1734921, 22.2726294], "next_O": [114.1734921, 22.2726294]}, "geometry": {"type": "LineString", "coordinates": [[114.182846, 22.27018], [114.175043, 22.27429]]}}, {"type": "Feature", "properties": {"id": "ghost_XV4803_20240614164244", "plate_no": "XV4803", "gap_start_time": "2024-06-14T16:42:44", "gap_end_time": "2024-06-14T21:00:24", "gap_duration_min": 257.67, "wasted_distance_km": 0.132, "prev_trip": "DA240614003702", "next_trip": "DA240614023802", "prev_O": [114.1734921, 22.2726294], "next_O": [114.179118, 22.27986]}, "geometry": {"type": "LineString", "coordinates": [[114.178376, 22.279133], [114.178863, 22.280235]]}}, {"type": "Feature", "properties": {"id": "ghost_XV6358_20240614115846", "plate_no": "XV6358", "gap_start_time": "2024-06-14T11:58:46", "gap_end_time": "2024-06-14T14:31:21", "gap_duration_min": 152.58, "wasted_distance_km": 8.338, "prev_trip": "DA240614010911", "next_trip": "DA240614010501", "prev_O": [114.1476512, 22.243373], "next_O": [114.2271621, 22.2808967]}, "geometry": {"type": "LineString", "coordinates": [[114.145548, 22.287811], [114.226203, 22.28056]]}}, {"type": "Feature", "properties": {"id": "ghost_XV7112_20240614114739", "plate_no": "XV7112", "gap_start_time": "2024-06-14T11:47:39", "gap_end_time": "2024-06-14T15:45:02", "gap_duration_min": 237.38, "wasted_distance_km": 13.929, "prev_trip": "DA240614023902", "next_trip": "DA240614012502", "prev_O": [114.1832816, 22.3250389], "next_O": [114.1754722, 22.4530181]}, "geometry": {"type": "LineString", "coordinates": [[114.10958, 22.34242], [114.17455, 22.452345]]}}, {"type": "Feature", "properties": {"id": "ghost_YK3534_20240614095449", "plate_no": "YK3534", "gap_start_time": "2024-06-14T09:54:49", "gap_end_time": "2024-06-14T12:00:06", "gap_duration_min": 125.28, "wasted_distance_km": 0.539, "prev_trip": "DA240614035101", "next_trip": "DA240614035102", "prev_O": [114.2110471, 22.3405652], "next_O": [114.228737, 22.311857]}, "geometry": {"type": "LineString", "coordinates": [[114.226125, 22.312553], [114.231358, 22.312388]]}}, {"type": "Feature", "properties": {"id": "ghost_YK3534_20240614120736", "plate_no": "YK3534", "gap_start_time": "2024-06-14T12:07:36", "gap_end_time": "2024-06-14T14:00:13", "gap_duration_min": 112.62, "wasted_distance_km": 6.147, "prev_trip": "DA240614035102", "next_trip": "DA240614025401", "prev_O": [114.228737, 22.311857], "next_O": [114.258489, 22.36793]}, "geometry": {"type": "LineString", "coordinates": [[114.20718, 22.339676], [114.258325, 22.368286]]}}, {"type": "Feature", "properties": {"id": "ghost_YK5072_20240614082046", "plate_no": "YK5072", "gap_start_time": "2024-06-14T08:20:46", "gap_end_time": "2024-06-14T12:15:02", "gap_duration_min": 234.27, "wasted_distance_km": 6.368, "prev_trip": "DA240614013601", "next_trip": "DA240614035411", "prev_O": [114.1919131, 22.3437841], "next_O": [114.230334, 22.307947]}, "geometry": {"type": "LineString", "coordinates": [[114.16964, 22.318053], [114.230606, 22.308116]]}}, {"type": "Feature", "properties": {"id": "ghost_YK5072_20240614123802", "plate_no": "YK5072", "gap_start_time": "2024-06-14T12:38:02", "gap_end_time": "2024-06-14T14:00:15", "gap_duration_min": 82.22, "wasted_distance_km": 0.595, "prev_trip": "DA240614035411", "next_trip": "DA240614046011", "prev_O": [114.230334, 22.307947], "next_O": [114.167249, 22.306333]}, "geometry": {"type": "LineString", "coordinates": [[114.171123, 22.310628], [114.170476, 22.305315]]}}, {"type": "Feature", "properties": {"id": "ghost_YK5072_20240614140214", "plate_no": "YK5072", "gap_start_time": "2024-06-14T14:02:14", "gap_end_time": "2024-06-14T15:00:19", "gap_duration_min": 58.08, "wasted_distance_km": 8.531, "prev_trip": "DA240614046011", "next_trip": "DA240614007802", "prev_O": [114.167249, 22.306333], "next_O": [114.1987643, 22.3804685]}, "geometry": {"type": "LineString", "coordinates": [[114.17405, 22.306928], [114.198735, 22.380173]]}}, {"type": "Feature", "properties": {"id": "ghost_YK6682_20240614111453", "plate_no": "YK6682", "gap_start_time": "2024-06-14T11:14:53", "gap_end_time": "2024-06-14T13:00:22", "gap_duration_min": 105.48, "wasted_distance_km": 0.281, "prev_trip": "DA240614036101", "next_trip": "DA240614036102", "prev_O": [114.2284154, 22.314391], "next_O": [114.2077498, 22.3227562]}, "geometry": {"type": "LineString", "coordinates": [[114.206706, 22.325586], [114.207328, 22.323126]]}}, {"type": "Feature", "properties": {"id": "ghost_YK6682_20240614131852", "plate_no": "YK6682", "gap_start_time": "2024-06-14T13:18:52", "gap_end_time": "2024-06-14T14:46:16", "gap_duration_min": 87.4, "wasted_distance_km": 4.356, "prev_trip": "DA240614036102", "next_trip": "DA240614026911", "prev_O": [114.2077498, 22.3227562], "next_O": [114.266679, 22.306334]}, "geometry": {"type": "LineString", "coordinates": [[114.225693, 22.315166], [114.267205, 22.307433]]}}, {"type": "Feature", "properties": {"id": "ghost_YK7541_20240614100821", "plate_no": "YK7541", "gap_start_time": "2024-06-14T10:08:21", "gap_end_time": "2024-06-14T13:00:21", "gap_duration_min": 172.0, "wasted_distance_km": 9.834, "prev_trip": "DA240614006401", "next_trip": "DA240614041001", "prev_O": [114.0735167, 22.4266562], "next_O": [114.030984, 22.4409609]}, "geometry": {"type": "LineString", "coordinates": [[113.962708, 22.37887], [114.030955, 22.440838]]}}, {"type": "Feature", "properties": {"id": "ghost_YK905_20240614104019", "plate_no": "YK905", "gap_start_time": "2024-06-14T10:40:19", "gap_end_time": "2024-06-14T14:45:29", "gap_duration_min": 245.17, "wasted_distance_km": 11.555, "prev_trip": "DA240614042001", "next_trip": "DA240614029311", "prev_O": [114.267158, 22.316548], "next_O": [114.236331, 22.3055387]}, "geometry": {"type": "LineString", "coordinates": [[114.130695, 22.271011], [114.236448, 22.305983]]}}, {"type": "Feature", "properties": {"id": "ghost_YL6700_20240614083253", "plate_no": "YL6700", "gap_start_time": "2024-06-14T08:32:53", "gap_end_time": "2024-06-14T12:50:08", "gap_duration_min": 257.25, "wasted_distance_km": 22.067, "prev_trip": "DA240614011201", "next_trip": "DA240614039002", "prev_O": [114.0264008, 22.4481284], "next_O": [114.1716857, 22.3301776]}, "geometry": {"type": "LineString", "coordinates": [[113.974873, 22.40809], [114.171995, 22.32964]]}}, {"type": "Feature", "properties": {"id": "ghost_YL7929_20240614120639", "plate_no": "YL7929", "gap_start_time": "2024-06-14T12:06:39", "gap_end_time": "2024-06-14T13:30:24", "gap_duration_min": 83.75, "wasted_distance_km": 5.629, "prev_trip": "DA240614034902", "next_trip": "DA240614030411", "prev_O": [114.1832816, 22.3250389], "next_O": [114.2303424, 22.3079333]}, "geometry": {"type": "LineString", "coordinates": [[114.177793, 22.321173], [114.230648, 22.308063]]}}, {"type": "Feature", "properties": {"id": "ghost_YL8061_20240614101354", "plate_no": "YL8061", "gap_start_time": "2024-06-14T10:13:54", "gap_end_time": "2024-06-14T12:00:28", "gap_duration_min": 106.57, "wasted_distance_km": 5.238, "prev_trip": "DA240614025911", "next_trip": "DA240614036311", "prev_O": [114.2216835, 22.3196755], "next_O": [114.1908047, 22.2754598]}, "geometry": {"type": "LineString", "coordinates": [[114.236483, 22.262271], [114.18857, 22.27819]]}}, {"type": "Feature", "properties": {"id": "ghost_YL8061_20240614121328", "plate_no": "YL8061", "gap_start_time": "2024-06-14T12:13:28", "gap_end_time": "2024-06-14T13:31:21", "gap_duration_min": 77.88, "wasted_distance_km": 4.835, "prev_trip": "DA240614036311", "next_trip": "DA240614026311", "prev_O": [114.1908047, 22.2754598], "next_O": [114.23366, 22.26308]}, "geometry": {"type": "LineString", "coordinates": [[114.196623, 22.29033], [114.234366, 22.264433]]}}, {"type": "Feature", "properties": {"id": "ghost_YL8061_20240614134121", "plate_no": "YL8061", "gap_start_time": "2024-06-14T13:41:21", "gap_end_time": "2024-06-14T14:50:11", "gap_duration_min": 68.83, "wasted_distance_km": 6.932, "prev_trip": "DA240614026311", "next_trip": "DA240614006811", "prev_O": [114.23366, 22.26308], "next_O": [114.192478, 22.338538]}, "geometry": {"type": "LineString", "coordinates": [[114.221785, 22.28174], [114.194206, 22.338623]]}}, {"type": "Feature", "properties": {"id": "ghost_YY7490_20240614101752", "plate_no": "YY7490", "gap_start_time": "2024-06-14T10:17:52", "gap_end_time": "2024-06-14T12:02:02", "gap_duration_min": 104.17, "wasted_distance_km": 0.102, "prev_trip": "DA240614027701", "next_trip": "DA240614027702", "prev_O": [114.2264127, 22.2825843], "next_O": [114.1783695, 22.3030658]}, "geometry": {"type": "LineString", "coordinates": [[114.177546, 22.303195], [114.178295, 22.302596], [114.178295, 22.302596]]}}, {"type": "Feature", "properties": {"id": "ghost_YZ9431_20240614081050", "plate_no": "YZ9431", "gap_start_time": "2024-06-14T08:10:50", "gap_end_time": "2024-06-14T09:30:10", "gap_duration_min": 79.33, "wasted_distance_km": 4.804, "prev_trip": "DA240614004911", "next_trip": "DA240614014601", "prev_O": [114.192092, 22.281794], "next_O": [114.1548947, 22.2409568]}, "geometry": {"type": "LineString", "coordinates": [[114.122668, 22.272328], [114.154486, 22.24072]]}}, {"type": "Feature", "properties": {"id": "ghost_YZ9431_20240614095139", "plate_no": "YZ9431", "gap_start_time": "2024-06-14T09:51:39", "gap_end_time": "2024-06-14T12:02:00", "gap_duration_min": 130.35, "wasted_distance_km": 0.474, "prev_trip": "DA240614014601", "next_trip": "DA240614014602", "prev_O": [114.1548947, 22.2409568], "next_O": [114.1616278, 22.2854058]}, "geometry": {"type": "LineString", "coordinates": [[114.158701, 22.282641], [114.161833, 22.285768]]}}, {"type": "Feature", "properties": {"id": "ghost_ZA2376_20240614085251", "plate_no": "ZA2376", "gap_start_time": "2024-06-14T08:52:51", "gap_end_time": "2024-06-14T09:20:35", "gap_duration_min": 27.73, "wasted_distance_km": 1.849, "prev_trip": "DA240614003001", "next_trip": "DA240614027801", "prev_O": [114.268715, 22.2962922], "next_O": [114.1952678, 22.3395364]}, "geometry": {"type": "LineString", "coordinates": [[114.213178, 22.33576], [114.195763, 22.339881]]}}, {"type": "Feature", "properties": {"id": "ghost_ZA2376_20240614093805", "plate_no": "ZA2376", "gap_start_time": "2024-06-14T09:38:05", "gap_end_time": "2024-06-14T13:00:10", "gap_duration_min": 202.08, "wasted_distance_km": 6.923, "prev_trip": "DA240614027801", "next_trip": "DA240614039801", "prev_O": [114.1952678, 22.3395364], "next_O": [114.2379913, 22.3056444]}, "geometry": {"type": "LineString", "coordinates": [[114.171628, 22.313373], [114.238376, 22.305461]]}}, {"type": "Feature", "properties": {"id": "ghost_ZA4388_20240614093416", "plate_no": "ZA4388", "gap_start_time": "2024-06-14T09:34:16", "gap_end_time": "2024-06-14T14:30:40", "gap_duration_min": 296.4, "wasted_distance_km": 5.162, "prev_trip": "DA240614036411", "next_trip": "DA240614028111", "prev_O": [114.2012365, 22.2911583], "next_O": [114.2307783, 22.3077152]}, "geometry": {"type": "LineString", "coordinates": [[114.188006, 22.278683], [114.228525, 22.306058]]}}, {"type": "Feature", "properties": {"id": "ghost_ZA6941_20240614071310", "plate_no": "ZA6941", "gap_start_time": "2024-06-14T07:13:10", "gap_end_time": "2024-06-14T11:20:26", "gap_duration_min": 247.27, "wasted_distance_km": 4.713, "prev_trip": "DA240614029101", "next_trip": "DA240614025011", "prev_O": [114.2009294, 22.2910792], "next_O": [114.1501361, 22.244705]}, "geometry": {"type": "LineString", "coordinates": [[114.177398, 22.279158], [114.150916, 22.244581]]}}, {"type": "Feature", "properties": {"id": "ghost_ZA6941_20240614115055", "plate_no": "ZA6941", "gap_start_time": "2024-06-14T11:50:55", "gap_end_time": "2024-06-14T12:40:27", "gap_duration_min": 49.53, "wasted_distance_km": 9.099, "prev_trip": "DA240614025011", "next_trip": "DA240614034511", "prev_O": [114.1501361, 22.244705], "next_O": [114.1323065, 22.2661136]}, "geometry": {"type": "LineString", "coordinates": [[114.21812, 22.286446], [114.13231, 22.266663]]}}, {"type": "Feature", "properties": {"id": "ghost_ZB1369_20240614091550", "plate_no": "ZB1369", "gap_start_time": "2024-06-14T09:15:50", "gap_end_time": "2024-06-14T14:45:03", "gap_duration_min": 329.22, "wasted_distance_km": 10.734, "prev_trip": "DA240614011602", "next_trip": "DA240614004011", "prev_O": [114.1791643, 22.3223939], "next_O": [114.2336165, 22.2637098]}, "geometry": {"type": "LineString", "coordinates": [[114.157523, 22.33068], [114.233228, 22.264255]]}}, {"type": "Feature", "properties": {"id": "ghost_ZB1369_20240614151103", "plate_no": "ZB1369", "gap_start_time": "2024-06-14T15:11:03", "gap_end_time": "2024-06-14T16:41:33", "gap_duration_min": 90.5, "wasted_distance_km": 1.492, "prev_trip": "DA240614004011", "next_trip": "DA240614004111", "prev_O": [114.2336165, 22.2637098], "next_O": [114.2336165, 22.2637098]}, "geometry": {"type": "LineString", "coordinates": [[114.239898, 22.279171], [114.234406, 22.266748]]}}]}