{"type": "FeatureCollection", "features": [{"type": "Feature", "properties": {"id": "ghost_RV4356_20240605091951", "plate_no": "RV4356", "gap_start_time": "2024-06-05T09:19:51", "gap_end_time": "2024-06-05T14:00:14", "gap_duration_min": 280.38, "wasted_distance_km": 7.126, "prev_trip": "DA240605025501", "next_trip": "DA240605021801", "prev_O": [114.2021563, 22.3465162], "next_O": [114.252997, 22.30744]}, "geometry": {"type": "LineString", "coordinates": [[114.199695, 22.347483], [114.252576, 22.306078]]}}, {"type": "Feature", "properties": {"id": "ghost_RV7493_20240605091328", "plate_no": "RV7493", "gap_start_time": "2024-06-05T09:13:28", "gap_end_time": "2024-06-05T10:45:03", "gap_duration_min": 91.58, "wasted_distance_km": 5.857, "prev_trip": "DA240605005611", "next_trip": "DA240605034701", "prev_O": [114.1472078, 22.332315], "next_O": [114.185168, 22.3394295]}, "geometry": {"type": "LineString", "coordinates": [[114.229616, 22.305225], [114.185848, 22.338921]]}}, {"type": "Feature", "properties": {"id": "ghost_RV7493_20240605111637", "plate_no": "RV7493", "gap_start_time": "2024-06-05T11:16:37", "gap_end_time": "2024-06-05T13:35:21", "gap_duration_min": 138.73, "wasted_distance_km": 0.009, "prev_trip": "DA240605034701", "next_trip": "DA240605034702", "prev_O": [114.185168, 22.3394295], "next_O": [114.1253327, 22.369354]}, "geometry": {"type": "LineString", "coordinates": [[114.125013, 22.369653], [114.125068, 22.369585]]}}, {"type": "Feature", "properties": {"id": "ghost_RX5674_20240605075841", "plate_no": "RX5674", "gap_start_time": "2024-06-05T07:58:41", "gap_end_time": "2024-06-05T10:30:09", "gap_duration_min": 151.47, "wasted_distance_km": 5.285, "prev_trip": "DA240605029001", "next_trip": "DA240605019301", "prev_O": [114.186736, 22.30968], "next_O": [114.2325252, 22.3070949]}, "geometry": {"type": "LineString", "coordinates": [[114.18373, 22.32247], [114.232331, 22.307048]]}}, {"type": "Feature", "properties": {"id": "ghost_RX5674_20240605104635", "plate_no": "RX5674", "gap_start_time": "2024-06-05T10:46:35", "gap_end_time": "2024-06-05T12:45:05", "gap_duration_min": 118.5, "wasted_distance_km": 4.6, "prev_trip": "DA240605019301", "next_trip": "DA240605008011", "prev_O": [114.2325252, 22.3070949], "next_O": [114.2286722, 22.3119194]}, "geometry": {"type": "LineString", "coordinates": [[114.198643, 22.342811], [114.228706, 22.312183]]}}, {"type": "Feature", "properties": {"id": "ghost_SL7802_20240605075432", "plate_no": "SL7802", "gap_start_time": "2024-06-05T07:54:32", "gap_end_time": "2024-06-05T08:30:02", "gap_duration_min": 35.5, "wasted_distance_km": 4.598, "prev_trip": "DA240605024311", "next_trip": "DA240605020701", "prev_O": [114.1035242, 22.3486056], "next_O": [114.1123813, 22.3766389]}, "geometry": {"type": "LineString", "coordinates": [[114.134375, 22.340835], [114.11216, 22.376725]]}}, {"type": "Feature", "properties": {"id": "ghost_SL7802_20240605090732", "plate_no": "SL7802", "gap_start_time": "2024-06-05T09:07:32", "gap_end_time": "2024-06-05T09:45:19", "gap_duration_min": 37.78, "wasted_distance_km": 3.425, "prev_trip": "DA240605020701", "next_trip": "DA240605027211", "prev_O": [114.1123813, 22.3766389], "next_O": [114.2581878, 22.3233143]}, "geometry": {"type": "LineString", "coordinates": [[114.230036, 22.310215], [114.259728, 22.32416]]}}, {"type": "Feature", "properties": {"id": "ghost_SL7802_20240605101248", "plate_no": "SL7802", "gap_start_time": "2024-06-05T10:12:48", "gap_end_time": "2024-06-05T12:46:23", "gap_duration_min": 153.58, "wasted_distance_km": 9.104, "prev_trip": "DA240605027211", "next_trip": "DA240605033511", "prev_O": [114.2581878, 22.3233143], "next_O": [114.230334, 22.307947]}, "geometry": {"type": "LineString", "coordinates": [[114.149933, 22.339546], [114.23035, 22.305346]]}}, {"type": "Feature", "properties": {"id": "ghost_SL9703_20240605090822", "plate_no": "SL9703", "gap_start_time": "2024-06-05T09:08:22", "gap_end_time": "2024-06-05T10:02:09", "gap_duration_min": 53.78, "wasted_distance_km": 1.432, "prev_trip": "DA240605013401", "next_trip": "DA240605004901", "prev_O": [114.1371502, 22.4917323], "next_O": [114.1687461, 22.442696]}, "geometry": {"type": "LineString", "coordinates": [[114.172281, 22.453646], [114.166413, 22.441963]]}}, {"type": "Feature", "properties": {"id": "ghost_TC1655_20240605110739", "plate_no": "TC1655", "gap_start_time": "2024-06-05T11:07:39", "gap_end_time": "2024-06-05T11:50:12", "gap_duration_min": 42.55, "wasted_distance_km": 5.635, "prev_trip": "DA240605043702", "next_trip": "DA240605007502", "prev_O": [114.1466568, 22.2850671], "next_O": [114.1237538, 22.2702094]}, "geometry": {"type": "LineString", "coordinates": [[114.174005, 22.250211], [114.123675, 22.27017]]}}, {"type": "Feature", "properties": {"id": "ghost_TC1655_20240605122348", "plate_no": "TC1655", "gap_start_time": "2024-06-05T12:23:48", "gap_end_time": "2024-06-05T14:30:02", "gap_duration_min": 126.23, "wasted_distance_km": 0.315, "prev_trip": "DA240605007502", "next_trip": "DA240605007702", "prev_O": [114.1237538, 22.2702094], "next_O": [114.177655, 22.3010111]}, "geometry": {"type": "LineString", "coordinates": [[114.177416, 22.303135], [114.176948, 22.300335]]}}, {"type": "Feature", "properties": {"id": "ghost_TC5012_20240605115147", "plate_no": "TC5012", "gap_start_time": "2024-06-05T11:51:47", "gap_end_time": "2024-06-05T14:00:10", "gap_duration_min": 128.38, "wasted_distance_km": 9.373, "prev_trip": "DA240605027501", "next_trip": "DA240605021001", "prev_O": [114.2356571, 22.3071891], "next_O": [114.2536398, 22.3258021]}, "geometry": {"type": "LineString", "coordinates": [[114.163216, 22.333688], [114.25398, 22.326168]]}}, {"type": "Feature", "properties": {"id": "ghost_TE7832_20240605122249", "plate_no": "TE7832", "gap_start_time": "2024-06-05T12:22:49", "gap_end_time": "2024-06-05T13:45:27", "gap_duration_min": 82.63, "wasted_distance_km": 1.093, "prev_trip": "DA240605013611", "next_trip": "DA240605028801", "prev_O": [114.2222826, 22.2867775], "next_O": [114.1553149, 22.2409917]}, "geometry": {"type": "LineString", "coordinates": [[114.161781, 22.248591], [114.155505, 22.24066]]}}, {"type": "Feature", "properties": {"id": "ghost_TF2479_20240605064839", "plate_no": "TF2479", "gap_start_time": "2024-06-05T06:48:39", "gap_end_time": "2024-06-05T08:00:11", "gap_duration_min": 71.53, "wasted_distance_km": 9.51, "prev_trip": "DA240605026101", "next_trip": "DA240605003011", "prev_O": [114.2395037, 22.2679627], "next_O": [114.2365271, 22.2631632]}, "geometry": {"type": "LineString", "coordinates": [[114.147843, 22.288095], [114.236288, 22.263273]]}}, {"type": "Feature", "properties": {"id": "ghost_TV8531_20240605102525", "plate_no": "TV8531", "gap_start_time": "2024-06-05T10:25:25", "gap_end_time": "2024-06-05T13:00:25", "gap_duration_min": 155.0, "wasted_distance_km": 5.849, "prev_trip": "DA240605023901", "next_trip": "DA240605033901", "prev_O": [114.145401, 22.2434883], "next_O": [114.1917274, 22.3748517]}, "geometry": {"type": "LineString", "coordinates": [[114.172303, 22.326563], [114.192748, 22.375648]]}}, {"type": "Feature", "properties": {"id": "ghost_TW7410_20240605104506", "plate_no": "TW7410", "gap_start_time": "2024-06-05T10:45:06", "gap_end_time": "2024-06-05T16:33:22", "gap_duration_min": 348.27, "wasted_distance_km": 0.896, "prev_trip": "DA240605032101", "next_trip": "DA240605034811", "prev_O": [114.1910739, 22.3139066], "next_O": [114.1868509, 22.3046948]}, "geometry": {"type": "LineString", "coordinates": [[114.177761, 22.30591], [114.186331, 22.305453], [114.18621, 22.305446]]}}, {"type": "Feature", "properties": {"id": "ghost_TX9739_20240605061021", "plate_no": "TX9739", "gap_start_time": "2024-06-05T06:10:21", "gap_end_time": "2024-06-05T07:05:24", "gap_duration_min": 55.05, "wasted_distance_km": 3.902, "prev_trip": "DA240605021401", "next_trip": "DA240605002801", "prev_O": [114.2165038, 22.324664], "next_O": [114.1890105, 22.3079943]}, "geometry": {"type": "LineString", "coordinates": [[114.163231, 22.333673], [114.188893, 22.307831]]}}, {"type": "Feature", "properties": {"id": "ghost_TX9739_20240605082254", "plate_no": "TX9739", "gap_start_time": "2024-06-05T08:22:54", "gap_end_time": "2024-06-05T09:30:13", "gap_duration_min": 67.32, "wasted_distance_km": 6.132, "prev_trip": "DA240605002801", "next_trip": "DA240605023611", "prev_O": [114.1890105, 22.3079943], "next_O": [114.2633643, 22.306645]}, "geometry": {"type": "LineString", "coordinates": [[114.212043, 22.334096], [114.264153, 22.307306]]}}, {"type": "Feature", "properties": {"id": "ghost_TX9739_20240605093413", "plate_no": "TX9739", "gap_start_time": "2024-06-05T09:34:13", "gap_end_time": "2024-06-05T12:00:18", "gap_duration_min": 146.08, "wasted_distance_km": 11.84, "prev_trip": "DA240605023611", "next_trip": "DA240605025202", "prev_O": [114.2633643, 22.306645], "next_O": [114.2303073, 22.4201826]}, "geometry": {"type": "LineString", "coordinates": [[114.269598, 22.318373], [114.227346, 22.417428]]}}, {"type": "Feature", "properties": {"id": "ghost_TY3864_20240605090546", "plate_no": "TY3864", "gap_start_time": "2024-06-05T09:05:46", "gap_end_time": "2024-06-05T10:25:08", "gap_duration_min": 79.37, "wasted_distance_km": 7.039, "prev_trip": "DA240605005711", "next_trip": "DA240605013001", "prev_O": [114.2479192, 22.3247293], "next_O": [114.1640181, 22.3330637]}, "geometry": {"type": "LineString", "coordinates": [[114.230826, 22.310053], [114.166181, 22.33081]]}}, {"type": "Feature", "properties": {"id": "ghost_TY3864_20240605104134", "plate_no": "TY3864", "gap_start_time": "2024-06-05T10:41:34", "gap_end_time": "2024-06-05T12:15:08", "gap_duration_min": 93.57, "wasted_distance_km": 7.098, "prev_trip": "DA240605013001", "next_trip": "DA240605019302", "prev_O": [114.1640181, 22.3330637], "next_O": [114.2003629, 22.3433523]}, "geometry": {"type": "LineString", "coordinates": [[114.131778, 22.342921], [114.200736, 22.345558]]}}, {"type": "Feature", "properties": {"id": "ghost_UL7617_20240605103210", "plate_no": "UL7617", "gap_start_time": "2024-06-05T10:32:10", "gap_end_time": "2024-06-05T13:32:19", "gap_duration_min": 180.15, "wasted_distance_km": 19.42, "prev_trip": "DA240605033601", "next_trip": "DA240605020111", "prev_O": [114.2702546, 22.2944817], "next_O": [114.070833, 22.426567]}, "geometry": {"type": "LineString", "coordinates": [[114.175561, 22.280476], [114.072, 22.426518]]}}, {"type": "Feature", "properties": {"id": "ghost_UL7804_20240605080447", "plate_no": "UL7804", "gap_start_time": "2024-06-05T08:04:47", "gap_end_time": "2024-06-05T09:00:06", "gap_duration_min": 55.32, "wasted_distance_km": 1.368, "prev_trip": "DA240605033301", "next_trip": "DA240605015911", "prev_O": [114.113115, 22.369607], "next_O": [114.1266055, 22.3621904]}, "geometry": {"type": "LineString", "coordinates": [[114.115138, 22.368055], [114.12673, 22.362025]]}}, {"type": "Feature", "properties": {"id": "ghost_UL7804_20240605091317", "plate_no": "UL7804", "gap_start_time": "2024-06-05T09:13:17", "gap_end_time": "2024-06-05T17:10:13", "gap_duration_min": 476.93, "wasted_distance_km": 8.516, "prev_trip": "DA240605015911", "next_trip": "DA240605014502", "prev_O": [114.1266055, 22.3621904], "next_O": [114.1933064, 22.3986651]}, "geometry": {"type": "LineString", "coordinates": [[114.147831, 22.33491], [114.193993, 22.398491]]}}, {"type": "Feature", "properties": {"id": "ghost_UP3870_20240605121736", "plate_no": "UP3870", "gap_start_time": "2024-06-05T12:17:36", "gap_end_time": "2024-06-05T17:05:01", "gap_duration_min": 287.42, "wasted_distance_km": 13.719, "prev_trip": "DA240605043202", "next_trip": "DA240605017102", "prev_O": [114.1747667, 22.4586917], "next_O": [114.1725926, 22.3142237]}, "geometry": {"type": "LineString", "coordinates": [[114.235505, 22.422763], [114.172186, 22.314166]]}}, {"type": "Feature", "properties": {"id": "ghost_VA7459_20240605142144", "plate_no": "VA7459", "gap_start_time": "2024-06-05T14:21:44", "gap_end_time": "2024-06-05T15:40:25", "gap_duration_min": 78.68, "wasted_distance_km": 5.449, "prev_trip": "DA240605036501", "next_trip": "DA240605002902", "prev_O": [114.2159664, 22.2876331], "next_O": [114.212997, 22.3358478]}, "geometry": {"type": "LineString", "coordinates": [[114.176275, 22.300648], [114.213195, 22.335783]]}}, {"type": "Feature", "properties": {"id": "ghost_VD6128_20240605101947", "plate_no": "VD6128", "gap_start_time": "2024-06-05T10:19:47", "gap_end_time": "2024-06-05T13:15:05", "gap_duration_min": 175.3, "wasted_distance_km": 13.63, "prev_trip": "DA240605013311", "next_trip": "DA240605016301", "prev_O": [114.2518906, 22.3049429], "next_O": [114.140001, 22.37024]}, "geometry": {"type": "LineString", "coordinates": [[114.255391, 22.309503], [114.140323, 22.370303]]}}, {"type": "Feature", "properties": {"id": "ghost_VD768_20240605093857", "plate_no": "VD768", "gap_start_time": "2024-06-05T09:38:57", "gap_end_time": "2024-06-05T12:50:18", "gap_duration_min": 191.35, "wasted_distance_km": 11.793, "prev_trip": "DA240605024611", "next_trip": "DA240605037511", "prev_O": [114.2295647, 22.2779318], "next_O": [114.1245247, 22.2709886]}, "geometry": {"type": "LineString", "coordinates": [[114.236361, 22.262255], [114.12214, 22.270898]]}}, {"type": "Feature", "properties": {"id": "ghost_VD768_20240605131448", "plate_no": "VD768", "gap_start_time": "2024-06-05T13:14:48", "gap_end_time": "2024-06-05T15:53:38", "gap_duration_min": 158.83, "wasted_distance_km": 12.789, "prev_trip": "DA240605037511", "next_trip": "DA240605013902", "prev_O": [114.1245247, 22.2709886], "next_O": [114.1219651, 22.3714765]}, "geometry": {"type": "LineString", "coordinates": [[114.193501, 22.277058], [114.122736, 22.371626]]}}, {"type": "Feature", "properties": {"id": "ghost_VE7751_20240605133912", "plate_no": "VE7751", "gap_start_time": "2024-06-05T13:39:12", "gap_end_time": "2024-06-05T20:00:09", "gap_duration_min": 380.95, "wasted_distance_km": 8.714, "prev_trip": "DA240605017101", "next_trip": "DA240605025811", "prev_O": [114.1745295, 22.4612402], "next_O": [114.2020238, 22.3946617]}, "geometry": {"type": "LineString", "coordinates": [[114.175028, 22.317768], [114.20032, 22.392563]]}}, {"type": "Feature", "properties": {"id": "ghost_VV6972_20240605105226", "plate_no": "VV6972", "gap_start_time": "2024-06-05T10:52:26", "gap_end_time": "2024-06-05T13:45:28", "gap_duration_min": 173.03, "wasted_distance_km": 2.653, "prev_trip": "DA240605029201", "next_trip": "DA240605044411", "prev_O": [114.156454, 22.3349727], "next_O": [114.1650221, 22.2792728]}, "geometry": {"type": "LineString", "coordinates": [[114.167978, 22.303118], [114.164566, 22.27947]]}}, {"type": "Feature", "properties": {"id": "ghost_VV6972_20240605140625", "plate_no": "VV6972", "gap_start_time": "2024-06-05T14:06:25", "gap_end_time": "2024-06-05T15:45:06", "gap_duration_min": 98.68, "wasted_distance_km": 0.426, "prev_trip": "DA240605044411", "next_trip": "DA240605006802", "prev_O": [114.1650221, 22.2792728], "next_O": [114.2253505, 22.2821867]}, "geometry": {"type": "LineString", "coordinates": [[114.226051, 22.278361], [114.22575, 22.282183]]}}, {"type": "Feature", "properties": {"id": "ghost_VW3473_20240605105845", "plate_no": "VW3473", "gap_start_time": "2024-06-05T10:58:45", "gap_end_time": "2024-06-05T14:15:07", "gap_duration_min": 196.37, "wasted_distance_km": 12.692, "prev_trip": "DA240605029801", "next_trip": "DA240605026002", "prev_O": [114.1203858, 22.3670155], "next_O": [114.13489, 22.341561]}, "geometry": {"type": "LineString", "coordinates": [[114.168001, 22.45101], [114.13462, 22.341123]]}}, {"type": "Feature", "properties": {"id": "ghost_VW871_20240605145512", "plate_no": "VW871", "gap_start_time": "2024-06-05T14:55:12", "gap_end_time": "2024-06-05T15:45:17", "gap_duration_min": 50.08, "wasted_distance_km": 6.675, "prev_trip": "DA240605004802", "next_trip": "DA240605013402", "prev_O": [114.1252356, 22.3692688], "next_O": [114.1754722, 22.4530181]}, "geometry": {"type": "LineString", "coordinates": [[114.139843, 22.502483], [114.175366, 22.452225]]}}, {"type": "Feature", "properties": {"id": "ghost_VW895_20240605132451", "plate_no": "VW895", "gap_start_time": "2024-06-05T13:24:51", "gap_end_time": "2024-06-05T17:16:28", "gap_duration_min": 231.62, "wasted_distance_km": 9.941, "prev_trip": "DA240605006201", "next_trip": "DA240605039002", "prev_O": [113.999307, 22.455146], "next_O": [114.0270322, 22.4410099]}, "geometry": {"type": "LineString", "coordinates": [[113.962456, 22.376093], [114.026745, 22.44288]]}}, {"type": "Feature", "properties": {"id": "ghost_VX3591_20240605130426", "plate_no": "VX3591", "gap_start_time": "2024-06-05T13:04:26", "gap_end_time": "2024-06-05T14:45:29", "gap_duration_min": 101.05, "wasted_distance_km": 15.764, "prev_trip": "DA240605033602", "next_trip": "DA240605000302", "prev_O": [114.1751471, 22.276022], "next_O": [114.1283333, 22.3458333]}, "geometry": {"type": "LineString", "coordinates": [[114.271166, 22.294948], [114.128308, 22.346258]]}}, {"type": "Feature", "properties": {"id": "ghost_VX3591_20240605150059", "plate_no": "VX3591", "gap_start_time": "2024-06-05T15:00:59", "gap_end_time": "2024-06-05T16:23:08", "gap_duration_min": 82.15, "wasted_distance_km": 0.628, "prev_trip": "DA240605000302", "next_trip": "DA240605000402", "prev_O": [114.1283333, 22.3458333], "next_O": [114.1283333, 22.3458333]}, "geometry": {"type": "LineString", "coordinates": [[114.131776, 22.353196], [114.12909, 22.34812]]}}, {"type": "Feature", "properties": {"id": "ghost_VY5967_20240605082941", "plate_no": "VY5967", "gap_start_time": "2024-06-05T08:29:41", "gap_end_time": "2024-06-05T09:15:11", "gap_duration_min": 45.5, "wasted_distance_km": 0.717, "prev_trip": "DA240605013901", "next_trip": "DA240605001911", "prev_O": [114.1414736, 22.3728484], "next_O": [114.1236864, 22.362922]}, "geometry": {"type": "LineString", "coordinates": [[114.122513, 22.368663], [114.127841, 22.364501]]}}, {"type": "Feature", "properties": {"id": "ghost_VY5967_20240605093011", "plate_no": "VY5967", "gap_start_time": "2024-06-05T09:30:11", "gap_end_time": "2024-06-05T10:20:07", "gap_duration_min": 49.93, "wasted_distance_km": 0.999, "prev_trip": "DA240605001911", "next_trip": "DA240605013101", "prev_O": [114.1236864, 22.362922], "next_O": [114.1226204, 22.3646272]}, "geometry": {"type": "LineString", "coordinates": [[114.121885, 22.37376], [114.122506, 22.364791]]}}, {"type": "Feature", "properties": {"id": "ghost_WN8723_20240605112044", "plate_no": "WN8723", "gap_start_time": "2024-06-05T11:20:44", "gap_end_time": "2024-06-05T13:45:08", "gap_duration_min": 144.4, "wasted_distance_km": 0.209, "prev_trip": "DA240605041001", "next_trip": "DA240605041002", "prev_O": [114.1877826, 22.3102544], "next_O": [114.2262136, 22.3109722]}, "geometry": {"type": "LineString", "coordinates": [[114.226908, 22.309063], [114.22586, 22.310668]]}}, {"type": "Feature", "properties": {"id": "ghost_WN8723_20240605140820", "plate_no": "WN8723", "gap_start_time": "2024-06-05T14:08:20", "gap_end_time": "2024-06-05T15:15:21", "gap_duration_min": 67.02, "wasted_distance_km": 4.155, "prev_trip": "DA240605041002", "next_trip": "DA240605014602", "prev_O": [114.2262136, 22.3109722], "next_O": [114.2286568, 22.3119002]}, "geometry": {"type": "LineString", "coordinates": [[114.18839, 22.31057], [114.228776, 22.311326]]}}, {"type": "Feature", "properties": {"id": "ghost_WN9331_20240605094423", "plate_no": "WN9331", "gap_start_time": "2024-06-05T09:44:23", "gap_end_time": "2024-06-05T12:00:00", "gap_duration_min": 135.62, "wasted_distance_km": 14.259, "prev_trip": "DA240605007301", "next_trip": "DA240605007601", "prev_O": [114.1786768, 22.3729477], "next_O": [114.1237538, 22.2702094]}, "geometry": {"type": "LineString", "coordinates": [[114.194003, 22.380648], [114.123585, 22.270193]]}}, {"type": "Feature", "properties": {"id": "ghost_WN9331_20240605123005", "plate_no": "WN9331", "gap_start_time": "2024-06-05T12:30:05", "gap_end_time": "2024-06-05T14:40:06", "gap_duration_min": 130.02, "wasted_distance_km": 0.483, "prev_trip": "DA240605007601", "next_trip": "DA240605007801", "prev_O": [114.1237538, 22.2702094], "next_O": [114.177655, 22.3010111]}, "geometry": {"type": "LineString", "coordinates": [[114.18059, 22.30346], [114.177211, 22.300438]]}}, {"type": "Feature", "properties": {"id": "ghost_WN9331_20240605150708", "plate_no": "WN9331", "gap_start_time": "2024-06-05T15:07:08", "gap_end_time": "2024-06-05T15:50:12", "gap_duration_min": 43.07, "wasted_distance_km": 0.337, "prev_trip": "DA240605007801", "next_trip": "DA240605004411", "prev_O": [114.177655, 22.3010111], "next_O": [114.1245247, 22.2709886]}, "geometry": {"type": "LineString", "coordinates": [[114.126276, 22.273171], [114.124051, 22.270948]]}}, {"type": "Feature", "properties": {"id": "ghost_WP1681_20240605111657", "plate_no": "WP1681", "gap_start_time": "2024-06-05T11:16:57", "gap_end_time": "2024-06-05T12:46:01", "gap_duration_min": 89.07, "wasted_distance_km": 6.934, "prev_trip": "DA240605005001", "next_trip": "DA240605012711", "prev_O": [114.2694013, 22.316371], "next_O": [114.1716857, 22.3301776]}, "geometry": {"type": "LineString", "coordinates": [[114.122558, 22.368691], [114.172336, 22.326636]]}}, {"type": "Feature", "properties": {"id": "ghost_WP3306_20240605102457", "plate_no": "WP3306", "gap_start_time": "2024-06-05T10:24:57", "gap_end_time": "2024-06-05T12:20:07", "gap_duration_min": 115.17, "wasted_distance_km": 8.415, "prev_trip": "DA240605010801", "next_trip": "DA240605008411", "prev_O": [114.049219, 22.473131], "next_O": [113.9736862, 22.3822517]}, "geometry": {"type": "LineString", "coordinates": [[114.00755, 22.451278], [113.973743, 22.382355]]}}, {"type": "Feature", "properties": {"id": "ghost_WP3825_20240605100617", "plate_no": "WP3825", "gap_start_time": "2024-06-05T10:06:17", "gap_end_time": "2024-06-05T11:00:04", "gap_duration_min": 53.78, "wasted_distance_km": 5.638, "prev_trip": "DA240605025101", "next_trip": "DA240605030502", "prev_O": [114.1928652, 22.3363755], "next_O": [114.2303424, 22.3079333]}, "geometry": {"type": "LineString", "coordinates": [[114.177676, 22.321153], [114.230621, 22.308056]]}}, {"type": "Feature", "properties": {"id": "ghost_WP3825_20240605110807", "plate_no": "WP3825", "gap_start_time": "2024-06-05T11:08:07", "gap_end_time": "2024-06-05T13:40:04", "gap_duration_min": 151.95, "wasted_distance_km": 6.594, "prev_trip": "DA240605030502", "next_trip": "DA240605031911", "prev_O": [114.2303424, 22.3079333], "next_O": [114.2007371, 22.3505851]}, "geometry": {"type": "LineString", "coordinates": [[114.236366, 22.300773], [114.201781, 22.3507]]}}, {"type": "Feature", "properties": {"id": "ghost_WP3895_20240605083936", "plate_no": "WP3895", "gap_start_time": "2024-06-05T08:39:36", "gap_end_time": "2024-06-05T10:45:47", "gap_duration_min": 126.18, "wasted_distance_km": 6.253, "prev_trip": "DA240605000701", "next_trip": "DA240605021701", "prev_O": [114.2004947, 22.2912707], "next_O": [114.23865, 22.303208]}, "geometry": {"type": "LineString", "coordinates": [[114.181458, 22.32303], [114.238465, 22.30351]]}}, {"type": "Feature", "properties": {"id": "ghost_WP4172_20240605150643", "plate_no": "WP4172", "gap_start_time": "2024-06-05T15:06:43", "gap_end_time": "2024-06-05T16:31:13", "gap_duration_min": 84.5, "wasted_distance_km": 0.214, "prev_trip": "DA240605003301", "next_trip": "DA240605003302", "prev_O": [114.1734921, 22.2726294], "next_O": [114.1734921, 22.2726294]}, "geometry": {"type": "LineString", "coordinates": [[114.173243, 22.272906], [114.175016, 22.273905]]}}, {"type": "Feature", "properties": {"id": "ghost_WP5387_20240605115759", "plate_no": "WP5387", "gap_start_time": "2024-06-05T11:57:59", "gap_end_time": "2024-06-05T14:00:18", "gap_duration_min": 122.32, "wasted_distance_km": 10.246, "prev_trip": "DA240605030011", "next_trip": "DA240605012501", "prev_O": [114.1323065, 22.2661136], "next_O": [114.175644, 22.3701591]}, "geometry": {"type": "LineString", "coordinates": [[114.142771, 22.282193], [114.174948, 22.369401]]}}, {"type": "Feature", "properties": {"id": "ghost_XE1372_20240605112820", "plate_no": "XE1372", "gap_start_time": "2024-06-05T11:28:20", "gap_end_time": "2024-06-05T13:50:29", "gap_duration_min": 142.15, "wasted_distance_km": 2.98, "prev_trip": "DA240605030402", "next_trip": "DA240605012401", "prev_O": [114.1763226, 22.3187944], "next_O": [114.1812496, 22.3303924]}, "geometry": {"type": "LineString", "coordinates": [[114.151821, 22.327891], [114.180218, 22.333201]]}}, {"type": "Feature", "properties": {"id": "ghost_XE1372_20240605140454", "plate_no": "XE1372", "gap_start_time": "2024-06-05T14:04:54", "gap_end_time": "2024-06-05T14:41:07", "gap_duration_min": 36.22, "wasted_distance_km": 0.605, "prev_trip": "DA240605012401", "next_trip": "DA240605000702", "prev_O": [114.1812496, 22.3303924], "next_O": [114.1831334, 22.3223645]}, "geometry": {"type": "LineString", "coordinates": [[114.180118, 22.326988], [114.182553, 22.322036]]}}, {"type": "Feature", "properties": {"id": "ghost_XE1886_20240605101009", "plate_no": "XE1886", "gap_start_time": "2024-06-05T10:10:09", "gap_end_time": "2024-06-05T14:00:04", "gap_duration_min": 229.92, "wasted_distance_km": 10.512, "prev_trip": "DA240605020601", "next_trip": "DA240605021202", "prev_O": [114.1405447, 22.3380233], "next_O": [114.2362653, 22.2695993]}, "geometry": {"type": "LineString", "coordinates": [[114.158765, 22.330068], [114.236985, 22.269241]]}}, {"type": "Feature", "properties": {"id": "ghost_XE2198_20240605085848", "plate_no": "XE2198", "gap_start_time": "2024-06-05T08:58:48", "gap_end_time": "2024-06-05T13:30:32", "gap_duration_min": 271.73, "wasted_distance_km": 13.18, "prev_trip": "DA240605007401", "next_trip": "DA240605024411", "prev_O": [114.23134, 22.42554], "next_O": [114.23366, 22.26308]}, "geometry": {"type": "LineString", "coordinates": [[114.200933, 22.377693], [114.233705, 22.263106]]}}, {"type": "Feature", "properties": {"id": "ghost_XE612_20240605124422", "plate_no": "XE612", "gap_start_time": "2024-06-05T12:44:22", "gap_end_time": "2024-06-05T13:30:21", "gap_duration_min": 45.98, "wasted_distance_km": 2.392, "prev_trip": "DA240605028301", "next_trip": "DA240605035201", "prev_O": [114.1772603, 22.3129427], "next_O": [114.167205, 22.3332974]}, "geometry": {"type": "LineString", "coordinates": [[114.170926, 22.311825], [114.167618, 22.333116]]}}, {"type": "Feature", "properties": {"id": "ghost_XE612_20240605133851", "plate_no": "XE612", "gap_start_time": "2024-06-05T13:38:51", "gap_end_time": "2024-06-05T15:40:14", "gap_duration_min": 121.38, "wasted_distance_km": 4.303, "prev_trip": "DA240605035201", "next_trip": "DA240605002702", "prev_O": [114.167205, 22.3332974], "next_O": [114.212997, 22.3358478]}, "geometry": {"type": "LineString", "coordinates": [[114.177931, 22.314965], [114.213198, 22.335786]]}}, {"type": "Feature", "properties": {"id": "ghost_XE7053_20240605100110", "plate_no": "XE7053", "gap_start_time": "2024-06-05T10:01:10", "gap_end_time": "2024-06-05T14:30:10", "gap_duration_min": 269.0, "wasted_distance_km": 1.984, "prev_trip": "DA240605035711", "next_trip": "DA240605020502", "prev_O": [114.1870994, 22.3169], "next_O": [114.1725229, 22.3019182]}, "geometry": {"type": "LineString", "coordinates": [[114.168415, 22.319251], [114.171945, 22.301708]]}}, {"type": "Feature", "properties": {"id": "ghost_XE7168_20240605093659", "plate_no": "XE7168", "gap_start_time": "2024-06-05T09:36:59", "gap_end_time": "2024-06-05T12:15:12", "gap_duration_min": 158.22, "wasted_distance_km": 5.228, "prev_trip": "DA240605010701", "next_trip": "DA240605039102", "prev_O": [114.1565225, 22.3342843], "next_O": [114.1243351, 22.2699905]}, "geometry": {"type": "LineString", "coordinates": [[114.17442, 22.277495], [114.124108, 22.270936]]}}, {"type": "Feature", "properties": {"id": "ghost_XE7168_20240605122512", "plate_no": "XE7168", "gap_start_time": "2024-06-05T12:25:12", "gap_end_time": "2024-06-05T13:52:02", "gap_duration_min": 86.83, "wasted_distance_km": 7.517, "prev_trip": "DA240605039102", "next_trip": "DA240605034211", "prev_O": [114.1243351, 22.2699905], "next_O": [114.2009229, 22.2896155]}, "geometry": {"type": "LineString", "coordinates": [[114.136521, 22.260451], [114.200671, 22.292803]]}}, {"type": "Feature", "properties": {"id": "ghost_XE7168_20240605140503", "plate_no": "XE7168", "gap_start_time": "2024-06-05T14:05:03", "gap_end_time": "2024-06-05T15:45:29", "gap_duration_min": 100.43, "wasted_distance_km": 1.398, "prev_trip": "DA240605034211", "next_trip": "DA240605022602", "prev_O": [114.2009229, 22.2896155], "next_O": [114.1763226, 22.3187944]}, "geometry": {"type": "LineString", "coordinates": [[114.163348, 22.31833], [114.17672, 22.320591]]}}, {"type": "Feature", "properties": {"id": "ghost_XE7898_20240605105001", "plate_no": "XE7898", "gap_start_time": "2024-06-05T10:50:01", "gap_end_time": "2024-06-05T14:55:17", "gap_duration_min": 245.27, "wasted_distance_km": 10.077, "prev_trip": "DA240605037211", "next_trip": "DA240605035202", "prev_O": [114.130117, 22.3496304], "next_O": [114.1786768, 22.3122616]}, "geometry": {"type": "LineString", "coordinates": [[114.110546, 22.375481], [114.18006, 22.311616]]}}, {"type": "Feature", "properties": {"id": "ghost_XE8451_20240605142352", "plate_no": "XE8451", "gap_start_time": "2024-06-05T14:23:52", "gap_end_time": "2024-06-05T15:30:22", "gap_duration_min": 66.5, "wasted_distance_km": 7.224, "prev_trip": "DA240605024001", "next_trip": "DA240605033302", "prev_O": [114.232525, 22.307095], "next_O": [114.118883, 22.369655]}, "geometry": {"type": "LineString", "coordinates": [[114.172553, 22.326581], [114.119271, 22.368915]]}}, {"type": "Feature", "properties": {"id": "ghost_XM9877_20240605105552", "plate_no": "XM9877", "gap_start_time": "2024-06-05T10:55:52", "gap_end_time": "2024-06-05T12:15:17", "gap_duration_min": 79.42, "wasted_distance_km": 3.515, "prev_trip": "DA240605029101", "next_trip": "DA240605020602", "prev_O": [114.156454, 22.3349727], "next_O": [114.1617941, 22.3329517]}, "geometry": {"type": "LineString", "coordinates": [[114.167573, 22.302821], [114.1613, 22.333898]]}}, {"type": "Feature", "properties": {"id": "ghost_XN5447_20240605091454", "plate_no": "XN5447", "gap_start_time": "2024-06-05T09:14:54", "gap_end_time": "2024-06-05T12:30:21", "gap_duration_min": 195.45, "wasted_distance_km": 3.825, "prev_trip": "DA240605044201", "next_trip": "DA240605022502", "prev_O": [114.1555007, 22.3388928], "next_O": [114.1743747, 22.3091816]}, "geometry": {"type": "LineString", "coordinates": [[114.156063, 22.338938], [114.175098, 22.30939]]}}, {"type": "Feature", "properties": {"id": "ghost_XU8126_20240605093755", "plate_no": "XU8126", "gap_start_time": "2024-06-05T09:37:55", "gap_end_time": "2024-06-05T10:47:17", "gap_duration_min": 69.37, "wasted_distance_km": 0.149, "prev_trip": "DA240605044001", "next_trip": "DA240605044002", "prev_O": [114.2003629, 22.3433523], "next_O": [114.1966145, 22.3456548]}, "geometry": {"type": "LineString", "coordinates": [[114.200618, 22.345011], [114.200466, 22.34368]]}}, {"type": "Feature", "properties": {"id": "ghost_XV2836_20240605092942", "plate_no": "XV2836", "gap_start_time": "2024-06-05T09:29:42", "gap_end_time": "2024-06-05T10:50:04", "gap_duration_min": 80.37, "wasted_distance_km": 3.293, "prev_trip": "DA240605036111", "next_trip": "DA240605041601", "prev_O": [114.2012365, 22.2911583], "next_O": [114.22004, 22.283011]}, "geometry": {"type": "LineString", "coordinates": [[114.187938, 22.279083], [114.219636, 22.283181]]}}, {"type": "Feature", "properties": {"id": "ghost_XV3002_20240605124516", "plate_no": "XV3002", "gap_start_time": "2024-06-05T12:45:16", "gap_end_time": "2024-06-05T13:32:40", "gap_duration_min": 47.4, "wasted_distance_km": 5.746, "prev_trip": "DA240605034111", "next_trip": "DA240605043311", "prev_O": [114.1613761, 22.3200828], "next_O": [114.1464621, 22.2863197]}, "geometry": {"type": "LineString", "coordinates": [[114.201576, 22.290626], [114.145941, 22.286133]]}}, {"type": "Feature", "properties": {"id": "ghost_XV3002_20240605135318", "plate_no": "XV3002", "gap_start_time": "2024-06-05T13:53:18", "gap_end_time": "2024-06-05T17:00:23", "gap_duration_min": 187.08, "wasted_distance_km": 4.414, "prev_trip": "DA240605043311", "next_trip": "DA240605020011", "prev_O": [114.1464621, 22.2863197], "next_O": [114.1394532, 22.2865441]}, "geometry": {"type": "LineString", "coordinates": [[114.179848, 22.275165], [114.138896, 22.286988]]}}, {"type": "Feature", "properties": {"id": "ghost_XV4803_20240605132321", "plate_no": "XV4803", "gap_start_time": "2024-06-05T13:23:21", "gap_end_time": "2024-06-05T20:00:14", "gap_duration_min": 396.88, "wasted_distance_km": 0.386, "prev_trip": "DA240605028111", "next_trip": "DA240605011911", "prev_O": [114.1323065, 22.2661136], "next_O": [114.2271136, 22.2824485]}, "geometry": {"type": "LineString", "coordinates": [[114.222195, 22.282171], [114.225711, 22.280965]]}}, {"type": "Feature", "properties": {"id": "ghost_XV4803_20240605201344", "plate_no": "XV4803", "gap_start_time": "2024-06-05T20:13:44", "gap_end_time": "2024-06-05T21:08:44", "gap_duration_min": 55.0, "wasted_distance_km": 6.279, "prev_trip": "DA240605011911", "next_trip": "DA240605022202", "prev_O": [114.2271136, 22.2824485], "next_O": [114.179118, 22.27986]}, "geometry": {"type": "LineString", "coordinates": [[114.237593, 22.263828], [114.179161, 22.280088]]}}, {"type": "Feature", "properties": {"id": "ghost_XV7112_20240605114735", "plate_no": "XV7112", "gap_start_time": "2024-06-05T11:47:35", "gap_end_time": "2024-06-05T14:15:33", "gap_duration_min": 147.97, "wasted_distance_km": 17.958, "prev_trip": "DA240605026001", "next_trip": "DA240605017301", "prev_O": [114.1403884, 22.3643438], "next_O": [114.136205, 22.503687]}, "geometry": {"type": "LineString", "coordinates": [[114.134153, 22.341358], [114.136485, 22.502845]]}}, {"type": "Feature", "properties": {"id": "ghost_YK3534_20240605095520", "plate_no": "YK3534", "gap_start_time": "2024-06-05T09:55:20", "gap_end_time": "2024-06-05T17:00:59", "gap_duration_min": 425.65, "wasted_distance_km": 8.495, "prev_trip": "DA240605016701", "next_trip": "DA240605005911", "prev_O": [114.224979, 22.4223274], "next_O": [114.2303424, 22.3079333]}, "geometry": {"type": "LineString", "coordinates": [[114.204896, 22.378953], [114.228728, 22.305803]]}}, {"type": "Feature", "properties": {"id": "ghost_YK4683_20240605065234", "plate_no": "YK4683", "gap_start_time": "2024-06-05T06:52:34", "gap_end_time": "2024-06-05T13:00:21", "gap_duration_min": 367.78, "wasted_distance_km": 1.421, "prev_trip": "DA240605016501", "next_trip": "DA240605033011", "prev_O": [114.1334613, 22.4948376], "next_O": [114.196624, 22.376603]}, "geometry": {"type": "LineString", "coordinates": [[114.198485, 22.389168], [114.196755, 22.376493]]}}, {"type": "Feature", "properties": {"id": "ghost_YK4725_20240605103904", "plate_no": "YK4725", "gap_start_time": "2024-06-05T10:39:04", "gap_end_time": "2024-06-05T14:46:13", "gap_duration_min": 247.15, "wasted_distance_km": 4.948, "prev_trip": "DA240605029401", "next_trip": "DA240605028401", "prev_O": [114.156454, 22.3349727], "next_O": [114.1406144, 22.3364208]}, "geometry": {"type": "LineString", "coordinates": [[114.1683, 22.299941], [114.141385, 22.336826]]}}, {"type": "Feature", "properties": {"id": "ghost_YK4725_20240605145947", "plate_no": "YK4725", "gap_start_time": "2024-06-05T14:59:47", "gap_end_time": "2024-06-05T17:00:20", "gap_duration_min": 120.55, "wasted_distance_km": 0.816, "prev_trip": "DA240605028401", "next_trip": "DA240605020802", "prev_O": [114.1406144, 22.3364208], "next_O": [114.18052, 22.32278]}, "geometry": {"type": "LineString", "coordinates": [[114.175168, 22.31828], [114.179775, 22.324256]]}}, {"type": "Feature", "properties": {"id": "ghost_YK5072_20240605101730", "plate_no": "YK5072", "gap_start_time": "2024-06-05T10:17:30", "gap_end_time": "2024-06-05T12:15:05", "gap_duration_min": 117.58, "wasted_distance_km": 2.021, "prev_trip": "DA240605037411", "next_trip": "DA240605026811", "prev_O": [114.234206, 22.3071441], "next_O": [114.2303424, 22.3079333]}, "geometry": {"type": "LineString", "coordinates": [[114.231375, 22.326288], [114.23059, 22.308131]]}}, {"type": "Feature", "properties": {"id": "ghost_YK5072_20240605123935", "plate_no": "YK5072", "gap_start_time": "2024-06-05T12:39:35", "gap_end_time": "2024-06-05T14:10:57", "gap_duration_min": 91.37, "wasted_distance_km": 23.246, "prev_trip": "DA240605026811", "next_trip": "DA240605042601", "prev_O": [114.2303424, 22.3079333], "next_O": [114.137108, 22.5004969]}, "geometry": {"type": "LineString", "coordinates": [[114.240625, 22.314235], [114.137455, 22.500265]]}}, {"type": "Feature", "properties": {"id": "ghost_YK7874_20240605150321", "plate_no": "YK7874", "gap_start_time": "2024-06-05T15:03:21", "gap_end_time": "2024-06-05T16:31:59", "gap_duration_min": 88.63, "wasted_distance_km": 0.41, "prev_trip": "DA240605003611", "next_trip": "DA240605003711", "prev_O": [114.2336165, 22.2637098], "next_O": [114.2336165, 22.2637098]}, "geometry": {"type": "LineString", "coordinates": [[114.236803, 22.264025], [114.2343, 22.266891]]}}, {"type": "Feature", "properties": {"id": "ghost_YK9007_20240605124523", "plate_no": "YK9007", "gap_start_time": "2024-06-05T12:45:23", "gap_end_time": "2024-06-05T14:36:18", "gap_duration_min": 110.92, "wasted_distance_km": 1.705, "prev_trip": "DA240605022701", "next_trip": "DA240605003111", "prev_O": [114.204604, 22.291438], "next_O": [114.173637, 22.2733649]}, "geometry": {"type": "LineString", "coordinates": [[114.190531, 22.275243], [114.174046, 22.27372]]}}, {"type": "Feature", "properties": {"id": "ghost_YK905_20240605083408", "plate_no": "YK905", "gap_start_time": "2024-06-05T08:34:08", "gap_end_time": "2024-06-05T13:01:20", "gap_duration_min": 267.2, "wasted_distance_km": 14.181, "prev_trip": "DA240605006611", "next_trip": "DA240605039811", "prev_O": [114.2567421, 22.3113053], "next_O": [114.1244668, 22.2711084]}, "geometry": {"type": "LineString", "coordinates": [[114.250451, 22.322816], [114.124373, 22.271276]]}}, {"type": "Feature", "properties": {"id": "ghost_YK905_20240605133453", "plate_no": "YK905", "gap_start_time": "2024-06-05T13:34:53", "gap_end_time": "2024-06-05T16:00:17", "gap_duration_min": 145.4, "wasted_distance_km": 2.085, "prev_trip": "DA240605039811", "next_trip": "DA240605023701", "prev_O": [114.1244668, 22.2711084], "next_O": [114.2343596, 22.3128412]}, "geometry": {"type": "LineString", "coordinates": [[114.214275, 22.315613], [114.234355, 22.31307]]}}, {"type": "Feature", "properties": {"id": "ghost_YK905_20240605161448", "plate_no": "YK905", "gap_start_time": "2024-06-05T16:14:48", "gap_end_time": "2024-06-05T18:31:59", "gap_duration_min": 137.18, "wasted_distance_km": 4.709, "prev_trip": "DA240605023701", "next_trip": "DA240605011111", "prev_O": [114.2343596, 22.3128412], "next_O": [114.184829, 22.3262591]}, "geometry": {"type": "LineString", "coordinates": [[114.227585, 22.3181], [114.182738, 22.326621]]}}, {"type": "Feature", "properties": {"id": "ghost_YK9198_20240605103717", "plate_no": "YK9198", "gap_start_time": "2024-06-05T10:37:17", "gap_end_time": "2024-06-05T14:20:01", "gap_duration_min": 222.73, "wasted_distance_km": 7.086, "prev_trip": "DA240605010401", "next_trip": "DA240605037001", "prev_O": [114.2430202, 22.4265896], "next_O": [114.136921, 22.378818]}, "geometry": {"type": "LineString", "coordinates": [[114.204781, 22.37903], [114.135928, 22.376301]]}}, {"type": "Feature", "properties": {"id": "ghost_YL1345_20240605101915", "plate_no": "YL1345", "gap_start_time": "2024-06-05T10:19:15", "gap_end_time": "2024-06-05T11:30:15", "gap_duration_min": 71.0, "wasted_distance_km": 0.477, "prev_trip": "DA240605042301", "next_trip": "DA240605042302", "prev_O": [114.109969, 22.342199], "next_O": [114.1608536, 22.3324787]}, "geometry": {"type": "LineString", "coordinates": [[114.157078, 22.334306], [114.161206, 22.332345]]}}, {"type": "Feature", "properties": {"id": "ghost_YL1345_20240605114411", "plate_no": "YL1345", "gap_start_time": "2024-06-05T11:44:11", "gap_end_time": "2024-06-05T14:00:06", "gap_duration_min": 135.92, "wasted_distance_km": 9.044, "prev_trip": "DA240605042302", "next_trip": "DA240605025502", "prev_O": [114.1608536, 22.3324787], "next_O": [114.1966145, 22.3456548]}, "geometry": {"type": "LineString", "coordinates": [[114.109985, 22.342323], [114.197916, 22.34329]]}}, {"type": "Feature", "properties": {"id": "ghost_YL1821_20240605105233", "plate_no": "YL1821", "gap_start_time": "2024-06-05T10:52:33", "gap_end_time": "2024-06-05T13:00:19", "gap_duration_min": 127.77, "wasted_distance_km": 0.18, "prev_trip": "DA240605025601", "next_trip": "DA240605025602", "prev_O": [114.1675766, 22.3389067], "next_O": [114.202222, 22.3411893]}, "geometry": {"type": "LineString", "coordinates": [[114.202466, 22.33962], [114.202608, 22.341235]]}}, {"type": "Feature", "properties": {"id": "ghost_YL1821_20240605131214", "plate_no": "YL1821", "gap_start_time": "2024-06-05T13:12:14", "gap_end_time": "2024-06-05T16:00:17", "gap_duration_min": 168.05, "wasted_distance_km": 9.375, "prev_trip": "DA240605025602", "next_trip": "DA240605031611", "prev_O": [114.202222, 22.3411893], "next_O": [114.2113817, 22.4136093]}, "geometry": {"type": "LineString", "coordinates": [[114.165351, 22.339985], [114.211451, 22.412728]]}}, {"type": "Feature", "properties": {"id": "ghost_YL8082_20240605080236", "plate_no": "YL8082", "gap_start_time": "2024-06-05T08:02:36", "gap_end_time": "2024-06-05T12:15:29", "gap_duration_min": 252.88, "wasted_distance_km": 10.245, "prev_trip": "DA240605015811", "next_trip": "DA240605024102", "prev_O": [114.2014802, 22.3440162], "next_O": [114.1257917, 22.2819969]}, "geometry": {"type": "LineString", "coordinates": [[114.199511, 22.34561], [114.12688, 22.282573]]}}, {"type": "Feature", "properties": {"id": "ghost_YL8082_20240605123800", "plate_no": "YL8082", "gap_start_time": "2024-06-05T12:38:00", "gap_end_time": "2024-06-05T13:50:00", "gap_duration_min": 72.0, "wasted_distance_km": 3.78, "prev_trip": "DA240605024102", "next_trip": "DA240605021301", "prev_O": [114.1257917, 22.2819969], "next_O": [114.124202, 22.269831]}, "geometry": {"type": "LineString", "coordinates": [[114.152863, 22.248751], [114.123805, 22.269543]]}}, {"type": "Feature", "properties": {"id": "ghost_YL9716_20240605083732", "plate_no": "YL9716", "gap_start_time": "2024-06-05T08:37:32", "gap_end_time": "2024-06-05T13:50:01", "gap_duration_min": 312.48, "wasted_distance_km": 8.611, "prev_trip": "DA240605022401", "next_trip": "DA240605021511", "prev_O": [114.1745477, 22.3669267], "next_O": [114.2305221, 22.3074016]}, "geometry": {"type": "LineString", "coordinates": [[114.204116, 22.378606], [114.233138, 22.305965]]}}, {"type": "Feature", "properties": {"id": "ghost_YY8058_20240605110054", "plate_no": "YY8058", "gap_start_time": "2024-06-05T11:00:54", "gap_end_time": "2024-06-05T13:30:04", "gap_duration_min": 149.17, "wasted_distance_km": 2.427, "prev_trip": "DA240605029501", "next_trip": "DA240605041101", "prev_O": [114.156454, 22.3349727], "next_O": [114.1792109, 22.3210928]}, "geometry": {"type": "LineString", "coordinates": [[114.167928, 22.302765], [114.17987, 22.321591]]}}, {"type": "Feature", "properties": {"id": "ghost_ZA3805_20240605094143", "plate_no": "ZA3805", "gap_start_time": "2024-06-05T09:41:43", "gap_end_time": "2024-06-05T11:30:05", "gap_duration_min": 108.37, "wasted_distance_km": 0.71, "prev_trip": "DA240605025201", "next_trip": "DA240605039201", "prev_O": [114.2294373, 22.4161286], "next_O": [114.2223687, 22.4105226]}, "geometry": {"type": "LineString", "coordinates": [[114.22869, 22.415948], [114.222285, 22.413565]]}}, {"type": "Feature", "properties": {"id": "ghost_ZA3805_20240605113935", "plate_no": "ZA3805", "gap_start_time": "2024-06-05T11:39:35", "gap_end_time": "2024-06-05T15:00:08", "gap_duration_min": 200.55, "wasted_distance_km": 6.975, "prev_trip": "DA240605039201", "next_trip": "DA240605007402", "prev_O": [114.2223687, 22.4105226], "next_O": [114.1987643, 22.3804685]}, "geometry": {"type": "LineString", "coordinates": [[114.241958, 22.428911], [114.199155, 22.380235]]}}, {"type": "Feature", "properties": {"id": "ghost_ZA4388_20240605091606", "plate_no": "ZA4388", "gap_start_time": "2024-06-05T09:16:06", "gap_end_time": "2024-06-05T11:40:06", "gap_duration_min": 144.0, "wasted_distance_km": 7.895, "prev_trip": "DA240605032701", "next_trip": "DA240605026911", "prev_O": [114.1524398, 22.2483068], "next_O": [114.2440086, 22.3214412]}, "geometry": {"type": "LineString", "coordinates": [[114.184335, 22.277166], [114.244083, 22.32173]]}}, {"type": "Feature", "properties": {"id": "ghost_ZA6941_20240605111230", "plate_no": "ZA6941", "gap_start_time": "2024-06-05T11:12:30", "gap_end_time": "2024-06-05T14:15:01", "gap_duration_min": 182.52, "wasted_distance_km": 11.432, "prev_trip": "DA240605042401", "next_trip": "DA240605011401", "prev_O": [114.1943978, 22.401522], "next_O": [114.2518599, 22.2626752]}, "geometry": {"type": "LineString", "coordinates": [[114.179306, 22.339345], [114.25198, 22.261573]]}}, {"type": "Feature", "properties": {"id": "ghost_ZA7388_20240605081532", "plate_no": "ZA7388", "gap_start_time": "2024-06-05T08:15:32", "gap_end_time": "2024-06-05T15:50:01", "gap_duration_min": 454.48, "wasted_distance_km": 0.528, "prev_trip": "DA240605004511", "next_trip": "DA240605004611", "prev_O": [114.192092, 22.281794], "next_O": [114.1245247, 22.2709886]}, "geometry": {"type": "LineString", "coordinates": [[114.120033, 22.272968], [114.124535, 22.270683]]}}, {"type": "Feature", "properties": {"id": "ghost_ZB3274_20240605122339", "plate_no": "ZB3274", "gap_start_time": "2024-06-05T12:23:39", "gap_end_time": "2024-06-05T15:00:19", "gap_duration_min": 156.67, "wasted_distance_km": 0.899, "prev_trip": "DA240605007501", "next_trip": "DA240605029302", "prev_O": [114.1237538, 22.2702094], "next_O": [114.1679598, 22.3010089]}, "geometry": {"type": "LineString", "coordinates": [[114.176916, 22.30224], [114.168576, 22.299813]]}}]}