{"type": "FeatureCollection", "features": [{"type": "Feature", "properties": {"id": "ghost_RH3326_20240607104254", "plate_no": "RH3326", "gap_start_time": "2024-06-07T10:42:54", "gap_end_time": "2024-06-07T13:20:01", "gap_duration_min": 157.12, "wasted_distance_km": 11.349, "prev_trip": "DA240607024902", "next_trip": "DA240607045901", "prev_O": [114.204824, 22.2912668], "next_O": [114.2666792, 22.3063335]}, "geometry": {"type": "LineString", "coordinates": [[114.176751, 22.247625], [114.266751, 22.306618]]}}, {"type": "Feature", "properties": {"id": "ghost_RV4356_20240607084830", "plate_no": "RV4356", "gap_start_time": "2024-06-07T08:48:30", "gap_end_time": "2024-06-07T14:45:37", "gap_duration_min": 357.12, "wasted_distance_km": 14.305, "prev_trip": "DA240607009001", "next_trip": "DA240607012402", "prev_O": [114.23134, 22.42554], "next_O": [114.1234441, 22.2711318]}, "geometry": {"type": "LineString", "coordinates": [[114.200456, 22.377878], [114.11998, 22.27296]]}}, {"type": "Feature", "properties": {"id": "ghost_RV7493_20240607092131", "plate_no": "RV7493", "gap_start_time": "2024-06-07T09:21:31", "gap_end_time": "2024-06-07T11:20:06", "gap_duration_min": 118.58, "wasted_distance_km": 9.054, "prev_trip": "DA240607007211", "next_trip": "DA240607012902", "prev_O": [114.17929, 22.3161812], "next_O": [114.272155, 22.381659]}, "geometry": {"type": "LineString", "coordinates": [[114.228043, 22.311021], [114.272583, 22.381255]]}}, {"type": "Feature", "properties": {"id": "ghost_RV8266_20240607081902", "plate_no": "RV8266", "gap_start_time": "2024-06-07T08:19:02", "gap_end_time": "2024-06-07T10:05:02", "gap_duration_min": 106.0, "wasted_distance_km": 2.649, "prev_trip": "DA240607017411", "next_trip": "DA240607038911", "prev_O": [114.208935, 22.341343], "next_O": [114.1613761, 22.3200828]}, "geometry": {"type": "LineString", "coordinates": [[114.186528, 22.325441], [114.161445, 22.320033]]}}, {"type": "Feature", "properties": {"id": "ghost_RV8266_20240607103601", "plate_no": "RV8266", "gap_start_time": "2024-06-07T10:36:01", "gap_end_time": "2024-06-07T11:30:09", "gap_duration_min": 54.13, "wasted_distance_km": 0.25, "prev_trip": "DA240607038911", "next_trip": "DA240607038811", "prev_O": [114.1613761, 22.3200828], "next_O": [114.1844751, 22.3776458]}, "geometry": {"type": "LineString", "coordinates": [[114.185203, 22.374498], [114.184201, 22.376548]]}}, {"type": "Feature", "properties": {"id": "ghost_RV8266_20240607120341", "plate_no": "RV8266", "gap_start_time": "2024-06-07T12:03:41", "gap_end_time": "2024-06-07T13:45:12", "gap_duration_min": 101.52, "wasted_distance_km": 9.288, "prev_trip": "DA240607038811", "next_trip": "DA240607026501", "prev_O": [114.1844751, 22.3776458], "next_O": [114.2501482, 22.3037201]}, "geometry": {"type": "LineString", "coordinates": [[114.161396, 22.3203], [114.249806, 22.303368]]}}, {"type": "Feature", "properties": {"id": "ghost_RX5674_20240607081926", "plate_no": "RX5674", "gap_start_time": "2024-06-07T08:19:26", "gap_end_time": "2024-06-07T15:30:24", "gap_duration_min": 430.97, "wasted_distance_km": 5.821, "prev_trip": "DA240607016901", "next_trip": "DA240607017202", "prev_O": [114.2536773, 22.3225977], "next_O": [114.1724134, 22.3151818]}, "geometry": {"type": "LineString", "coordinates": [[114.230581, 22.309873], [114.174613, 22.317608]]}}, {"type": "Feature", "properties": {"id": "ghost_SL9703_20240607121523", "plate_no": "SL9703", "gap_start_time": "2024-06-07T12:15:23", "gap_end_time": "2024-06-07T14:00:30", "gap_duration_min": 105.12, "wasted_distance_km": 7.067, "prev_trip": "DA240607045501", "next_trip": "DA240607031802", "prev_O": [114.2272041, 22.4180166], "next_O": [114.201222, 22.378404]}, "geometry": {"type": "LineString", "coordinates": [[114.163581, 22.433565], [114.202715, 22.38131]]}}, {"type": "Feature", "properties": {"id": "ghost_SM140_20240607081337", "plate_no": "SM140", "gap_start_time": "2024-06-07T08:13:37", "gap_end_time": "2024-06-07T11:41:09", "gap_duration_min": 207.53, "wasted_distance_km": 5.641, "prev_trip": "DA240607018201", "next_trip": "DA240607020001", "prev_O": [114.1819743, 22.3714238], "next_O": [114.2419046, 22.42537]}, "geometry": {"type": "LineString", "coordinates": [[114.195255, 22.39646], [114.240396, 22.425303]]}}, {"type": "Feature", "properties": {"id": "ghost_SM140_20240607120239", "plate_no": "SM140", "gap_start_time": "2024-06-07T12:02:39", "gap_end_time": "2024-06-07T12:30:09", "gap_duration_min": 27.5, "wasted_distance_km": 0.756, "prev_trip": "DA240607020001", "next_trip": "DA240607015911", "prev_O": [114.2419046, 22.42537], "next_O": [114.1953497, 22.3898836]}, "geometry": {"type": "LineString", "coordinates": [[114.192551, 22.383698], [114.195325, 22.389995]]}}, {"type": "Feature", "properties": {"id": "ghost_TC1655_20240607102412", "plate_no": "TC1655", "gap_start_time": "2024-06-07T10:24:12", "gap_end_time": "2024-06-07T13:30:15", "gap_duration_min": 186.05, "wasted_distance_km": 2.01, "prev_trip": "DA240607031301", "next_trip": "DA240607045611", "prev_O": [114.1363749, 22.2524269], "next_O": [114.1311358, 22.2701849]}, "geometry": {"type": "LineString", "coordinates": [[114.140505, 22.285645], [114.130131, 22.270325]]}}, {"type": "Feature", "properties": {"id": "ghost_TD4705_20240607070835", "plate_no": "TD4705", "gap_start_time": "2024-06-07T07:08:35", "gap_end_time": "2024-06-07T08:01:11", "gap_duration_min": 52.6, "wasted_distance_km": 0.901, "prev_trip": "DA240607032901", "next_trip": "DA240607003601", "prev_O": [114.2009294, 22.2910792], "next_O": [114.17302, 22.2774003]}, "geometry": {"type": "LineString", "coordinates": [[114.17758, 22.278743], [114.169011, 22.277075]]}}, {"type": "Feature", "properties": {"id": "ghost_TD4705_20240607080544", "plate_no": "TD4705", "gap_start_time": "2024-06-07T08:05:44", "gap_end_time": "2024-06-07T13:45:16", "gap_duration_min": 339.53, "wasted_distance_km": 6.585, "prev_trip": "DA240607003601", "next_trip": "DA240607030111", "prev_O": [114.17302, 22.2774003], "next_O": [114.23366, 22.26308]}, "geometry": {"type": "LineString", "coordinates": [[114.170931, 22.275496], [114.233525, 22.263175]]}}, {"type": "Feature", "properties": {"id": "ghost_TE7832_20240607130242", "plate_no": "TE7832", "gap_start_time": "2024-06-07T13:02:42", "gap_end_time": "2024-06-07T14:30:14", "gap_duration_min": 87.53, "wasted_distance_km": 9.903, "prev_trip": "DA240607029502", "next_trip": "DA240607025511", "prev_O": [114.1561509, 22.2820206], "next_O": [114.2362653, 22.2695993]}, "geometry": {"type": "LineString", "coordinates": [[114.14592, 22.243735], [114.237355, 22.271506]]}}, {"type": "Feature", "properties": {"id": "ghost_TE7832_20240607144848", "plate_no": "TE7832", "gap_start_time": "2024-06-07T14:48:48", "gap_end_time": "2024-06-07T18:00:10", "gap_duration_min": 191.37, "wasted_distance_km": 9.593, "prev_trip": "DA240607025511", "next_trip": "DA240607013611", "prev_O": [114.2362653, 22.2695993], "next_O": [114.2347311, 22.2671077]}, "geometry": {"type": "LineString", "coordinates": [[114.144516, 22.288546], [114.23472, 22.266755]]}}, {"type": "Feature", "properties": {"id": "ghost_TF2479_20240607065045", "plate_no": "TF2479", "gap_start_time": "2024-06-07T06:50:45", "gap_end_time": "2024-06-07T08:00:26", "gap_duration_min": 69.68, "wasted_distance_km": 10.943, "prev_trip": "DA240607022711", "next_trip": "DA240607013411", "prev_O": [114.179555, 22.276041], "next_O": [114.2365271, 22.2631632]}, "geometry": {"type": "LineString", "coordinates": [[114.130445, 22.270748], [114.236486, 22.263358]]}}, {"type": "Feature", "properties": {"id": "ghost_TF6298_20240607124154", "plate_no": "TF6298", "gap_start_time": "2024-06-07T12:41:54", "gap_end_time": "2024-06-07T15:45:36", "gap_duration_min": 183.7, "wasted_distance_km": 4.071, "prev_trip": "DA240607046811", "next_trip": "DA240607004611", "prev_O": [114.1326252, 22.2583569], "next_O": [114.173637, 22.2733649]}, "geometry": {"type": "LineString", "coordinates": [[114.138163, 22.287871], [114.174765, 22.273965]]}}, {"type": "Feature", "properties": {"id": "ghost_TV8531_20240607123143", "plate_no": "TV8531", "gap_start_time": "2024-06-07T12:31:43", "gap_end_time": "2024-06-07T14:15:08", "gap_duration_min": 103.42, "wasted_distance_km": 4.519, "prev_trip": "DA240607050302", "next_trip": "DA240607048011", "prev_O": [114.1715033, 22.2784972], "next_O": [114.1278073, 22.3674017]}, "geometry": {"type": "LineString", "coordinates": [[114.1579, 22.33632], [114.129108, 22.367023]]}}, {"type": "Feature", "properties": {"id": "ghost_TW6581_20240607123120", "plate_no": "TW6581", "gap_start_time": "2024-06-07T12:31:20", "gap_end_time": "2024-06-07T14:45:08", "gap_duration_min": 133.8, "wasted_distance_km": 11.482, "prev_trip": "DA240607022501", "next_trip": "DA240607031701", "prev_O": [114.192957, 22.332628], "next_O": [114.1123813, 22.3766389]}, "geometry": {"type": "LineString", "coordinates": [[114.208703, 22.325136], [114.112186, 22.377043]]}}, {"type": "Feature", "properties": {"id": "ghost_TW8217_20240607093546", "plate_no": "TW8217", "gap_start_time": "2024-06-07T09:35:46", "gap_end_time": "2024-06-07T10:26:46", "gap_duration_min": 51.0, "wasted_distance_km": 6.199, "prev_trip": "DA240607008711", "next_trip": "DA240607010601", "prev_O": [114.2092476, 22.3320719], "next_O": [114.1793735, 22.3686088]}, "geometry": {"type": "LineString", "coordinates": [[114.21574, 22.324101], [114.180313, 22.369208]]}}, {"type": "Feature", "properties": {"id": "ghost_TW8217_20240607105047", "plate_no": "TW8217", "gap_start_time": "2024-06-07T10:50:47", "gap_end_time": "2024-06-07T15:10:03", "gap_duration_min": 259.27, "wasted_distance_km": 7.435, "prev_trip": "DA240607010601", "next_trip": "DA240607008902", "prev_O": [114.1793735, 22.3686088], "next_O": [114.1987643, 22.3804685]}, "geometry": {"type": "LineString", "coordinates": [[114.17149, 22.318176], [114.198631, 22.38015]]}}, {"type": "Feature", "properties": {"id": "ghost_TW8217_20240607155503", "plate_no": "TW8217", "gap_start_time": "2024-06-07T15:55:03", "gap_end_time": "2024-06-07T16:45:03", "gap_duration_min": 50.0, "wasted_distance_km": 1.215, "prev_trip": "DA240607008902", "next_trip": "DA240607018102", "prev_O": [114.1987643, 22.3804685], "next_O": [114.1700846, 22.3760056]}, "geometry": {"type": "LineString", "coordinates": [[114.178476, 22.36877], [114.169731, 22.376113]]}}, {"type": "Feature", "properties": {"id": "ghost_TW8217_20240607171803", "plate_no": "TW8217", "gap_start_time": "2024-06-07T17:18:03", "gap_end_time": "2024-06-07T19:08:34", "gap_duration_min": 110.52, "wasted_distance_km": 18.719, "prev_trip": "DA240607018102", "next_trip": "DA240607034801", "prev_O": [114.1700846, 22.3760056], "next_O": [114.1715708, 22.3354862]}, "geometry": {"type": "LineString", "coordinates": [[114.134131, 22.50029], [114.172146, 22.335655]]}}, {"type": "Feature", "properties": {"id": "ghost_TX9739_20240607123624", "plate_no": "TX9739", "gap_start_time": "2024-06-07T12:36:24", "gap_end_time": "2024-06-07T15:00:29", "gap_duration_min": 144.08, "wasted_distance_km": 8.129, "prev_trip": "DA240607007811", "next_trip": "DA240607009002", "prev_O": [114.2503388, 22.4318668], "next_O": [114.1987643, 22.3804685]}, "geometry": {"type": "LineString", "coordinates": [[114.184468, 22.30827], [114.198726, 22.380173]]}}, {"type": "Feature", "properties": {"id": "ghost_TY3250_20240607085808", "plate_no": "TY3250", "gap_start_time": "2024-06-07T08:58:08", "gap_end_time": "2024-06-07T09:30:24", "gap_duration_min": 32.27, "wasted_distance_km": 0.992, "prev_trip": "DA240607003001", "next_trip": "DA240607019201", "prev_O": [114.268715, 22.2962922], "next_O": [114.2066781, 22.3301172]}, "geometry": {"type": "LineString", "coordinates": [[114.213186, 22.335775], [114.205581, 22.330281]]}}, {"type": "Feature", "properties": {"id": "ghost_TY3250_20240607095124", "plate_no": "TY3250", "gap_start_time": "2024-06-07T09:51:24", "gap_end_time": "2024-06-07T11:30:10", "gap_duration_min": 98.77, "wasted_distance_km": 0.363, "prev_trip": "DA240607019201", "next_trip": "DA240607020202", "prev_O": [114.2066781, 22.3301172], "next_O": [114.1717909, 22.3154728]}, "geometry": {"type": "LineString", "coordinates": [[114.171896, 22.31975], [114.171768, 22.31649]]}}, {"type": "Feature", "properties": {"id": "ghost_TY3864_20240607095658", "plate_no": "TY3864", "gap_start_time": "2024-06-07T09:56:58", "gap_end_time": "2024-06-07T13:27:03", "gap_duration_min": 210.08, "wasted_distance_km": 8.933, "prev_trip": "DA240607036011", "next_trip": "DA240607006311", "prev_O": [114.2640324, 22.3147268], "next_O": [114.2066352, 22.3816909]}, "geometry": {"type": "LineString", "coordinates": [[114.174956, 22.30686], [114.206808, 22.381601]]}}, {"type": "Feature", "properties": {"id": "ghost_UL3556_20240607081311", "plate_no": "UL3556", "gap_start_time": "2024-06-07T08:13:11", "gap_end_time": "2024-06-07T12:07:28", "gap_duration_min": 234.28, "wasted_distance_km": 6.276, "prev_trip": "DA240607004511", "next_trip": "DA240607018711", "prev_O": [114.173386, 22.277853], "next_O": [114.2362653, 22.2695993]}, "geometry": {"type": "LineString", "coordinates": [[114.173291, 22.27774], [114.233511, 22.268815]]}}, {"type": "Feature", "properties": {"id": "ghost_UL7804_20240607093014", "plate_no": "UL7804", "gap_start_time": "2024-06-07T09:30:14", "gap_end_time": "2024-06-07T12:15:17", "gap_duration_min": 165.05, "wasted_distance_km": 4.705, "prev_trip": "DA240607007011", "next_trip": "DA240607047911", "prev_O": [114.1472078, 22.332315], "next_O": [114.1832816, 22.3250389]}, "geometry": {"type": "LineString", "coordinates": [[114.228241, 22.311521], [114.184763, 22.324668]]}}, {"type": "Feature", "properties": {"id": "ghost_UM4207_20240607102422", "plate_no": "UM4207", "gap_start_time": "2024-06-07T10:24:22", "gap_end_time": "2024-06-07T13:25:04", "gap_duration_min": 180.7, "wasted_distance_km": 8.732, "prev_trip": "DA240607009201", "next_trip": "DA240607006611", "prev_O": [114.190706, 22.342478], "next_O": [114.2066352, 22.3816909]}, "geometry": {"type": "LineString", "coordinates": [[114.12329, 22.369033], [114.207076, 22.381848], [114.207076, 22.381848]]}}, {"type": "Feature", "properties": {"id": "ghost_UN9553_20240607123053", "plate_no": "UN9553", "gap_start_time": "2024-06-07T12:30:53", "gap_end_time": "2024-06-07T17:00:02", "gap_duration_min": 269.15, "wasted_distance_km": 8.32, "prev_trip": "DA240607032101", "next_trip": "DA240607007511", "prev_O": [114.1675619, 22.3064441], "next_O": [114.2303424, 22.3079333]}, "geometry": {"type": "LineString", "coordinates": [[114.204398, 22.378806], [114.23057, 22.308005]]}}, {"type": "Feature", "properties": {"id": "ghost_UP6949_20240607103545", "plate_no": "UP6949", "gap_start_time": "2024-06-07T10:35:45", "gap_end_time": "2024-06-07T14:00:14", "gap_duration_min": 204.48, "wasted_distance_km": 16.538, "prev_trip": "DA240607046101", "next_trip": "DA240607021302", "prev_O": [114.2297237, 22.4171908], "next_O": [114.1676132, 22.3073911]}, "geometry": {"type": "LineString", "coordinates": [[114.1725, 22.455938], [114.16721, 22.307286]]}}, {"type": "Feature", "properties": {"id": "ghost_UP9011_20240607113637", "plate_no": "UP9011", "gap_start_time": "2024-06-07T11:36:37", "gap_end_time": "2024-06-07T13:30:01", "gap_duration_min": 113.4, "wasted_distance_km": 1.844, "prev_trip": "DA240607041711", "next_trip": "DA240607034411", "prev_O": [114.21284, 22.335789], "next_O": [114.2303424, 22.3079333]}, "geometry": {"type": "LineString", "coordinates": [[114.226036, 22.324151], [114.230581, 22.308105]]}}, {"type": "Feature", "properties": {"id": "ghost_UR468_20240607145839", "plate_no": "UR468", "gap_start_time": "2024-06-07T14:58:39", "gap_end_time": "2024-06-07T16:16:49", "gap_duration_min": 78.17, "wasted_distance_km": 1.201, "prev_trip": "DA240607000402", "next_trip": "DA240607000502", "prev_O": [114.1283333, 22.3458333], "next_O": [114.1283333, 22.3458333]}, "geometry": {"type": "LineString", "coordinates": [[114.131471, 22.354495], [114.130741, 22.343716]]}}, {"type": "Feature", "properties": {"id": "ghost_VA7459_20240607143529", "plate_no": "VA7459", "gap_start_time": "2024-06-07T14:35:29", "gap_end_time": "2024-06-07T15:40:29", "gap_duration_min": 65.0, "wasted_distance_km": 3.251, "prev_trip": "DA240607040301", "next_trip": "DA240607003202", "prev_O": [114.2032682, 22.3293706], "next_O": [114.212997, 22.3358478]}, "geometry": {"type": "LineString", "coordinates": [[114.184373, 22.324321], [114.213561, 22.335541]]}}, {"type": "Feature", "properties": {"id": "ghost_VD4748_20240607103532", "plate_no": "VD4748", "gap_start_time": "2024-06-07T10:35:32", "gap_end_time": "2024-06-07T14:05:23", "gap_duration_min": 209.85, "wasted_distance_km": 4.787, "prev_trip": "DA240607029011", "next_trip": "DA240607040801", "prev_O": [114.1638596, 22.2467986], "next_O": [114.1714779, 22.310214]}, "geometry": {"type": "LineString", "coordinates": [[114.216093, 22.32149], [114.171246, 22.310003]]}}, {"type": "Feature", "properties": {"id": "ghost_VE7344_20240607152135", "plate_no": "VE7344", "gap_start_time": "2024-06-07T15:21:35", "gap_end_time": "2024-06-07T18:55:00", "gap_duration_min": 213.42, "wasted_distance_km": 4.463, "prev_trip": "DA240607033101", "next_trip": "DA240607033501", "prev_O": [114.2149902, 22.3254325], "next_O": [114.1745477, 22.3669267]}, "geometry": {"type": "LineString", "coordinates": [[114.172936, 22.326908], [114.175321, 22.366981]]}}, {"type": "Feature", "properties": {"id": "ghost_VE8500_20240607102639", "plate_no": "VE8500", "gap_start_time": "2024-06-07T10:26:39", "gap_end_time": "2024-06-07T14:40:04", "gap_duration_min": 253.42, "wasted_distance_km": 2.073, "prev_trip": "DA240607027701", "next_trip": "DA240607001302", "prev_O": [114.2094681, 22.3284564], "next_O": [114.1831334, 22.3223645]}, "geometry": {"type": "LineString", "coordinates": [[114.162881, 22.322223], [114.183026, 22.322568]]}}, {"type": "Feature", "properties": {"id": "ghost_VV6972_20240607084246", "plate_no": "VV6972", "gap_start_time": "2024-06-07T08:42:46", "gap_end_time": "2024-06-07T09:20:13", "gap_duration_min": 37.45, "wasted_distance_km": 3.787, "prev_trip": "DA240607047811", "next_trip": "DA240607029611", "prev_O": [114.2162716, 22.325616], "next_O": [114.2216835, 22.3196755]}, "geometry": {"type": "LineString", "coordinates": [[114.186473, 22.32541], [114.222638, 22.319016]]}}, {"type": "Feature", "properties": {"id": "ghost_VV6972_20240607101013", "plate_no": "VV6972", "gap_start_time": "2024-06-07T10:10:13", "gap_end_time": "2024-06-07T12:40:32", "gap_duration_min": 150.32, "wasted_distance_km": 5.213, "prev_trip": "DA240607029611", "next_trip": "DA240607018401", "prev_O": [114.2216835, 22.3196755], "next_O": [114.2287366, 22.3118568]}, "geometry": {"type": "LineString", "coordinates": [[114.23436, 22.264721], [114.22897, 22.311333]]}}, {"type": "Feature", "properties": {"id": "ghost_VV6972_20240607125532", "plate_no": "VV6972", "gap_start_time": "2024-06-07T12:55:32", "gap_end_time": "2024-06-07T14:40:24", "gap_duration_min": 104.87, "wasted_distance_km": 1.613, "prev_trip": "DA240607018401", "next_trip": "DA240607001011", "prev_O": [114.2287366, 22.3118568], "next_O": [114.1831334, 22.3223645]}, "geometry": {"type": "LineString", "coordinates": [[114.176236, 22.309366], [114.182866, 22.322515]]}}, {"type": "Feature", "properties": {"id": "ghost_VW4627_20240607104142", "plate_no": "VW4627", "gap_start_time": "2024-06-07T10:41:42", "gap_end_time": "2024-06-07T12:20:21", "gap_duration_min": 98.65, "wasted_distance_km": 24.068, "prev_trip": "DA240607005611", "next_trip": "DA240607009711", "prev_O": [114.1408792, 22.499573], "next_O": [113.9736862, 22.3822517]}, "geometry": {"type": "LineString", "coordinates": [[114.207911, 22.380973], [113.97383, 22.382433]]}}, {"type": "Feature", "properties": {"id": "ghost_VW7058_20240607110701", "plate_no": "VW7058", "gap_start_time": "2024-06-07T11:07:01", "gap_end_time": "2024-06-07T13:30:01", "gap_duration_min": 143.0, "wasted_distance_km": 0.187, "prev_trip": "DA240607009101", "next_trip": "DA240607009102", "prev_O": [114.0080559, 22.4534463], "next_O": [114.1253327, 22.369354]}, "geometry": {"type": "LineString", "coordinates": [[114.12277, 22.369171], [114.124301, 22.370081]]}}, {"type": "Feature", "properties": {"id": "ghost_VX2887_20240607134716", "plate_no": "VX2887", "gap_start_time": "2024-06-07T13:47:16", "gap_end_time": "2024-06-07T16:00:22", "gap_duration_min": 133.1, "wasted_distance_km": 4.999, "prev_trip": "DA240607006411", "next_trip": "DA240607040802", "prev_O": [114.2066352, 22.3816909], "next_O": [114.1743747, 22.3091816]}, "geometry": {"type": "LineString", "coordinates": [[114.223561, 22.313561], [114.175165, 22.309496]]}}, {"type": "Feature", "properties": {"id": "ghost_VY5967_20240607081356", "plate_no": "VY5967", "gap_start_time": "2024-06-07T08:13:56", "gap_end_time": "2024-06-07T09:19:30", "gap_duration_min": 65.57, "wasted_distance_km": 0.762, "prev_trip": "DA240607017501", "next_trip": "DA240607002011", "prev_O": [114.1414736, 22.3728484], "next_O": [114.1236864, 22.362922]}, "geometry": {"type": "LineString", "coordinates": [[114.12248, 22.368606], [114.12821, 22.364258]]}}, {"type": "Feature", "properties": {"id": "ghost_VY5967_20240607093230", "plate_no": "VY5967", "gap_start_time": "2024-06-07T09:32:30", "gap_end_time": "2024-06-07T12:00:24", "gap_duration_min": 147.9, "wasted_distance_km": 7.214, "prev_trip": "DA240607002011", "next_trip": "DA240607002301", "prev_O": [114.1236864, 22.362922], "next_O": [114.077179, 22.428007]}, "geometry": {"type": "LineString", "coordinates": [[114.121181, 22.374731], [114.077573, 22.425565]]}}, {"type": "Feature", "properties": {"id": "ghost_VY5967_20240607134649", "plate_no": "VY5967", "gap_start_time": "2024-06-07T13:46:49", "gap_end_time": "2024-06-07T16:00:16", "gap_duration_min": 133.45, "wasted_distance_km": 0.329, "prev_trip": "DA240607002301", "next_trip": "DA240607002302", "prev_O": [114.077179, 22.428007], "next_O": [113.9649146, 22.3748696]}, "geometry": {"type": "LineString", "coordinates": [[113.96678, 22.377825], [113.96492, 22.375416]]}}, {"type": "Feature", "properties": {"id": "ghost_WN8723_20240607105009", "plate_no": "WN8723", "gap_start_time": "2024-06-07T10:50:09", "gap_end_time": "2024-06-07T12:15:27", "gap_duration_min": 85.3, "wasted_distance_km": 13.735, "prev_trip": "DA240607016902", "next_trip": "DA240607032401", "prev_O": [114.2286722, 22.3119194], "next_O": [114.1307673, 22.3630464]}, "geometry": {"type": "LineString", "coordinates": [[114.255993, 22.32001], [114.130906, 22.363283]]}}, {"type": "Feature", "properties": {"id": "ghost_WN8723_20240607123227", "plate_no": "WN8723", "gap_start_time": "2024-06-07T12:32:27", "gap_end_time": "2024-06-07T14:50:19", "gap_duration_min": 137.87, "wasted_distance_km": 7.358, "prev_trip": "DA240607032401", "next_trip": "DA240607042311", "prev_O": [114.1307673, 22.3630464], "next_O": [114.1728051, 22.2742239]}, "geometry": {"type": "LineString", "coordinates": [[114.177608, 22.340115], [114.172365, 22.27412]]}}, {"type": "Feature", "properties": {"id": "ghost_WN8723_20240607151739", "plate_no": "WN8723", "gap_start_time": "2024-06-07T15:17:39", "gap_end_time": "2024-06-07T17:00:00", "gap_duration_min": 102.35, "wasted_distance_km": 5.5, "prev_trip": "DA240607042311", "next_trip": "DA240607020902", "prev_O": [114.1728051, 22.2742239], "next_O": [114.1832816, 22.3250389]}, "geometry": {"type": "LineString", "coordinates": [[114.13326, 22.342723], [114.183093, 22.324795]]}}, {"type": "Feature", "properties": {"id": "ghost_WN9331_20240607104203", "plate_no": "WN9331", "gap_start_time": "2024-06-07T10:42:03", "gap_end_time": "2024-06-07T12:45:02", "gap_duration_min": 122.98, "wasted_distance_km": 6.378, "prev_trip": "DA240607023111", "next_trip": "DA240607038711", "prev_O": [114.1576372, 22.2419349], "next_O": [114.23366, 22.26308]}, "geometry": {"type": "LineString", "coordinates": [[114.172888, 22.251593], [114.233618, 22.263055]]}}, {"type": "Feature", "properties": {"id": "ghost_WN9331_20240607131601", "plate_no": "WN9331", "gap_start_time": "2024-06-07T13:16:01", "gap_end_time": "2024-06-07T14:51:01", "gap_duration_min": 95.0, "wasted_distance_km": 3.388, "prev_trip": "DA240607038711", "next_trip": "DA240607001511", "prev_O": [114.23366, 22.26308], "next_O": [114.1734816, 22.2725317]}, "geometry": {"type": "LineString", "coordinates": [[114.164216, 22.243056], [114.17329, 22.272345]]}}, {"type": "Feature", "properties": {"id": "ghost_WN9331_20240607151803", "plate_no": "WN9331", "gap_start_time": "2024-06-07T15:18:03", "gap_end_time": "2024-06-07T16:35:03", "gap_duration_min": 77.0, "wasted_distance_km": 0.729, "prev_trip": "DA240607001511", "next_trip": "DA240607001602", "prev_O": [114.1734816, 22.2725317], "next_O": [114.1734816, 22.2725317]}, "geometry": {"type": "LineString", "coordinates": [[114.179466, 22.277986], [114.177693, 22.271638]]}}, {"type": "Feature", "properties": {"id": "ghost_WP1681_20240607103359", "plate_no": "WP1681", "gap_start_time": "2024-06-07T10:33:59", "gap_end_time": "2024-06-07T14:00:19", "gap_duration_min": 206.33, "wasted_distance_km": 5.673, "prev_trip": "DA240607030411", "next_trip": "DA240607010602", "prev_O": [114.1766224, 22.3203676], "next_O": [114.1717909, 22.3154728]}, "geometry": {"type": "LineString", "coordinates": [[114.225818, 22.3242], [114.171455, 22.315635]]}}, {"type": "Feature", "properties": {"id": "ghost_WP2513_20240607160003", "plate_no": "WP2513", "gap_start_time": "2024-06-07T16:00:03", "gap_end_time": "2024-06-07T17:15:03", "gap_duration_min": 75.0, "wasted_distance_km": 1.675, "prev_trip": "DA240607017502", "next_trip": "DA240607002111", "prev_O": [114.1219651, 22.3714765], "next_O": [114.1228036, 22.3745621]}, "geometry": {"type": "LineString", "coordinates": [[114.13856, 22.371746], [114.12278, 22.375485]]}}, {"type": "Feature", "properties": {"id": "ghost_WP3895_20240607101543", "plate_no": "WP3895", "gap_start_time": "2024-06-07T10:15:43", "gap_end_time": "2024-06-07T12:41:17", "gap_duration_min": 145.57, "wasted_distance_km": 2.846, "prev_trip": "DA240607046601", "next_trip": "DA240607036111", "prev_O": [113.998435, 22.456333], "next_O": [114.1744025, 22.3092602]}, "geometry": {"type": "LineString", "coordinates": [[114.170331, 22.331711], [114.176911, 22.306848]]}}, {"type": "Feature", "properties": {"id": "ghost_WP3895_20240607125645", "plate_no": "WP3895", "gap_start_time": "2024-06-07T12:56:45", "gap_end_time": "2024-06-07T17:00:39", "gap_duration_min": 243.9, "wasted_distance_km": 4.038, "prev_trip": "DA240607036111", "next_trip": "DA240607021002", "prev_O": [114.1744025, 22.3092602], "next_O": [114.2270881, 22.3229689]}, "geometry": {"type": "LineString", "coordinates": [[114.266, 22.315071], [114.22764, 22.322803]]}}, {"type": "Feature", "properties": {"id": "ghost_WP4172_20240607155140", "plate_no": "WP4172", "gap_start_time": "2024-06-07T15:51:40", "gap_end_time": "2024-06-07T16:30:33", "gap_duration_min": 38.88, "wasted_distance_km": 2.83, "prev_trip": "DA240607008402", "next_trip": "DA240607045902", "prev_O": [114.2253505, 22.2821867], "next_O": [114.2302764, 22.3081963]}, "geometry": {"type": "LineString", "coordinates": [[114.226316, 22.280595], [114.228521, 22.305968]]}}, {"type": "Feature", "properties": {"id": "ghost_XE1372_20240607141943", "plate_no": "XE1372", "gap_start_time": "2024-06-07T14:19:43", "gap_end_time": "2024-06-07T14:50:09", "gap_duration_min": 30.43, "wasted_distance_km": 3.819, "prev_trip": "DA240607029711", "next_trip": "DA240607008011", "prev_O": [114.23366, 22.26308], "next_O": [114.192478, 22.338538]}, "geometry": {"type": "LineString", "coordinates": [[114.223018, 22.317038], [114.194103, 22.338588]]}}, {"type": "Feature", "properties": {"id": "ghost_XE612_20240607143745", "plate_no": "XE612", "gap_start_time": "2024-06-07T14:37:45", "gap_end_time": "2024-06-07T15:40:16", "gap_duration_min": 62.52, "wasted_distance_km": 4.326, "prev_trip": "DA240607036611", "next_trip": "DA240607003102", "prev_O": [114.23, 22.322961], "next_O": [114.212997, 22.3358478]}, "geometry": {"type": "LineString", "coordinates": [[114.238306, 22.304126], [114.21363, 22.335633]]}}, {"type": "Feature", "properties": {"id": "ghost_XE7053_20240607082329", "plate_no": "XE7053", "gap_start_time": "2024-06-07T08:23:29", "gap_end_time": "2024-06-07T09:30:57", "gap_duration_min": 67.47, "wasted_distance_km": 4.961, "prev_trip": "DA240607003101", "next_trip": "DA240607042811", "prev_O": [114.1890105, 22.3079943], "next_O": [114.2559063, 22.3149238]}, "geometry": {"type": "LineString", "coordinates": [[114.213165, 22.3356], [114.255986, 22.315073]]}}, {"type": "Feature", "properties": {"id": "ghost_XE7595_20240607130629", "plate_no": "XE7595", "gap_start_time": "2024-06-07T13:06:29", "gap_end_time": "2024-06-07T14:50:24", "gap_duration_min": 103.92, "wasted_distance_km": 4.429, "prev_trip": "DA240607009411", "next_trip": "DA240607041311", "prev_O": [114.2286722, 22.3119194], "next_O": [114.228323, 22.3069112]}, "geometry": {"type": "LineString", "coordinates": [[114.266833, 22.316645], [114.225141, 22.306715]]}}, {"type": "Feature", "properties": {"id": "ghost_XE7595_20240607145854", "plate_no": "XE7595", "gap_start_time": "2024-06-07T14:58:54", "gap_end_time": "2024-06-07T17:00:10", "gap_duration_min": 121.27, "wasted_distance_km": 0.91, "prev_trip": "DA240607041311", "next_trip": "DA240607007311", "prev_O": [114.228323, 22.3069112], "next_O": [114.2303424, 22.3079333]}, "geometry": {"type": "LineString", "coordinates": [[114.239426, 22.307746], [114.230585, 22.30796]]}}, {"type": "Feature", "properties": {"id": "ghost_XE782_20240607110938", "plate_no": "XE782", "gap_start_time": "2024-06-07T11:09:38", "gap_end_time": "2024-06-07T14:40:11", "gap_duration_min": 210.55, "wasted_distance_km": 2.379, "prev_trip": "DA240607041101", "next_trip": "DA240607001211", "prev_O": [114.2284154, 22.314391], "next_O": [114.1831334, 22.3223645]}, "geometry": {"type": "LineString", "coordinates": [[114.205755, 22.325228], [114.182823, 22.322446]]}}, {"type": "Feature", "properties": {"id": "ghost_XE8413_20240607085251", "plate_no": "XE8413", "gap_start_time": "2024-06-07T08:52:51", "gap_end_time": "2024-06-07T12:51:06", "gap_duration_min": 238.25, "wasted_distance_km": 13.499, "prev_trip": "DA240607016101", "next_trip": "DA240607046602", "prev_O": [114.1704097, 22.4442723], "next_O": [114.1716857, 22.3301776]}, "geometry": {"type": "LineString", "coordinates": [[114.172333, 22.453385], [114.167591, 22.332061]]}}, {"type": "Feature", "properties": {"id": "ghost_XM6122_20240607114537", "plate_no": "XM6122", "gap_start_time": "2024-06-07T11:45:37", "gap_end_time": "2024-06-07T12:30:04", "gap_duration_min": 44.45, "wasted_distance_km": 1.12, "prev_trip": "DA240607024511", "next_trip": "DA240607027702", "prev_O": [114.18802, 22.3199971], "next_O": [114.1628717, 22.3221939]}, "geometry": {"type": "LineString", "coordinates": [[114.161406, 22.332246], [114.162626, 22.322241]]}}, {"type": "Feature", "properties": {"id": "ghost_XN5447_20240607101658", "plate_no": "XN5447", "gap_start_time": "2024-06-07T10:16:58", "gap_end_time": "2024-06-07T13:30:19", "gap_duration_min": 193.35, "wasted_distance_km": 9.225, "prev_trip": "DA240607035911", "next_trip": "DA240607049801", "prev_O": [114.1025148, 22.3730158], "next_O": [114.2506126, 22.3076559]}, "geometry": {"type": "LineString", "coordinates": [[114.204458, 22.37882], [114.250163, 22.30744]]}}, {"type": "Feature", "properties": {"id": "ghost_XN6179_20240607130630", "plate_no": "XN6179", "gap_start_time": "2024-06-07T13:06:30", "gap_end_time": "2024-06-07T16:22:07", "gap_duration_min": 195.62, "wasted_distance_km": 5.054, "prev_trip": "DA240607021901", "next_trip": "DA240607042002", "prev_O": [114.2414181, 22.2974304], "next_O": [114.2287139, 22.3081321]}, "geometry": {"type": "LineString", "coordinates": [[114.184446, 22.325361], [114.230448, 22.309386]]}}, {"type": "Feature", "properties": {"id": "ghost_XN7430_20240607122239", "plate_no": "XN7430", "gap_start_time": "2024-06-07T12:22:39", "gap_end_time": "2024-06-07T14:00:05", "gap_duration_min": 97.43, "wasted_distance_km": 9.65, "prev_trip": "DA240607040102", "next_trip": "DA240607017301", "prev_O": [114.228737, 22.311857], "next_O": [114.2297222, 22.4252778]}, "geometry": {"type": "LineString", "coordinates": [[114.210021, 22.3407], [114.229955, 22.425508]]}}, {"type": "Feature", "properties": {"id": "ghost_XN7430_20240607141935", "plate_no": "XN7430", "gap_start_time": "2024-06-07T14:19:35", "gap_end_time": "2024-06-07T15:15:17", "gap_duration_min": 55.7, "wasted_distance_km": 3.769, "prev_trip": "DA240607017301", "next_trip": "DA240607008611", "prev_O": [114.2297222, 22.4252778], "next_O": [114.222657, 22.3205314]}, "geometry": {"type": "LineString", "coordinates": [[114.186025, 22.325341], [114.22221, 22.32002]]}}, {"type": "Feature", "properties": {"id": "ghost_XV4803_20240607151402", "plate_no": "XV4803", "gap_start_time": "2024-06-07T15:14:02", "gap_end_time": "2024-06-07T16:30:25", "gap_duration_min": 76.38, "wasted_distance_km": 0.247, "prev_trip": "DA240607003701", "next_trip": "DA240607003702", "prev_O": [114.1734921, 22.2726294], "next_O": [114.1734921, 22.2726294]}, "geometry": {"type": "LineString", "coordinates": [[114.175198, 22.274161], [114.173143, 22.273021]]}}, {"type": "Feature", "properties": {"id": "ghost_YK3534_20240607102126", "plate_no": "YK3534", "gap_start_time": "2024-06-07T10:21:26", "gap_end_time": "2024-06-07T12:50:16", "gap_duration_min": 148.83, "wasted_distance_km": 6.046, "prev_trip": "DA240607041901", "next_trip": "DA240607044111", "prev_O": [114.2369601, 22.4226924], "next_O": [114.1245247, 22.2709886]}, "geometry": {"type": "LineString", "coordinates": [[114.182866, 22.270161], [114.124128, 22.271373]]}}, {"type": "Feature", "properties": {"id": "ghost_YK4683_20240607064959", "plate_no": "YK4683", "gap_start_time": "2024-06-07T06:49:59", "gap_end_time": "2024-06-07T13:45:02", "gap_duration_min": 415.05, "wasted_distance_km": 1.843, "prev_trip": "DA240607021601", "next_trip": "DA240607026301", "prev_O": [114.1334613, 22.4948376], "next_O": [114.1828764, 22.3820357]}, "geometry": {"type": "LineString", "coordinates": [[114.198443, 22.389206], [114.182298, 22.382006]]}}, {"type": "Feature", "properties": {"id": "ghost_YK4725_20240607105501", "plate_no": "YK4725", "gap_start_time": "2024-06-07T10:55:01", "gap_end_time": "2024-06-07T13:41:01", "gap_duration_min": 166.0, "wasted_distance_km": 1.97, "prev_trip": "DA240607012301", "next_trip": "DA240607040901", "prev_O": [114.1565225, 22.3342843], "next_O": [114.1932715, 22.2902196]}, "geometry": {"type": "LineString", "coordinates": [[114.1738, 22.281683], [114.191011, 22.289455]]}}, {"type": "Feature", "properties": {"id": "ghost_YK4725_20240607135431", "plate_no": "YK4725", "gap_start_time": "2024-06-07T13:54:31", "gap_end_time": "2024-06-07T14:23:32", "gap_duration_min": 29.02, "wasted_distance_km": 6.034, "prev_trip": "DA240607040901", "next_trip": "DA240607034602", "prev_O": [114.1932715, 22.2902196], "next_O": [114.1882145, 22.2784689]}, "geometry": {"type": "LineString", "coordinates": [[114.130321, 22.270916], [114.188466, 22.27799]]}}, {"type": "Feature", "properties": {"id": "ghost_YK5072_20240607103656", "plate_no": "YK5072", "gap_start_time": "2024-06-07T10:36:56", "gap_end_time": "2024-06-07T11:50:09", "gap_duration_min": 73.22, "wasted_distance_km": 8.163, "prev_trip": "DA240607005911", "next_trip": "DA240607026211", "prev_O": [113.9534381, 22.2968977], "next_O": [114.129029, 22.3585969]}, "geometry": {"type": "LineString", "coordinates": [[114.203955, 22.378516], [114.126613, 22.361953], [114.126613, 22.361953]]}}, {"type": "Feature", "properties": {"id": "ghost_YK5072_20240607122510", "plate_no": "YK5072", "gap_start_time": "2024-06-07T12:25:10", "gap_end_time": "2024-06-07T12:45:10", "gap_duration_min": 20.0, "wasted_distance_km": 0.508, "prev_trip": "DA240607026211", "next_trip": "DA240607018501", "prev_O": [114.129029, 22.3585969], "next_O": [114.2620756, 22.3062608]}, "geometry": {"type": "LineString", "coordinates": [[114.257981, 22.310553], [114.261383, 22.307246]]}}, {"type": "Feature", "properties": {"id": "ghost_YK5072_20240607132340", "plate_no": "YK5072", "gap_start_time": "2024-06-07T13:23:40", "gap_end_time": "2024-06-07T15:15:20", "gap_duration_min": 111.67, "wasted_distance_km": 0.288, "prev_trip": "DA240607018501", "next_trip": "DA240607018502", "prev_O": [114.2620756, 22.3062608], "next_O": [114.2286568, 22.3119002]}, "geometry": {"type": "LineString", "coordinates": [[114.229111, 22.309181], [114.228828, 22.311761]]}}, {"type": "Feature", "properties": {"id": "ghost_YK5072_20240607153250", "plate_no": "YK5072", "gap_start_time": "2024-06-07T15:32:50", "gap_end_time": "2024-06-07T16:45:01", "gap_duration_min": 72.18, "wasted_distance_km": 3.841, "prev_trip": "DA240607018502", "next_trip": "DA240607025802", "prev_O": [114.2286568, 22.3119002], "next_O": [114.2303424, 22.3079333]}, "geometry": {"type": "LineString", "coordinates": [[114.266848, 22.316676], [114.230696, 22.308028]]}}, {"type": "Feature", "properties": {"id": "ghost_YK5072_20240607171831", "plate_no": "YK5072", "gap_start_time": "2024-06-07T17:18:31", "gap_end_time": "2024-06-07T18:02:18", "gap_duration_min": 43.78, "wasted_distance_km": 2.246, "prev_trip": "DA240607025802", "next_trip": "DA240607010111", "prev_O": [114.2303424, 22.3079333], "next_O": [114.1304189, 22.3641261]}, "geometry": {"type": "LineString", "coordinates": [[114.110351, 22.372783], [114.13034, 22.364643]]}}, {"type": "Feature", "properties": {"id": "ghost_YK6404_20240607142704", "plate_no": "YK6404", "gap_start_time": "2024-06-07T14:27:04", "gap_end_time": "2024-06-07T15:30:27", "gap_duration_min": 63.38, "wasted_distance_km": 14.728, "prev_trip": "DA240607049702", "next_trip": "DA240607037702", "prev_O": [114.1143954, 22.3631834], "next_O": [114.118883, 22.369655]}, "geometry": {"type": "LineString", "coordinates": [[114.239315, 22.29732], [114.119191, 22.369408]]}}, {"type": "Feature", "properties": {"id": "ghost_YK7398_20240607135002", "plate_no": "YK7398", "gap_start_time": "2024-06-07T13:50:02", "gap_end_time": "2024-06-07T17:15:25", "gap_duration_min": 205.38, "wasted_distance_km": 3.369, "prev_trip": "DA240607011711", "next_trip": "DA240607017802", "prev_O": [114.24422, 22.321446], "next_O": [114.1785988, 22.3167612]}, "geometry": {"type": "LineString", "coordinates": [[114.194541, 22.290568], [114.178461, 22.31696]]}}, {"type": "Feature", "properties": {"id": "ghost_YK7541_20240607123005", "plate_no": "YK7541", "gap_start_time": "2024-06-07T12:30:05", "gap_end_time": "2024-06-07T15:30:16", "gap_duration_min": 180.18, "wasted_distance_km": 8.713, "prev_trip": "DA240607007711", "next_trip": "DA240607047111", "prev_O": [114.2503388, 22.4318668], "next_O": [114.18052, 22.32278]}, "geometry": {"type": "LineString", "coordinates": [[114.11239, 22.371216], [114.179721, 22.323661]]}}, {"type": "Feature", "properties": {"id": "ghost_YK7541_20240607154846", "plate_no": "YK7541", "gap_start_time": "2024-06-07T15:48:46", "gap_end_time": "2024-06-07T17:00:13", "gap_duration_min": 71.45, "wasted_distance_km": 3.37, "prev_trip": "DA240607047111", "next_trip": "DA240607051302", "prev_O": [114.18052, 22.32278], "next_O": [114.1743747, 22.3091816]}, "geometry": {"type": "LineString", "coordinates": [[114.172296, 22.33956], [114.1753, 22.309383]]}}, {"type": "Feature", "properties": {"id": "ghost_YK7541_20240607171843", "plate_no": "YK7541", "gap_start_time": "2024-06-07T17:18:43", "gap_end_time": "2024-06-07T21:30:58", "gap_duration_min": 252.25, "wasted_distance_km": 3.654, "prev_trip": "DA240607051302", "next_trip": "DA240607031402", "prev_O": [114.1743747, 22.3091816], "next_O": [114.1765255, 22.3058462]}, "geometry": {"type": "LineString", "coordinates": [[114.181785, 22.338806], [114.17595, 22.306391]]}}, {"type": "Feature", "properties": {"id": "ghost_YK905_20240607101012", "plate_no": "YK905", "gap_start_time": "2024-06-07T10:10:12", "gap_end_time": "2024-06-07T12:15:05", "gap_duration_min": 124.88, "wasted_distance_km": 2.717, "prev_trip": "DA240607028111", "next_trip": "DA240607040611", "prev_O": [114.178114, 22.314217], "next_O": [114.230334, 22.307947]}, "geometry": {"type": "LineString", "coordinates": [[114.209353, 22.320271], [114.230235, 22.305306]]}}, {"type": "Feature", "properties": {"id": "ghost_YK905_20240607123205", "plate_no": "YK905", "gap_start_time": "2024-06-07T12:32:05", "gap_end_time": "2024-06-07T15:40:11", "gap_duration_min": 188.1, "wasted_distance_km": 4.895, "prev_trip": "DA240607040611", "next_trip": "DA240607003002", "prev_O": [114.230334, 22.307947], "next_O": [114.212997, 22.3358478]}, "geometry": {"type": "LineString", "coordinates": [[114.172195, 22.314303], [114.213883, 22.33553]]}}, {"type": "Feature", "properties": {"id": "ghost_YL1345_20240607103557", "plate_no": "YL1345", "gap_start_time": "2024-06-07T10:35:57", "gap_end_time": "2024-06-07T12:50:14", "gap_duration_min": 134.28, "wasted_distance_km": 7.463, "prev_trip": "DA240607006011", "next_trip": "DA240607011411", "prev_O": [114.2189019, 22.316118], "next_O": [114.168877, 22.3238779]}, "geometry": {"type": "LineString", "coordinates": [[114.207465, 22.380695], [114.168605, 22.32401]]}}, {"type": "Feature", "properties": {"id": "ghost_YL8082_20240607084629", "plate_no": "YL8082", "gap_start_time": "2024-06-07T08:46:29", "gap_end_time": "2024-06-07T09:30:59", "gap_duration_min": 44.5, "wasted_distance_km": 1.834, "prev_trip": "DA240607000801", "next_trip": "DA240607044301", "prev_O": [114.2004947, 22.2912707], "next_O": [114.2004355, 22.3350817]}, "geometry": {"type": "LineString", "coordinates": [[114.183493, 22.323991], [114.196103, 22.33565]]}}, {"type": "Feature", "properties": {"id": "ghost_YZ9431_20240607081914", "plate_no": "YZ9431", "gap_start_time": "2024-06-07T08:19:14", "gap_end_time": "2024-06-07T13:02:14", "gap_duration_min": 283.0, "wasted_distance_km": 11.397, "prev_trip": "DA240607004911", "next_trip": "DA240607013711", "prev_O": [114.192092, 22.281794], "next_O": [114.2338376, 22.2630289]}, "geometry": {"type": "LineString", "coordinates": [[114.12331, 22.272308], [114.233621, 22.263125]]}}, {"type": "Feature", "properties": {"id": "ghost_ZA3406_20240607102929", "plate_no": "ZA3406", "gap_start_time": "2024-06-07T10:29:29", "gap_end_time": "2024-06-07T12:00:15", "gap_duration_min": 90.77, "wasted_distance_km": 0.071, "prev_trip": "DA240607031101", "next_trip": "DA240607031102", "prev_O": [114.2264127, 22.2825843], "next_O": [114.1783695, 22.3030658]}, "geometry": {"type": "LineString", "coordinates": [[114.178711, 22.302668], [114.17804, 22.302521]]}}, {"type": "Feature", "properties": {"id": "ghost_ZA3406_20240607122416", "plate_no": "ZA3406", "gap_start_time": "2024-06-07T12:24:16", "gap_end_time": "2024-06-07T14:30:03", "gap_duration_min": 125.78, "wasted_distance_km": 4.026, "prev_trip": "DA240607031102", "next_trip": "DA240607023302", "prev_O": [114.1783695, 22.3030658], "next_O": [114.1883778, 22.2783442]}, "geometry": {"type": "LineString", "coordinates": [[114.22763, 22.279708], [114.18854, 22.278183]]}}, {"type": "Feature", "properties": {"id": "ghost_ZA3805_20240607101447", "plate_no": "ZA3805", "gap_start_time": "2024-06-07T10:14:47", "gap_end_time": "2024-06-07T14:00:25", "gap_duration_min": 225.63, "wasted_distance_km": 0.055, "prev_trip": "DA240607040701", "next_trip": "DA240607040702", "prev_O": [113.9950466, 22.4591568], "next_O": [114.1159803, 22.3672956]}, "geometry": {"type": "LineString", "coordinates": [[114.115671, 22.367625], [114.11556, 22.36811]]}}, {"type": "Feature", "properties": {"id": "ghost_ZA4388_20240607102427", "plate_no": "ZA4388", "gap_start_time": "2024-06-07T10:24:27", "gap_end_time": "2024-06-07T16:02:34", "gap_duration_min": 338.12, "wasted_distance_km": 11.506, "prev_trip": "DA240607029501", "next_trip": "DA240607031511", "prev_O": [114.145401, 22.2434883], "next_O": [114.1985124, 22.3742141]}, "geometry": {"type": "LineString", "coordinates": [[114.157708, 22.280425], [114.195956, 22.37766]]}}, {"type": "Feature", "properties": {"id": "ghost_ZA6585_20240607083910", "plate_no": "ZA6585", "gap_start_time": "2024-06-07T08:39:10", "gap_end_time": "2024-06-07T13:30:14", "gap_duration_min": 291.07, "wasted_distance_km": 5.522, "prev_trip": "DA240607001301", "next_trip": "DA240607037611", "prev_O": [114.1645223, 22.2794233], "next_O": [114.1464621, 22.2863197]}, "geometry": {"type": "LineString", "coordinates": [[114.182978, 22.32252], [114.146166, 22.286373]]}}, {"type": "Feature", "properties": {"id": "ghost_ZA6941_20240607081710", "plate_no": "ZA6941", "gap_start_time": "2024-06-07T08:17:10", "gap_end_time": "2024-06-07T11:00:10", "gap_duration_min": 163.0, "wasted_distance_km": 8.676, "prev_trip": "DA240607024901", "next_trip": "DA240607011002", "prev_O": [114.1753859, 22.2516085], "next_O": [114.1234441, 22.2711318]}, "geometry": {"type": "LineString", "coordinates": [[114.204511, 22.29304], [114.123626, 22.271]]}}, {"type": "Feature", "properties": {"id": "ghost_ZB1369_20240607094230", "plate_no": "ZB1369", "gap_start_time": "2024-06-07T09:42:30", "gap_end_time": "2024-06-07T12:50:10", "gap_duration_min": 187.67, "wasted_distance_km": 11.055, "prev_trip": "DA240607036801", "next_trip": "DA240607041611", "prev_O": [114.2642247, 22.3155765], "next_O": [114.1323065, 22.2661136]}, "geometry": {"type": "LineString", "coordinates": [[114.229566, 22.308615], [114.132153, 22.266665]]}}, {"type": "Feature", "properties": {"id": "ghost_ZB1369_20240607131940", "plate_no": "ZB1369", "gap_start_time": "2024-06-07T13:19:40", "gap_end_time": "2024-06-07T14:45:10", "gap_duration_min": 85.5, "wasted_distance_km": 4.803, "prev_trip": "DA240607041611", "next_trip": "DA240607004011", "prev_O": [114.1323065, 22.2661136], "next_O": [114.2336165, 22.2637098]}, "geometry": {"type": "LineString", "coordinates": [[114.196325, 22.290743], [114.233223, 22.264288]]}}, {"type": "Feature", "properties": {"id": "ghost_ZB1369_20240607150340", "plate_no": "ZB1369", "gap_start_time": "2024-06-07T15:03:40", "gap_end_time": "2024-06-07T16:27:10", "gap_duration_min": 83.5, "wasted_distance_km": 1.022, "prev_trip": "DA240607004011", "next_trip": "DA240607004111", "prev_O": [114.2336165, 22.2637098], "next_O": [114.2336165, 22.2637098]}, "geometry": {"type": "LineString", "coordinates": [[114.24402, 22.265608], [114.234208, 22.26701]]}}]}