{"type": "FeatureCollection", "features": [{"type": "Feature", "properties": {"id": "ghost_RV4210_20240608090616", "plate_no": "RV4210", "gap_start_time": "2024-06-08T09:06:16", "gap_end_time": "2024-06-08T10:05:16", "gap_duration_min": 59.0, "wasted_distance_km": 21.956, "prev_trip": "DA240608009801", "next_trip": "DA240608027502", "prev_O": [114.1709206, 22.3621837], "next_O": [114.1540295, 22.3289816]}, "geometry": {"type": "LineString", "coordinates": [[113.940901, 22.3197], [114.154095, 22.32943]]}}, {"type": "Feature", "properties": {"id": "ghost_RV4210_20240608101816", "plate_no": "RV4210", "gap_start_time": "2024-06-08T10:18:16", "gap_end_time": "2024-06-08T12:30:06", "gap_duration_min": 131.83, "wasted_distance_km": 10.457, "prev_trip": "DA240608027502", "next_trip": "DA240608024001", "prev_O": [114.1540295, 22.3289816], "next_O": [114.2384343, 22.2980792]}, "geometry": {"type": "LineString", "coordinates": [[114.137536, 22.287711], [114.238618, 22.297566]]}}, {"type": "Feature", "properties": {"id": "ghost_RV4210_20240608130336", "plate_no": "RV4210", "gap_start_time": "2024-06-08T13:03:36", "gap_end_time": "2024-06-08T15:50:03", "gap_duration_min": 166.45, "wasted_distance_km": 7.897, "prev_trip": "DA240608024001", "next_trip": "DA240608027602", "prev_O": [114.2384343, 22.2980792], "next_O": [114.1242972, 22.2706361]}, "geometry": {"type": "LineString", "coordinates": [[114.156493, 22.335251], [114.124205, 22.270823]]}}, {"type": "Feature", "properties": {"id": "ghost_RV7493_20240608132631", "plate_no": "RV7493", "gap_start_time": "2024-06-08T13:26:31", "gap_end_time": "2024-06-08T15:30:04", "gap_duration_min": 123.55, "wasted_distance_km": 12.136, "prev_trip": "DA240608028001", "next_trip": "DA240608013711", "prev_O": [114.2702546, 22.2944817], "next_O": [114.2113817, 22.4136093]}, "geometry": {"type": "LineString", "coordinates": [[114.269631, 22.318326], [114.21152, 22.413318]]}}, {"type": "Feature", "properties": {"id": "ghost_RX5674_20240608142646", "plate_no": "RX5674", "gap_start_time": "2024-06-08T14:26:46", "gap_end_time": "2024-06-08T17:31:00", "gap_duration_min": 184.23, "wasted_distance_km": 8.224, "prev_trip": "DA240608021111", "next_trip": "DA240608008702", "prev_O": [114.230653, 22.308272], "next_O": [113.943288, 22.321343]}, "geometry": {"type": "LineString", "coordinates": [[113.975285, 22.38607], [113.943215, 22.318318]]}}, {"type": "Feature", "properties": {"id": "ghost_RX5674_20240608181700", "plate_no": "RX5674", "gap_start_time": "2024-06-08T18:17:00", "gap_end_time": "2024-06-08T20:01:29", "gap_duration_min": 104.48, "wasted_distance_km": 12.563, "prev_trip": "DA240608008702", "next_trip": "DA240608027202", "prev_O": [113.943288, 22.321343], "next_O": [114.1386518, 22.3622692]}, "geometry": {"type": "LineString", "coordinates": [[114.140343, 22.249368], [114.13919, 22.362346]]}}, {"type": "Feature", "properties": {"id": "ghost_SM140_20240608094309", "plate_no": "SM140", "gap_start_time": "2024-06-08T09:43:09", "gap_end_time": "2024-06-08T15:45:25", "gap_duration_min": 362.27, "wasted_distance_km": 12.807, "prev_trip": "DA240608029211", "next_trip": "DA240608010811", "prev_O": [114.227208, 22.417964], "next_O": [114.2100776, 22.3855092]}, "geometry": {"type": "LineString", "coordinates": [[114.159838, 22.279921], [114.210071, 22.385311]]}}, {"type": "Feature", "properties": {"id": "ghost_SM140_20240608160655", "plate_no": "SM140", "gap_start_time": "2024-06-08T16:06:55", "gap_end_time": "2024-06-08T18:15:17", "gap_duration_min": 128.37, "wasted_distance_km": 8.405, "prev_trip": "DA240608010811", "next_trip": "DA240608028811", "prev_O": [114.2100776, 22.3855092], "next_O": [114.107455, 22.3496448]}, "geometry": {"type": "LineString", "coordinates": [[114.184356, 22.377475], [114.108151, 22.350135]]}}, {"type": "Feature", "properties": {"id": "ghost_TB7382_20240608110427", "plate_no": "TB7382", "gap_start_time": "2024-06-08T11:04:27", "gap_end_time": "2024-06-08T14:45:21", "gap_duration_min": 220.9, "wasted_distance_km": 5.559, "prev_trip": "DA240608016101", "next_trip": "DA240608001111", "prev_O": [114.175839, 22.2727984], "next_O": [114.2336165, 22.2637098]}, "geometry": {"type": "LineString", "coordinates": [[114.180605, 22.276223], [114.233085, 22.264355]]}}, {"type": "Feature", "properties": {"id": "ghost_TB7382_20240608150152", "plate_no": "TB7382", "gap_start_time": "2024-06-08T15:01:52", "gap_end_time": "2024-06-08T16:17:52", "gap_duration_min": 76.0, "wasted_distance_km": 0.376, "prev_trip": "DA240608001111", "next_trip": "DA240608001211", "prev_O": [114.2336165, 22.2637098], "next_O": [114.2336165, 22.2637098]}, "geometry": {"type": "LineString", "coordinates": [[114.236268, 22.263993], [114.234505, 22.266953]]}}, {"type": "Feature", "properties": {"id": "ghost_TC1655_20240608101230", "plate_no": "TC1655", "gap_start_time": "2024-06-08T10:12:30", "gap_end_time": "2024-06-08T12:00:00", "gap_duration_min": 107.5, "wasted_distance_km": 0.468, "prev_trip": "DA240608000601", "next_trip": "DA240608000702", "prev_O": [114.2492217, 22.2617169], "next_O": [114.2329964, 22.2675897]}, "geometry": {"type": "LineString", "coordinates": [[114.234376, 22.264433], [114.233538, 22.26857]]}}, {"type": "Feature", "properties": {"id": "ghost_TC1655_20240608121100", "plate_no": "TC1655", "gap_start_time": "2024-06-08T12:11:00", "gap_end_time": "2024-06-08T15:30:25", "gap_duration_min": 199.42, "wasted_distance_km": 10.881, "prev_trip": "DA240608000702", "next_trip": "DA240608007402", "prev_O": [114.2329964, 22.2675897], "next_O": [114.1469988, 22.2446809]}, "geometry": {"type": "LineString", "coordinates": [[114.250735, 22.262635], [114.14684, 22.244476]]}}, {"type": "Feature", "properties": {"id": "ghost_TD4705_20240608090709", "plate_no": "TD4705", "gap_start_time": "2024-06-08T09:07:09", "gap_end_time": "2024-06-08T14:50:11", "gap_duration_min": 343.03, "wasted_distance_km": 22.195, "prev_trip": "DA240608020801", "next_trip": "DA240608010201", "prev_O": [114.1553149, 22.2409917], "next_O": [113.9837095, 22.413018]}, "geometry": {"type": "LineString", "coordinates": [[114.147286, 22.28823], [113.981651, 22.416201]]}}, {"type": "Feature", "properties": {"id": "ghost_TV9732_20240608104119", "plate_no": "TV9732", "gap_start_time": "2024-06-08T10:41:19", "gap_end_time": "2024-06-08T13:20:20", "gap_duration_min": 159.02, "wasted_distance_km": 6.461, "prev_trip": "DA240608025411", "next_trip": "DA240608001901", "prev_O": [114.2343596, 22.3128412], "next_O": [114.176559, 22.3679371]}, "geometry": {"type": "LineString", "coordinates": [[114.171218, 22.3101], [114.176268, 22.368013]]}}, {"type": "Feature", "properties": {"id": "ghost_TV9732_20240608134020", "plate_no": "TV9732", "gap_start_time": "2024-06-08T13:40:20", "gap_end_time": "2024-06-08T17:31:09", "gap_duration_min": 230.82, "wasted_distance_km": 0.08, "prev_trip": "DA240608001901", "next_trip": "DA240608001902", "prev_O": [114.176559, 22.3679371], "next_O": [114.1254938, 22.3694653]}, "geometry": {"type": "LineString", "coordinates": [[114.122826, 22.369043], [114.123048, 22.368353]]}}, {"type": "Feature", "properties": {"id": "ghost_TV9732_20240608175239", "plate_no": "TV9732", "gap_start_time": "2024-06-08T17:52:39", "gap_end_time": "2024-06-08T19:00:17", "gap_duration_min": 67.63, "wasted_distance_km": 6.57, "prev_trip": "DA240608001902", "next_trip": "DA240608029102", "prev_O": [114.1254938, 22.3694653], "next_O": [114.1743747, 22.3091816]}, "geometry": {"type": "LineString", "coordinates": [[114.174643, 22.367918], [114.175566, 22.30884]]}}, {"type": "Feature", "properties": {"id": "ghost_TW6581_20240608155806", "plate_no": "TW6581", "gap_start_time": "2024-06-08T15:58:06", "gap_end_time": "2024-06-08T18:01:35", "gap_duration_min": 123.48, "wasted_distance_km": 22.855, "prev_trip": "DA240608005711", "next_trip": "DA240608019401", "prev_O": [114.1495194, 22.2704876], "next_O": [114.1515059, 22.2524913]}, "geometry": {"type": "LineString", "coordinates": [[114.250673, 22.432118], [114.148596, 22.249548]]}}, {"type": "Feature", "properties": {"id": "ghost_TX9739_20240608055706", "plate_no": "TX9739", "gap_start_time": "2024-06-08T05:57:06", "gap_end_time": "2024-06-08T08:15:00", "gap_duration_min": 137.9, "wasted_distance_km": 3.869, "prev_trip": "DA240608012401", "next_trip": "DA240608022211", "prev_O": [114.0979333, 22.3489429], "next_O": [114.1585432, 22.247762]}, "geometry": {"type": "LineString", "coordinates": [[114.176621, 22.277715], [114.158178, 22.247393]]}}, {"type": "Feature", "properties": {"id": "ghost_TX9739_20240608083401", "plate_no": "TX9739", "gap_start_time": "2024-06-08T08:34:01", "gap_end_time": "2024-06-08T09:15:02", "gap_duration_min": 41.02, "wasted_distance_km": 4.793, "prev_trip": "DA240608022211", "next_trip": "DA240608006011", "prev_O": [114.1585432, 22.247762], "next_O": [114.1592535, 22.2500227]}, "geometry": {"type": "LineString", "coordinates": [[114.125543, 22.282123], [114.158208, 22.251395]]}}, {"type": "Feature", "properties": {"id": "ghost_TX9739_20240608101901", "plate_no": "TX9739", "gap_start_time": "2024-06-08T10:19:01", "gap_end_time": "2024-06-08T12:30:19", "gap_duration_min": 131.3, "wasted_distance_km": 5.764, "prev_trip": "DA240608006011", "next_trip": "DA240608029101", "prev_O": [114.1592535, 22.2500227], "next_O": [114.1772603, 22.3129427]}, "geometry": {"type": "LineString", "coordinates": [[114.223513, 22.282213], [114.179248, 22.313995]]}}, {"type": "Feature", "properties": {"id": "ghost_TX9739_20240608124819", "plate_no": "TX9739", "gap_start_time": "2024-06-08T12:48:19", "gap_end_time": "2024-06-08T13:30:21", "gap_duration_min": 42.03, "wasted_distance_km": 1.211, "prev_trip": "DA240608029101", "next_trip": "DA240608026101", "prev_O": [114.1772603, 22.3129427], "next_O": [114.1888665, 22.3125821]}, "geometry": {"type": "LineString", "coordinates": [[114.177356, 22.311251], [114.189088, 22.312151]]}}, {"type": "Feature", "properties": {"id": "ghost_TX9739_20240608134948", "plate_no": "TX9739", "gap_start_time": "2024-06-08T13:49:48", "gap_end_time": "2024-06-08T16:03:50", "gap_duration_min": 134.03, "wasted_distance_km": 4.076, "prev_trip": "DA240608026101", "next_trip": "DA240608026902", "prev_O": [114.1888665, 22.3125821], "next_O": [114.2066781, 22.3301172]}, "geometry": {"type": "LineString", "coordinates": [[114.197988, 22.29066], [114.205711, 22.326616]]}}, {"type": "Feature", "properties": {"id": "ghost_UL3556_20240608100354", "plate_no": "UL3556", "gap_start_time": "2024-06-08T10:03:54", "gap_end_time": "2024-06-08T11:15:54", "gap_duration_min": 72.0, "wasted_distance_km": 5.434, "prev_trip": "DA240608012001", "next_trip": "DA240608012801", "prev_O": [114.1249379, 22.3605418], "next_O": [114.1982331, 22.3477498]}, "geometry": {"type": "LineString", "coordinates": [[114.176596, 22.303148], [114.197966, 22.34784]]}}, {"type": "Feature", "properties": {"id": "ghost_UL4469_20240608103752", "plate_no": "UL4469", "gap_start_time": "2024-06-08T10:37:52", "gap_end_time": "2024-06-08T13:10:26", "gap_duration_min": 152.57, "wasted_distance_km": 22.399, "prev_trip": "DA240608031302", "next_trip": "DA240608001801", "prev_O": [114.1676132, 22.3073911], "next_O": [113.9765309, 22.3822172]}, "geometry": {"type": "LineString", "coordinates": [[114.194936, 22.387421], [113.977135, 22.383058]]}}, {"type": "Feature", "properties": {"id": "ghost_UL4469_20240608134656", "plate_no": "UL4469", "gap_start_time": "2024-06-08T13:46:56", "gap_end_time": "2024-06-08T17:30:17", "gap_duration_min": 223.35, "wasted_distance_km": 0.073, "prev_trip": "DA240608001801", "next_trip": "DA240608001802", "prev_O": [113.9765309, 22.3822172], "next_O": [114.1254938, 22.3694653]}, "geometry": {"type": "LineString", "coordinates": [[114.124741, 22.36939], [114.125285, 22.369805]]}}, {"type": "Feature", "properties": {"id": "ghost_UL6685_20240608073926", "plate_no": "UL6685", "gap_start_time": "2024-06-08T07:39:26", "gap_end_time": "2024-06-08T08:00:26", "gap_duration_min": 21.0, "wasted_distance_km": 1.333, "prev_trip": "DA240608009601", "next_trip": "DA240608017411", "prev_O": [114.2553258, 22.3226635], "next_O": [114.26277, 22.308295]}, "geometry": {"type": "LineString", "coordinates": [[114.269558, 22.318283], [114.261365, 22.308995]]}}, {"type": "Feature", "properties": {"id": "ghost_UL6685_20240608083956", "plate_no": "UL6685", "gap_start_time": "2024-06-08T08:39:56", "gap_end_time": "2024-06-08T13:30:19", "gap_duration_min": 290.38, "wasted_distance_km": 10.88, "prev_trip": "DA240608017411", "next_trip": "DA240608014202", "prev_O": [114.26277, 22.308295], "next_O": [114.1710075, 22.2951661]}, "geometry": {"type": "LineString", "coordinates": [[114.199098, 22.389486], [114.171316, 22.29507]]}}, {"type": "Feature", "properties": {"id": "ghost_UM5926_20240608103423", "plate_no": "UM5926", "gap_start_time": "2024-06-08T10:34:23", "gap_end_time": "2024-06-08T12:45:27", "gap_duration_min": 131.07, "wasted_distance_km": 4.34, "prev_trip": "DA240608003911", "next_trip": "DA240608019502", "prev_O": [114.1985794, 22.3742679], "next_O": [114.1466568, 22.2850671]}, "geometry": {"type": "LineString", "coordinates": [[114.192611, 22.285255], [114.150458, 22.286766]]}}, {"type": "Feature", "properties": {"id": "ghost_UM5926_20240608130057", "plate_no": "UM5926", "gap_start_time": "2024-06-08T13:00:57", "gap_end_time": "2024-06-08T14:01:12", "gap_duration_min": 60.25, "wasted_distance_km": 10.039, "prev_trip": "DA240608019502", "next_trip": "DA240608027201", "prev_O": [114.1466568, 22.2850671], "next_O": [114.1476036, 22.2865346]}, "geometry": {"type": "LineString", "coordinates": [[114.240083, 22.270073], [114.144225, 22.286885]]}}, {"type": "Feature", "properties": {"id": "ghost_UN9790_20240608095521", "plate_no": "UN9790", "gap_start_time": "2024-06-08T09:55:21", "gap_end_time": "2024-06-08T11:30:03", "gap_duration_min": 94.7, "wasted_distance_km": 0.349, "prev_trip": "DA240608011001", "next_trip": "DA240608026002", "prev_O": [113.9449805, 22.2912052], "next_O": [114.124214, 22.270644]}, "geometry": {"type": "LineString", "coordinates": [[114.126408, 22.273206], [114.124216, 22.270813]]}}, {"type": "Feature", "properties": {"id": "ghost_UN9790_20240608122233", "plate_no": "UN9790", "gap_start_time": "2024-06-08T12:22:33", "gap_end_time": "2024-06-08T14:45:40", "gap_duration_min": 143.12, "wasted_distance_km": 7.55, "prev_trip": "DA240608026002", "next_trip": "DA240608026801", "prev_O": [114.124214, 22.270644], "next_O": [114.014558, 22.307181]}, "geometry": {"type": "LineString", "coordinates": [[113.94293, 22.292075], [114.014535, 22.306941]]}}, {"type": "Feature", "properties": {"id": "ghost_UN9790_20240608153528", "plate_no": "UN9790", "gap_start_time": "2024-06-08T15:35:28", "gap_end_time": "2024-06-08T16:30:13", "gap_duration_min": 54.75, "wasted_distance_km": 2.475, "prev_trip": "DA240608026801", "next_trip": "DA240608003211", "prev_O": [114.014558, 22.307181], "next_O": [114.1941178, 22.2884225]}, "geometry": {"type": "LineString", "coordinates": [[114.173221, 22.279663], [114.194743, 22.289608]]}}, {"type": "Feature", "properties": {"id": "ghost_UP4016_20240608102155", "plate_no": "UP4016", "gap_start_time": "2024-06-08T10:21:55", "gap_end_time": "2024-06-08T12:50:40", "gap_duration_min": 148.75, "wasted_distance_km": 5.485, "prev_trip": "DA240608023011", "next_trip": "DA240608001701", "prev_O": [114.2263954, 22.2825665], "next_O": [114.241468, 22.2974485]}, "geometry": {"type": "LineString", "coordinates": [[114.192286, 22.319436], [114.239656, 22.296803]]}}, {"type": "Feature", "properties": {"id": "ghost_UP4016_20240608132010", "plate_no": "UP4016", "gap_start_time": "2024-06-08T13:20:10", "gap_end_time": "2024-06-08T16:00:00", "gap_duration_min": 159.83, "wasted_distance_km": 9.763, "prev_trip": "DA240608001701", "next_trip": "DA240608022711", "prev_O": [114.241468, 22.2974485], "next_O": [114.2113817, 22.4136093]}, "geometry": {"type": "LineString", "coordinates": [[114.129785, 22.368446], [114.21159, 22.413025]]}}, {"type": "Feature", "properties": {"id": "ghost_UP4016_20240608162030", "plate_no": "UP4016", "gap_start_time": "2024-06-08T16:20:30", "gap_end_time": "2024-06-08T17:30:29", "gap_duration_min": 69.98, "wasted_distance_km": 11.517, "prev_trip": "DA240608022711", "next_trip": "DA240608001702", "prev_O": [114.2113817, 22.4136093], "next_O": [114.1254938, 22.3694653]}, "geometry": {"type": "LineString", "coordinates": [[114.174955, 22.460758], [114.12345, 22.368771]]}}, {"type": "Feature", "properties": {"id": "ghost_UP6525_20240608103318", "plate_no": "UP6525", "gap_start_time": "2024-06-08T10:33:18", "gap_end_time": "2024-06-08T12:21:08", "gap_duration_min": 107.83, "wasted_distance_km": 5.291, "prev_trip": "DA240608016202", "next_trip": "DA240608000102", "prev_O": [114.190279, 22.274745], "next_O": [114.2420742, 22.2654561]}, "geometry": {"type": "LineString", "coordinates": [[114.198565, 22.292643], [114.23912, 22.263391]]}}, {"type": "Feature", "properties": {"id": "ghost_UP6525_20240608123208", "plate_no": "UP6525", "gap_start_time": "2024-06-08T12:32:08", "gap_end_time": "2024-06-08T15:00:11", "gap_duration_min": 148.05, "wasted_distance_km": 13.647, "prev_trip": "DA240608000102", "next_trip": "DA240608002202", "prev_O": [114.2420742, 22.2654561], "next_O": [114.1987643, 22.3804685]}, "geometry": {"type": "LineString", "coordinates": [[114.236888, 22.26272], [114.198945, 22.380328]]}}, {"type": "Feature", "properties": {"id": "ghost_UP6525_20240608151041", "plate_no": "UP6525", "gap_start_time": "2024-06-08T15:10:41", "gap_end_time": "2024-06-08T17:05:13", "gap_duration_min": 114.53, "wasted_distance_km": 6.179, "prev_trip": "DA240608002202", "next_trip": "DA240608027102", "prev_O": [114.1987643, 22.3804685], "next_O": [114.1613293, 22.3347794]}, "geometry": {"type": "LineString", "coordinates": [[114.196851, 22.379241], [114.162496, 22.333656]]}}, {"type": "Feature", "properties": {"id": "ghost_VD1562_20240608085821", "plate_no": "VD1562", "gap_start_time": "2024-06-08T08:58:21", "gap_end_time": "2024-06-08T10:15:23", "gap_duration_min": 77.03, "wasted_distance_km": 9.002, "prev_trip": "DA240608017211", "next_trip": "DA240608013011", "prev_O": [114.1531555, 22.3302156], "next_O": [114.1786768, 22.3122616]}, "geometry": {"type": "LineString", "coordinates": [[114.196473, 22.391606], [114.180043, 22.312091]]}}, {"type": "Feature", "properties": {"id": "ghost_VD1562_20240608104953", "plate_no": "VD1562", "gap_start_time": "2024-06-08T10:49:53", "gap_end_time": "2024-06-08T11:30:23", "gap_duration_min": 40.5, "wasted_distance_km": 6.735, "prev_trip": "DA240608013011", "next_trip": "DA240608020301", "prev_O": [114.1786768, 22.3122616], "next_O": [114.2356571, 22.3071891]}, "geometry": {"type": "LineString", "coordinates": [[114.172461, 22.313933], [114.237615, 22.307951]]}}, {"type": "Feature", "properties": {"id": "ghost_VD1562_20240608114854", "plate_no": "VD1562", "gap_start_time": "2024-06-08T11:48:54", "gap_end_time": "2024-06-08T14:15:21", "gap_duration_min": 146.45, "wasted_distance_km": 6.095, "prev_trip": "DA240608020301", "next_trip": "DA240608024511", "prev_O": [114.2356571, 22.3071891], "next_O": [114.1078442, 22.3549476]}, "geometry": {"type": "LineString", "coordinates": [[114.162998, 22.334226], [114.107978, 22.354606]]}}, {"type": "Feature", "properties": {"id": "ghost_VD1562_20240608143852", "plate_no": "VD1562", "gap_start_time": "2024-06-08T14:38:52", "gap_end_time": "2024-06-08T17:10:21", "gap_duration_min": 151.48, "wasted_distance_km": 7.401, "prev_trip": "DA240608024511", "next_trip": "DA240608023202", "prev_O": [114.1078442, 22.3549476], "next_O": [114.2011895, 22.2921028]}, "geometry": {"type": "LineString", "coordinates": [[114.136505, 22.260413], [114.19993, 22.291796]]}}, {"type": "Feature", "properties": {"id": "ghost_VD6128_20240608084303", "plate_no": "VD6128", "gap_start_time": "2024-06-08T08:43:03", "gap_end_time": "2024-06-08T09:30:06", "gap_duration_min": 47.05, "wasted_distance_km": 6.498, "prev_trip": "DA240608030901", "next_trip": "DA240608022611", "prev_O": [114.1809256, 22.3814192], "next_O": [114.1747755, 22.4612811]}, "geometry": {"type": "LineString", "coordinates": [[114.211411, 22.413125], [114.174845, 22.460793]]}}, {"type": "Feature", "properties": {"id": "ghost_VD6128_20240608095156", "plate_no": "VD6128", "gap_start_time": "2024-06-08T09:51:56", "gap_end_time": "2024-06-08T15:10:22", "gap_duration_min": 318.43, "wasted_distance_km": 3.866, "prev_trip": "DA240608022611", "next_trip": "DA240608002102", "prev_O": [114.1747755, 22.4612811], "next_O": [114.1987643, 22.3804685]}, "geometry": {"type": "LineString", "coordinates": [[114.211418, 22.413098], [114.19899, 22.380286]]}}, {"type": "Feature", "properties": {"id": "ghost_VD6128_20240608152852", "plate_no": "VD6128", "gap_start_time": "2024-06-08T15:28:52", "gap_end_time": "2024-06-08T17:15:26", "gap_duration_min": 106.57, "wasted_distance_km": 3.616, "prev_trip": "DA240608002102", "next_trip": "DA240608025911", "prev_O": [114.1987643, 22.3804685], "next_O": [114.2084355, 22.3871361]}, "geometry": {"type": "LineString", "coordinates": [[114.180811, 22.368435], [114.208965, 22.387916]]}}, {"type": "Feature", "properties": {"id": "ghost_VV6972_20240608104850", "plate_no": "VV6972", "gap_start_time": "2024-06-08T10:48:50", "gap_end_time": "2024-06-08T15:45:00", "gap_duration_min": 296.17, "wasted_distance_km": 8.342, "prev_trip": "DA240608032501", "next_trip": "DA240608006211", "prev_O": [114.260083, 22.3209665], "next_O": [114.2022798, 22.3436147]}, "geometry": {"type": "LineString", "coordinates": [[114.15958, 22.279728], [114.20202, 22.34366]]}}, {"type": "Feature", "properties": {"id": "ghost_VW3047_20240608095813", "plate_no": "VW3047", "gap_start_time": "2024-06-08T09:58:13", "gap_end_time": "2024-06-08T10:40:13", "gap_duration_min": 42.0, "wasted_distance_km": 1.567, "prev_trip": "DA240608025101", "next_trip": "DA240608011802", "prev_O": [114.1462113, 22.3319851], "next_O": [114.1698988, 22.3207521]}, "geometry": {"type": "LineString", "coordinates": [[114.161063, 22.332535], [114.169466, 22.320776]]}}, {"type": "Feature", "properties": {"id": "ghost_VW3047_20240608110613", "plate_no": "VW3047", "gap_start_time": "2024-06-08T11:06:13", "gap_end_time": "2024-06-08T14:30:26", "gap_duration_min": 204.22, "wasted_distance_km": 7.68, "prev_trip": "DA240608011802", "next_trip": "DA240608024601", "prev_O": [114.1698988, 22.3207521], "next_O": [114.1783772, 22.3128864]}, "geometry": {"type": "LineString", "coordinates": [[114.132158, 22.258501], [114.177863, 22.313108]]}}, {"type": "Feature", "properties": {"id": "ghost_VW4627_20240608111502", "plate_no": "VW4627", "gap_start_time": "2024-06-08T11:15:02", "gap_end_time": "2024-06-08T15:00:01", "gap_duration_min": 224.98, "wasted_distance_km": 23.927, "prev_trip": "DA240608020711", "next_trip": "DA240608026511", "prev_O": [114.0221231, 22.4380129], "next_O": [114.20582, 22.462254]}, "geometry": {"type": "LineString", "coordinates": [[114.17535, 22.248058], [114.204963, 22.46149]]}}, {"type": "Feature", "properties": {"id": "ghost_VW4627_20240608153003", "plate_no": "VW4627", "gap_start_time": "2024-06-08T15:30:03", "gap_end_time": "2024-06-08T16:30:14", "gap_duration_min": 60.18, "wasted_distance_km": 7.445, "prev_trip": "DA240608026511", "next_trip": "DA240608008401", "prev_O": [114.20582, 22.462254], "next_O": [114.1225225, 22.3665044]}, "geometry": {"type": "LineString", "coordinates": [[114.170136, 22.315045], [114.123043, 22.365891]]}}, {"type": "Feature", "properties": {"id": "ghost_VW7058_20240608101858", "plate_no": "VW7058", "gap_start_time": "2024-06-08T10:18:58", "gap_end_time": "2024-06-08T13:45:18", "gap_duration_min": 206.33, "wasted_distance_km": 11.971, "prev_trip": "DA240608005111", "next_trip": "DA240608023301", "prev_O": [113.9770187, 22.3878801], "next_O": [114.1083574, 22.3559598]}, "geometry": {"type": "LineString", "coordinates": [[114.167163, 22.449755], [114.1066, 22.357801], [114.1066, 22.357801]]}}, {"type": "Feature", "properties": {"id": "ghost_VW7058_20240608135948", "plate_no": "VW7058", "gap_start_time": "2024-06-08T13:59:48", "gap_end_time": "2024-06-08T18:00:19", "gap_duration_min": 240.52, "wasted_distance_km": 9.522, "prev_trip": "DA240608023301", "next_trip": "DA240608017511", "prev_O": [114.1083574, 22.3559598], "next_O": [114.1999667, 22.3927796]}, "geometry": {"type": "LineString", "coordinates": [[114.111053, 22.375396], [114.201451, 22.394005]]}}, {"type": "Feature", "properties": {"id": "ghost_VW871_20240608135153", "plate_no": "VW871", "gap_start_time": "2024-06-08T13:51:53", "gap_end_time": "2024-06-08T15:01:20", "gap_duration_min": 69.45, "wasted_distance_km": 8.281, "prev_trip": "DA240608006901", "next_trip": "DA240608019102", "prev_O": [114.2090412, 22.3867093], "next_O": [114.2014147, 22.3788502]}, "geometry": {"type": "LineString", "coordinates": [[114.124751, 22.357055], [114.201968, 22.378203]]}}, {"type": "Feature", "properties": {"id": "ghost_VY5967_20240608104419", "plate_no": "VY5967", "gap_start_time": "2024-06-08T10:44:19", "gap_end_time": "2024-06-08T13:00:30", "gap_duration_min": 136.18, "wasted_distance_km": 4.702, "prev_trip": "DA240608002311", "next_trip": "DA240608004011", "prev_O": [114.0221571, 22.4456516], "next_O": [114.1781254, 22.2524158]}, "geometry": {"type": "LineString", "coordinates": [[114.194756, 22.287965], [114.174116, 22.250243]]}}, {"type": "Feature", "properties": {"id": "ghost_VY5967_20240608135700", "plate_no": "VY5967", "gap_start_time": "2024-06-08T13:57:00", "gap_end_time": "2024-06-08T15:00:22", "gap_duration_min": 63.37, "wasted_distance_km": 4.931, "prev_trip": "DA240608004011", "next_trip": "DA240608005611", "prev_O": [114.1781254, 22.2524158], "next_O": [114.1495194, 22.2704876]}, "geometry": {"type": "LineString", "coordinates": [[114.194073, 22.287916], [114.149788, 22.270973]]}}, {"type": "Feature", "properties": {"id": "ghost_VY7246_20240608095300", "plate_no": "VY7246", "gap_start_time": "2024-06-08T09:53:00", "gap_end_time": "2024-06-08T14:45:07", "gap_duration_min": 292.12, "wasted_distance_km": 7.932, "prev_trip": "DA240608023901", "next_trip": "DA240608012802", "prev_O": [114.118893, 22.369665], "next_O": [114.1758412, 22.3194297]}, "geometry": {"type": "LineString", "coordinates": [[114.174003, 22.247806], [114.178583, 22.31901]]}}, {"type": "Feature", "properties": {"id": "ghost_VY7246_20240608151907", "plate_no": "VY7246", "gap_start_time": "2024-06-08T15:19:07", "gap_end_time": "2024-06-08T16:30:07", "gap_duration_min": 71.0, "wasted_distance_km": 6.599, "prev_trip": "DA240608012802", "next_trip": "DA240608007702", "prev_O": [114.1758412, 22.3194297], "next_O": [114.1552727, 22.3016783]}, "geometry": {"type": "LineString", "coordinates": [[114.198123, 22.346431], [114.156031, 22.30164]]}}, {"type": "Feature", "properties": {"id": "ghost_WN9330_20240608092156", "plate_no": "WN9330", "gap_start_time": "2024-06-08T09:21:56", "gap_end_time": "2024-06-08T14:30:14", "gap_duration_min": 308.3, "wasted_distance_km": 8.252, "prev_trip": "DA240608002101", "next_trip": "DA240608005202", "prev_O": [114.1786768, 22.3729477], "next_O": [114.170912, 22.451483]}, "geometry": {"type": "LineString", "coordinates": [[114.194046, 22.380688], [114.1708, 22.451725]]}}, {"type": "Feature", "properties": {"id": "ghost_WP1681_20240608084828", "plate_no": "WP1681", "gap_start_time": "2024-06-08T08:48:28", "gap_end_time": "2024-06-08T09:31:05", "gap_duration_min": 42.62, "wasted_distance_km": 8.007, "prev_trip": "DA240608002201", "next_trip": "DA240608005411", "prev_O": [114.23134, 22.42554], "next_O": [114.2503345, 22.4318707]}, "geometry": {"type": "LineString", "coordinates": [[114.19723, 22.379735], [114.250683, 22.432108], [114.250683, 22.432108]]}}, {"type": "Feature", "properties": {"id": "ghost_WP1681_20240608103235", "plate_no": "WP1681", "gap_start_time": "2024-06-08T10:32:35", "gap_end_time": "2024-06-08T14:45:29", "gap_duration_min": 252.9, "wasted_distance_km": 5.274, "prev_trip": "DA240608005411", "next_trip": "DA240608025001", "prev_O": [114.2503345, 22.4318707], "next_O": [114.196627, 22.2898789]}, "geometry": {"type": "LineString", "coordinates": [[114.151573, 22.267073], [114.196546, 22.289821]]}}, {"type": "Feature", "properties": {"id": "ghost_WP1681_20240608150502", "plate_no": "WP1681", "gap_start_time": "2024-06-08T15:05:02", "gap_end_time": "2024-06-08T17:15:44", "gap_duration_min": 130.7, "wasted_distance_km": 7.313, "prev_trip": "DA240608025001", "next_trip": "DA240608028401", "prev_O": [114.196627, 22.2898789], "next_O": [114.23809, 22.310845]}, "geometry": {"type": "LineString", "coordinates": [[114.16761, 22.308108], [114.238693, 22.309165]]}}, {"type": "Feature", "properties": {"id": "ghost_WP3890_20240608104001", "plate_no": "WP3890", "gap_start_time": "2024-06-08T10:40:01", "gap_end_time": "2024-06-08T12:25:31", "gap_duration_min": 105.5, "wasted_distance_km": 2.633, "prev_trip": "DA240608005511", "next_trip": "DA240608011002", "prev_O": [114.2503345, 22.4318707], "next_O": [114.1238748, 22.2710834]}, "geometry": {"type": "LineString", "coordinates": [[114.149508, 22.270955], [114.123955, 22.269736]]}}, {"type": "Feature", "properties": {"id": "ghost_WP3890_20240608131629", "plate_no": "WP3890", "gap_start_time": "2024-06-08T13:16:29", "gap_end_time": "2024-06-08T16:00:27", "gap_duration_min": 163.97, "wasted_distance_km": 23.092, "prev_trip": "DA240608011002", "next_trip": "DA240608021502", "prev_O": [114.1238748, 22.2710834], "next_O": [114.1699927, 22.3135036]}, "geometry": {"type": "LineString", "coordinates": [[113.946798, 22.293826], [114.170333, 22.312693]]}}, {"type": "Feature", "properties": {"id": "ghost_WP3890_20240608161927", "plate_no": "WP3890", "gap_start_time": "2024-06-08T16:19:27", "gap_end_time": "2024-06-08T17:30:18", "gap_duration_min": 70.85, "wasted_distance_km": 5.392, "prev_trip": "DA240608021502", "next_trip": "DA240608006902", "prev_O": [114.1699927, 22.3135036], "next_O": [114.1276184, 22.359483]}, "geometry": {"type": "LineString", "coordinates": [[114.180361, 22.369248], [114.128846, 22.360208]]}}, {"type": "Feature", "properties": {"id": "ghost_WP3895_20240608060129", "plate_no": "WP3895", "gap_start_time": "2024-06-08T06:01:29", "gap_end_time": "2024-06-08T06:30:23", "gap_duration_min": 28.9, "wasted_distance_km": 3.147, "prev_trip": "DA240608016001", "next_trip": "DA240608012311", "prev_O": [114.2165038, 22.324664], "next_O": [114.1917521, 22.3405523]}, "geometry": {"type": "LineString", "coordinates": [[114.163113, 22.333841], [114.193383, 22.337963]]}}, {"type": "Feature", "properties": {"id": "ghost_WP3895_20240608071223", "plate_no": "WP3895", "gap_start_time": "2024-06-08T07:12:23", "gap_end_time": "2024-06-08T12:45:23", "gap_duration_min": 333.0, "wasted_distance_km": 1.927, "prev_trip": "DA240608012311", "next_trip": "DA240608032502", "prev_O": [114.1917521, 22.3405523], "next_O": [114.1558638, 22.2825909]}, "geometry": {"type": "LineString", "coordinates": [[114.175008, 22.280746], [114.156328, 22.281961]]}}, {"type": "Feature", "properties": {"id": "ghost_WP3895_20240608131253", "plate_no": "WP3895", "gap_start_time": "2024-06-08T13:12:53", "gap_end_time": "2024-06-08T15:35:23", "gap_duration_min": 142.5, "wasted_distance_km": 1.132, "prev_trip": "DA240608032502", "next_trip": "DA240608005802", "prev_O": [114.1558638, 22.2825909], "next_O": [114.257666, 22.312751]}, "geometry": {"type": "LineString", "coordinates": [[114.2616, 22.321418], [114.25779, 22.311871]]}}, {"type": "Feature", "properties": {"id": "ghost_WP4172_20240608161121", "plate_no": "WP4172", "gap_start_time": "2024-06-08T16:11:21", "gap_end_time": "2024-06-08T18:30:15", "gap_duration_min": 138.9, "wasted_distance_km": 4.258, "prev_trip": "DA240608018611", "next_trip": "DA240608003511", "prev_O": [114.23971, 22.308753], "next_O": [114.1941178, 22.2884225]}, "geometry": {"type": "LineString", "coordinates": [[114.229055, 22.309133], [114.194593, 22.28793]]}}, {"type": "Feature", "properties": {"id": "ghost_WP5818_20240608094207", "plate_no": "WP5818", "gap_start_time": "2024-06-08T09:42:07", "gap_end_time": "2024-06-08T14:45:00", "gap_duration_min": 302.88, "wasted_distance_km": 23.082, "prev_trip": "DA240608029501", "next_trip": "DA240608000302", "prev_O": [114.214879, 22.330142], "next_O": [114.1283333, 22.3458333]}, "geometry": {"type": "LineString", "coordinates": [[114.153291, 22.552606], [114.128196, 22.346326]]}}, {"type": "Feature", "properties": {"id": "ghost_WP5818_20240608151036", "plate_no": "WP5818", "gap_start_time": "2024-06-08T15:10:36", "gap_end_time": "2024-06-08T16:21:37", "gap_duration_min": 71.02, "wasted_distance_km": 1.028, "prev_trip": "DA240608000302", "next_trip": "DA240608000402", "prev_O": [114.1283333, 22.3458333], "next_O": [114.1283333, 22.3458333]}, "geometry": {"type": "LineString", "coordinates": [[114.131361, 22.354615], [114.12601, 22.346803]]}}, {"type": "Feature", "properties": {"id": "ghost_XE612_20240608091226", "plate_no": "XE612", "gap_start_time": "2024-06-08T09:12:26", "gap_end_time": "2024-06-08T09:50:26", "gap_duration_min": 38.0, "wasted_distance_km": 1.407, "prev_trip": "DA240608030401", "next_trip": "DA240608009701", "prev_O": [114.2031521, 22.3335518], "next_O": [114.185621, 22.3275253]}, "geometry": {"type": "LineString", "coordinates": [[114.183363, 22.339793], [114.185823, 22.327343]]}}, {"type": "Feature", "properties": {"id": "ghost_XE612_20240608101156", "plate_no": "XE612", "gap_start_time": "2024-06-08T10:11:56", "gap_end_time": "2024-06-08T11:00:25", "gap_duration_min": 48.48, "wasted_distance_km": 0.987, "prev_trip": "DA240608009701", "next_trip": "DA240608018311", "prev_O": [114.185621, 22.3275253], "next_O": [114.1682559, 22.3344838]}, "geometry": {"type": "LineString", "coordinates": [[114.159815, 22.330488], [114.168638, 22.333986]]}}, {"type": "Feature", "properties": {"id": "ghost_XE612_20240608112655", "plate_no": "XE612", "gap_start_time": "2024-06-08T11:26:55", "gap_end_time": "2024-06-08T13:15:07", "gap_duration_min": 108.2, "wasted_distance_km": 4.783, "prev_trip": "DA240608018311", "next_trip": "DA240608021702", "prev_O": [114.1682559, 22.3344838], "next_O": [114.1466568, 22.2850671]}, "geometry": {"type": "LineString", "coordinates": [[114.154873, 22.24302], [114.14732, 22.285466]]}}, {"type": "Feature", "properties": {"id": "ghost_XE612_20240608133607", "plate_no": "XE612", "gap_start_time": "2024-06-08T13:36:07", "gap_end_time": "2024-06-08T15:33:39", "gap_duration_min": 117.53, "wasted_distance_km": 2.513, "prev_trip": "DA240608021702", "next_trip": "DA240608023902", "prev_O": [114.1466568, 22.2850671], "next_O": [114.1740488, 22.2460186]}, "geometry": {"type": "LineString", "coordinates": [[114.150478, 22.244021], [114.174445, 22.248345]]}}, {"type": "Feature", "properties": {"id": "ghost_XE7168_20240608111351", "plate_no": "XE7168", "gap_start_time": "2024-06-08T11:13:51", "gap_end_time": "2024-06-08T13:48:05", "gap_duration_min": 154.23, "wasted_distance_km": 12.46, "prev_trip": "DA240608031001", "next_trip": "DA240608025811", "prev_O": [114.177739, 22.31337], "next_O": [114.2314804, 22.4191167]}, "geometry": {"type": "LineString", "coordinates": [[114.174756, 22.320001], [114.22968, 22.419885]]}}, {"type": "Feature", "properties": {"id": "ghost_XE7168_20240608135535", "plate_no": "XE7168", "gap_start_time": "2024-06-08T13:55:35", "gap_end_time": "2024-06-08T16:45:25", "gap_duration_min": 169.83, "wasted_distance_km": 10.465, "prev_trip": "DA240608025811", "next_trip": "DA240608028002", "prev_O": [114.2314804, 22.4191167], "next_O": [114.2701618, 22.3179393]}, "geometry": {"type": "LineString", "coordinates": [[114.207748, 22.392875], [114.269678, 22.318196]]}}, {"type": "Feature", "properties": {"id": "ghost_XE782_20240608092312", "plate_no": "XE782", "gap_start_time": "2024-06-08T09:23:12", "gap_end_time": "2024-06-08T13:05:01", "gap_duration_min": 221.82, "wasted_distance_km": 5.167, "prev_trip": "DA240608023801", "next_trip": "DA240608019101", "prev_O": [114.1929813, 22.3429615], "next_O": [114.2287366, 22.3118568]}, "geometry": {"type": "LineString", "coordinates": [[114.194698, 22.345251], [114.22882, 22.311145]]}}, {"type": "Feature", "properties": {"id": "ghost_XE782_20240608131931", "plate_no": "XE782", "gap_start_time": "2024-06-08T13:19:31", "gap_end_time": "2024-06-08T15:20:27", "gap_duration_min": 120.93, "wasted_distance_km": 7.13, "prev_trip": "DA240608019101", "next_trip": "DA240608023201", "prev_O": [114.2287366, 22.3118568], "next_O": [114.1547781, 22.3335361]}, "geometry": {"type": "LineString", "coordinates": [[114.204796, 22.379068], [114.156201, 22.333326]]}}, {"type": "Feature", "properties": {"id": "ghost_XE7898_20240608110813", "plate_no": "XE7898", "gap_start_time": "2024-06-08T11:08:13", "gap_end_time": "2024-06-08T13:25:13", "gap_duration_min": 137.0, "wasted_distance_km": 9.043, "prev_trip": "DA240608027301", "next_trip": "DA240608005801", "prev_O": [114.1418959, 22.3452847], "next_O": [114.2223552, 22.3175935]}, "geometry": {"type": "LineString", "coordinates": [[114.27282, 22.382838], [114.224665, 22.31479]]}}, {"type": "Feature", "properties": {"id": "ghost_XE7898_20240608142939", "plate_no": "XE7898", "gap_start_time": "2024-06-08T14:29:39", "gap_end_time": "2024-06-08T15:05:39", "gap_duration_min": 36.0, "wasted_distance_km": 9.91, "prev_trip": "DA240608005801", "next_trip": "DA240608020911", "prev_O": [114.2223552, 22.3175935], "next_O": [114.195006, 22.378829]}, "geometry": {"type": "LineString", "coordinates": [[114.257985, 22.310505], [114.196573, 22.379186]]}}, {"type": "Feature", "properties": {"id": "ghost_XE8413_20240608090018", "plate_no": "XE8413", "gap_start_time": "2024-06-08T09:00:18", "gap_end_time": "2024-06-08T14:00:00", "gap_duration_min": 299.7, "wasted_distance_km": 13.576, "prev_trip": "DA240608017311", "next_trip": "DA240608027601", "prev_O": [113.9701755, 22.4035088], "next_O": [114.1330251, 22.2871812]}, "geometry": {"type": "LineString", "coordinates": [[114.19782, 22.388906], [114.129958, 22.284181]]}}, {"type": "Feature", "properties": {"id": "ghost_XF1493_20240608112200", "plate_no": "XF1493", "gap_start_time": "2024-06-08T11:22:00", "gap_end_time": "2024-06-08T12:07:41", "gap_duration_min": 45.68, "wasted_distance_km": 8.829, "prev_trip": "DA240608032301", "next_trip": "DA240608031101", "prev_O": [114.0147185, 22.3663115], "next_O": [114.1860306, 22.3058221]}, "geometry": {"type": "LineString", "coordinates": [[114.187831, 22.384055], [114.185656, 22.30468]]}}, {"type": "Feature", "properties": {"id": "ghost_XF1493_20240608123511", "plate_no": "XF1493", "gap_start_time": "2024-06-08T12:35:11", "gap_end_time": "2024-06-08T13:30:02", "gap_duration_min": 54.85, "wasted_distance_km": 9.778, "prev_trip": "DA240608031101", "next_trip": "DA240608009111", "prev_O": [114.1860306, 22.3058221], "next_O": [114.1751006, 22.4488917]}, "geometry": {"type": "LineString", "coordinates": [[114.175123, 22.36073], [114.175673, 22.448661]]}}, {"type": "Feature", "properties": {"id": "ghost_XN7430_20240608095635", "plate_no": "XN7430", "gap_start_time": "2024-06-08T09:56:35", "gap_end_time": "2024-06-08T10:30:25", "gap_duration_min": 33.83, "wasted_distance_km": 5.035, "prev_trip": "DA240608018011", "next_trip": "DA240608016601", "prev_O": [114.1933064, 22.3065973], "next_O": [114.219702, 22.323118]}, "geometry": {"type": "LineString", "coordinates": [[114.174385, 22.306615], [114.220205, 22.322528]]}}, {"type": "Feature", "properties": {"id": "ghost_XN7430_20240608104725", "plate_no": "XN7430", "gap_start_time": "2024-06-08T10:47:25", "gap_end_time": "2024-06-08T11:40:01", "gap_duration_min": 52.6, "wasted_distance_km": 2.419, "prev_trip": "DA240608016601", "next_trip": "DA240608025102", "prev_O": [114.219702, 22.323118], "next_O": [114.1608536, 22.3324787]}, "geometry": {"type": "LineString", "coordinates": [[114.171736, 22.313571], [114.160843, 22.332855]]}}, {"type": "Feature", "properties": {"id": "ghost_XV4803_20240608135854", "plate_no": "XV4803", "gap_start_time": "2024-06-08T13:58:54", "gap_end_time": "2024-06-08T15:00:24", "gap_duration_min": 61.5, "wasted_distance_km": 3.124, "prev_trip": "DA240608003111", "next_trip": "DA240608030502", "prev_O": [114.1256579, 22.2813429], "next_O": [114.1645223, 22.2794233]}, "geometry": {"type": "LineString", "coordinates": [[114.194203, 22.287955], [114.16525, 22.2795]]}}, {"type": "Feature", "properties": {"id": "ghost_XV7200_20240608101812", "plate_no": "XV7200", "gap_start_time": "2024-06-08T10:18:12", "gap_end_time": "2024-06-08T13:30:03", "gap_duration_min": 191.85, "wasted_distance_km": 9.524, "prev_trip": "DA240608014111", "next_trip": "DA240608008901", "prev_O": [114.1613761, 22.3257294], "next_O": [114.1060175, 22.3439865]}, "geometry": {"type": "LineString", "coordinates": [[114.199033, 22.339238], [114.106571, 22.34399]]}}, {"type": "Feature", "properties": {"id": "ghost_XV7200_20240608134703", "plate_no": "XV7200", "gap_start_time": "2024-06-08T13:47:03", "gap_end_time": "2024-06-08T16:40:03", "gap_duration_min": 173.0, "wasted_distance_km": 1.064, "prev_trip": "DA240608008901", "next_trip": "DA240608014611", "prev_O": [114.1060175, 22.3439865], "next_O": [114.1735912, 22.3167039]}, "geometry": {"type": "LineString", "coordinates": [[114.16769, 22.309475], [114.173686, 22.317268]]}}, {"type": "Feature", "properties": {"id": "ghost_XV7468_20240608103748", "plate_no": "XV7468", "gap_start_time": "2024-06-08T10:37:48", "gap_end_time": "2024-06-08T13:00:57", "gap_duration_min": 143.15, "wasted_distance_km": 3.971, "prev_trip": "DA240608026901", "next_trip": "DA240608000811", "prev_O": [114.2535612, 22.3021561], "next_O": [114.24422, 22.321446]}, "geometry": {"type": "LineString", "coordinates": [[114.206003, 22.326366], [114.24431, 22.321921]]}}, {"type": "Feature", "properties": {"id": "ghost_XV7468_20240608133158", "plate_no": "XV7468", "gap_start_time": "2024-06-08T13:31:58", "gap_end_time": "2024-06-08T15:55:53", "gap_duration_min": 143.92, "wasted_distance_km": 10.669, "prev_trip": "DA240608000811", "next_trip": "DA240608023302", "prev_O": [114.24422, 22.321446], "next_O": [114.1112, 22.375143]}, "geometry": {"type": "LineString", "coordinates": [[114.20684, 22.33667], [114.111728, 22.374986]]}}, {"type": "Feature", "properties": {"id": "ghost_YK4683_20240608101230", "plate_no": "YK4683", "gap_start_time": "2024-06-08T10:12:30", "gap_end_time": "2024-06-08T14:05:26", "gap_duration_min": 232.93, "wasted_distance_km": 2.35, "prev_trip": "DA240608001501", "next_trip": "DA240608028311", "prev_O": [114.1728895, 22.4569367], "next_O": [114.194906, 22.3397681]}, "geometry": {"type": "LineString", "coordinates": [[114.209021, 22.321993], [114.193913, 22.337851]]}}, {"type": "Feature", "properties": {"id": "ghost_YK7541_20240608085506", "plate_no": "YK7541", "gap_start_time": "2024-06-08T08:55:06", "gap_end_time": "2024-06-08T10:01:06", "gap_duration_min": 66.0, "wasted_distance_km": 3.462, "prev_trip": "DA240608008801", "next_trip": "DA240608000701", "prev_O": [113.9962947, 22.4360283], "next_O": [114.2492217, 22.2617169]}, "geometry": {"type": "LineString", "coordinates": [[114.220435, 22.284606], [114.247, 22.265501]]}}, {"type": "Feature", "properties": {"id": "ghost_YK7541_20240608100836", "plate_no": "YK7541", "gap_start_time": "2024-06-08T10:08:36", "gap_end_time": "2024-06-08T12:00:00", "gap_duration_min": 111.4, "wasted_distance_km": 7.173, "prev_trip": "DA240608000701", "next_trip": "DA240608012002", "prev_O": [114.2492217, 22.2617169], "next_O": [114.177655, 22.3010111]}, "geometry": {"type": "LineString", "coordinates": [[114.234658, 22.264335], [114.177128, 22.300773]]}}, {"type": "Feature", "properties": {"id": "ghost_YK7541_20240608121700", "plate_no": "YK7541", "gap_start_time": "2024-06-08T12:17:00", "gap_end_time": "2024-06-08T15:00:18", "gap_duration_min": 163.3, "wasted_distance_km": 11.986, "prev_trip": "DA240608012002", "next_trip": "DA240608019001", "prev_O": [114.177655, 22.3010111], "next_O": [114.2284154, 22.314391]}, "geometry": {"type": "LineString", "coordinates": [[114.12176, 22.358793], [114.227886, 22.314256]]}}, {"type": "Feature", "properties": {"id": "ghost_YK8954_20240608090037", "plate_no": "YK8954", "gap_start_time": "2024-06-08T09:00:37", "gap_end_time": "2024-06-08T10:30:25", "gap_duration_min": 89.8, "wasted_distance_km": 4.923, "prev_trip": "DA240608015801", "next_trip": "DA240608015902", "prev_O": [114.1730312, 22.4612198], "next_O": [114.1466568, 22.2850671]}, "geometry": {"type": "LineString", "coordinates": [[114.175191, 22.320448], [114.14402, 22.286853]]}}, {"type": "Feature", "properties": {"id": "ghost_YK8954_20240608105155", "plate_no": "YK8954", "gap_start_time": "2024-06-08T10:51:55", "gap_end_time": "2024-06-08T11:17:25", "gap_duration_min": 25.5, "wasted_distance_km": 3.626, "prev_trip": "DA240608015902", "next_trip": "DA240608012402", "prev_O": [114.1466568, 22.2850671], "next_O": [114.1762882, 22.2781796]}, "geometry": {"type": "LineString", "coordinates": [[114.168791, 22.245808], [114.176046, 22.277716]]}}, {"type": "Feature", "properties": {"id": "ghost_YK8954_20240608114325", "plate_no": "YK8954", "gap_start_time": "2024-06-08T11:43:25", "gap_end_time": "2024-06-08T14:15:28", "gap_duration_min": 152.05, "wasted_distance_km": 14.642, "prev_trip": "DA240608012402", "next_trip": "DA240608002002", "prev_O": [114.1762882, 22.2781796], "next_O": [114.173077, 22.4611085]}, "geometry": {"type": "LineString", "coordinates": [[114.097343, 22.34993], [114.173011, 22.461485]]}}, {"type": "Feature", "properties": {"id": "ghost_YK905_20240608103343", "plate_no": "YK905", "gap_start_time": "2024-06-08T10:33:43", "gap_end_time": "2024-06-08T11:01:13", "gap_duration_min": 27.5, "wasted_distance_km": 6.626, "prev_trip": "DA240608011111", "next_trip": "DA240608030701", "prev_O": [114.1004816, 22.371568], "next_O": [114.1796289, 22.4663317]}, "geometry": {"type": "LineString", "coordinates": [[114.127693, 22.50112], [114.17976, 22.465961]]}}, {"type": "Feature", "properties": {"id": "ghost_YK905_20240608111713", "plate_no": "YK905", "gap_start_time": "2024-06-08T11:17:13", "gap_end_time": "2024-06-08T15:15:03", "gap_duration_min": 237.83, "wasted_distance_km": 12.339, "prev_trip": "DA240608030701", "next_trip": "DA240608031601", "prev_O": [114.1796289, 22.4663317], "next_O": [114.1714779, 22.310214]}, "geometry": {"type": "LineString", "coordinates": [[114.213305, 22.41412], [114.171503, 22.3101]]}}, {"type": "Feature", "properties": {"id": "ghost_YK905_20240608161403", "plate_no": "YK905", "gap_start_time": "2024-06-08T16:14:03", "gap_end_time": "2024-06-08T17:32:24", "gap_duration_min": 78.35, "wasted_distance_km": 0.618, "prev_trip": "DA240608031601", "next_trip": "DA240608031711", "prev_O": [114.1714779, 22.310214], "next_O": [114.0250142, 22.4361019]}, "geometry": {"type": "LineString", "coordinates": [[114.028468, 22.437518], [114.022473, 22.437035]]}}, {"type": "Feature", "properties": {"id": "ghost_YL1315_20240608083844", "plate_no": "YL1315", "gap_start_time": "2024-06-08T08:38:44", "gap_end_time": "2024-06-08T12:15:14", "gap_duration_min": 216.5, "wasted_distance_km": 8.554, "prev_trip": "DA240608027501", "next_trip": "DA240608027702", "prev_O": [114.1330251, 22.2871812], "next_O": [114.1763966, 22.2515672]}, "geometry": {"type": "LineString", "coordinates": [[114.156111, 22.325875], [114.174506, 22.250855]]}}, {"type": "Feature", "properties": {"id": "ghost_YL1345_20240608073829", "plate_no": "YL1345", "gap_start_time": "2024-06-08T07:38:29", "gap_end_time": "2024-06-08T13:15:20", "gap_duration_min": 336.85, "wasted_distance_km": 5.444, "prev_trip": "DA240608004511", "next_trip": "DA240608024811", "prev_O": [114.2191085, 22.3212051], "next_O": [114.1693183, 22.3041236]}, "geometry": {"type": "LineString", "coordinates": [[114.219113, 22.320746], [114.169261, 22.304316]]}}, {"type": "Feature", "properties": {"id": "ghost_YL1345_20240608133650", "plate_no": "YL1345", "gap_start_time": "2024-06-08T13:36:50", "gap_end_time": "2024-06-08T14:45:19", "gap_duration_min": 68.48, "wasted_distance_km": 4.4, "prev_trip": "DA240608024811", "next_trip": "DA240608020511", "prev_O": [114.1693183, 22.3041236], "next_O": [114.2077187, 22.3228659]}, "geometry": {"type": "LineString", "coordinates": [[114.164861, 22.318576], [114.207343, 22.323171]]}}, {"type": "Feature", "properties": {"id": "ghost_YL1783_20240608120010", "plate_no": "YL1783", "gap_start_time": "2024-06-08T12:00:10", "gap_end_time": "2024-06-08T16:30:00", "gap_duration_min": 269.83, "wasted_distance_km": 4.602, "prev_trip": "DA240608016602", "next_trip": "DA240608003811", "prev_O": [114.171069, 22.3121177], "next_O": [114.1941178, 22.2884225]}, "geometry": {"type": "LineString", "coordinates": [[114.21602, 22.323953], [114.192288, 22.288865]]}}, {"type": "Feature", "properties": {"id": "ghost_YL6513_20240608091316", "plate_no": "YL6513", "gap_start_time": "2024-06-08T09:13:16", "gap_end_time": "2024-06-08T10:40:53", "gap_duration_min": 87.62, "wasted_distance_km": 16.535, "prev_trip": "DA240608008701", "next_trip": "DA240608023501", "prev_O": [114.1398775, 22.2505584], "next_O": [113.9950875, 22.4611084]}, "geometry": {"type": "LineString", "coordinates": [[113.940858, 22.32034], [113.997133, 22.459646]]}}, {"type": "Feature", "properties": {"id": "ghost_YL6513_20240608112923", "plate_no": "YL6513", "gap_start_time": "2024-06-08T11:29:23", "gap_end_time": "2024-06-08T14:00:13", "gap_duration_min": 150.83, "wasted_distance_km": 8.255, "prev_trip": "DA240608023501", "next_trip": "DA240608027101", "prev_O": [113.9950875, 22.4611084], "next_O": [114.23931, 22.306717]}, "geometry": {"type": "LineString", "coordinates": [[114.162961, 22.332288], [114.238295, 22.306696]]}}, {"type": "Feature", "properties": {"id": "ghost_YL8082_20240608092455", "plate_no": "YL8082", "gap_start_time": "2024-06-08T09:24:55", "gap_end_time": "2024-06-08T10:00:25", "gap_duration_min": 35.5, "wasted_distance_km": 6.904, "prev_trip": "DA240608015901", "next_trip": "DA240608022001", "prev_O": [114.1653873, 22.2434696], "next_O": [114.2154225, 22.2854066]}, "geometry": {"type": "LineString", "coordinates": [[114.148036, 22.288246], [114.215066, 22.285296]]}}, {"type": "Feature", "properties": {"id": "ghost_YY8058_20240608094338", "plate_no": "YY8058", "gap_start_time": "2024-06-08T09:43:38", "gap_end_time": "2024-06-08T15:07:54", "gap_duration_min": 324.27, "wasted_distance_km": 3.024, "prev_trip": "DA240608005301", "next_trip": "DA240608014511", "prev_O": [114.1394532, 22.3355572], "next_O": [114.1300706, 22.350379]}, "geometry": {"type": "LineString", "coordinates": [[114.1561, 22.335581], [114.129078, 22.34631]]}}, {"type": "Feature", "properties": {"id": "ghost_YY8058_20240608152123", "plate_no": "YY8058", "gap_start_time": "2024-06-08T15:21:23", "gap_end_time": "2024-06-08T17:05:28", "gap_duration_min": 104.08, "wasted_distance_km": 11.008, "prev_trip": "DA240608014511", "next_trip": "DA240608010511", "prev_O": [114.1300706, 22.350379], "next_O": [114.272693, 22.2810124]}, "geometry": {"type": "LineString", "coordinates": [[114.1716, 22.313463], [114.272846, 22.281448]]}}, {"type": "Feature", "properties": {"id": "ghost_YZ9176_20240608064316", "plate_no": "YZ9176", "gap_start_time": "2024-06-08T06:43:16", "gap_end_time": "2024-06-08T07:50:28", "gap_duration_min": 67.2, "wasted_distance_km": 0.982, "prev_trip": "DA240608015701", "next_trip": "DA240608021811", "prev_O": [114.2018517, 22.3360239], "next_O": [114.1795825, 22.3153667]}, "geometry": {"type": "LineString", "coordinates": [[114.170258, 22.316066], [114.179701, 22.314745]]}}, {"type": "Feature", "properties": {"id": "ghost_YZ9431_20240608081213", "plate_no": "YZ9431", "gap_start_time": "2024-06-08T08:12:13", "gap_end_time": "2024-06-08T11:45:16", "gap_duration_min": 213.05, "wasted_distance_km": 0.452, "prev_trip": "DA240608007811", "next_trip": "DA240608030501", "prev_O": [114.2285083, 22.2819496], "next_O": [114.175839, 22.2728009]}, "geometry": {"type": "LineString", "coordinates": [[114.175485, 22.274566], [114.177963, 22.271208]]}}, {"type": "Feature", "properties": {"id": "ghost_YZ9431_20240608115946", "plate_no": "YZ9431", "gap_start_time": "2024-06-08T11:59:46", "gap_end_time": "2024-06-08T15:31:01", "gap_duration_min": 211.25, "wasted_distance_km": 0.798, "prev_trip": "DA240608030501", "next_trip": "DA240608000511", "prev_O": [114.175839, 22.2728009], "next_O": [114.1734816, 22.2725317]}, "geometry": {"type": "LineString", "coordinates": [[114.16595, 22.278966], [114.171486, 22.273941]]}}, {"type": "Feature", "properties": {"id": "ghost_ZA3650_20240608090056", "plate_no": "ZA3650", "gap_start_time": "2024-06-08T09:00:56", "gap_end_time": "2024-06-08T10:15:24", "gap_duration_min": 74.47, "wasted_distance_km": 7.042, "prev_trip": "DA240608018401", "next_trip": "DA240608013111", "prev_O": [114.2375737, 22.4230553], "next_O": [114.1786768, 22.3122616]}, "geometry": {"type": "LineString", "coordinates": [[114.188601, 22.375181], [114.18004, 22.312348]]}}, {"type": "Feature", "properties": {"id": "ghost_ZA3650_20240608102924", "plate_no": "ZA3650", "gap_start_time": "2024-06-08T10:29:24", "gap_end_time": "2024-06-08T12:20:15", "gap_duration_min": 110.85, "wasted_distance_km": 0.013, "prev_trip": "DA240608013111", "next_trip": "DA240608013311", "prev_O": [114.1786768, 22.3122616], "next_O": [114.1726104, 22.314136]}, "geometry": {"type": "LineString", "coordinates": [[114.172496, 22.313921], [114.172378, 22.313888]]}}, {"type": "Feature", "properties": {"id": "ghost_ZA3650_20240608123046", "plate_no": "ZA3650", "gap_start_time": "2024-06-08T12:30:46", "gap_end_time": "2024-06-08T14:45:11", "gap_duration_min": 134.42, "wasted_distance_km": 0.498, "prev_trip": "DA240608013311", "next_trip": "DA240608012902", "prev_O": [114.1726104, 22.314136], "next_O": [114.1758412, 22.3194297]}, "geometry": {"type": "LineString", "coordinates": [[114.177866, 22.315058], [114.176151, 22.319246]]}}, {"type": "Feature", "properties": {"id": "ghost_ZA3805_20240608083931", "plate_no": "ZA3805", "gap_start_time": "2024-06-08T08:39:31", "gap_end_time": "2024-06-08T11:01:31", "gap_duration_min": 142.0, "wasted_distance_km": 21.383, "prev_trip": "DA240608031301", "next_trip": "DA240608023701", "prev_O": [114.195234, 22.387932], "next_O": [114.1267882, 22.494909]}, "geometry": {"type": "LineString", "coordinates": [[114.16456, 22.306435], [114.128473, 22.495821]]}}, {"type": "Feature", "properties": {"id": "ghost_ZA7388_20240608062009", "plate_no": "ZA7388", "gap_start_time": "2024-06-08T06:20:09", "gap_end_time": "2024-06-08T08:30:18", "gap_duration_min": 130.15, "wasted_distance_km": 5.532, "prev_trip": "DA240608021701", "next_trip": "DA240608016201", "prev_O": [114.1501361, 22.244705], "next_O": [114.2009377, 22.2920835]}, "geometry": {"type": "LineString", "coordinates": [[114.1474, 22.285896], [114.200811, 22.29158]]}}, {"type": "Feature", "properties": {"id": "ghost_ZA7388_20240608084348", "plate_no": "ZA7388", "gap_start_time": "2024-06-08T08:43:48", "gap_end_time": "2024-06-08T09:30:20", "gap_duration_min": 46.53, "wasted_distance_km": 0.885, "prev_trip": "DA240608016201", "next_trip": "DA240608026311", "prev_O": [114.2009377, 22.2920835], "next_O": [114.1847642, 22.2687633]}, "geometry": {"type": "LineString", "coordinates": [[114.189971, 22.274868], [114.184423, 22.268783]]}}, {"type": "Feature", "properties": {"id": "ghost_ZA7388_20240608095149", "plate_no": "ZA7388", "gap_start_time": "2024-06-08T09:51:49", "gap_end_time": "2024-06-08T13:30:13", "gap_duration_min": 218.4, "wasted_distance_km": 8.874, "prev_trip": "DA240608026311", "next_trip": "DA240608017011", "prev_O": [114.1847642, 22.2687633], "next_O": [114.1534172, 22.2867371]}, "geometry": {"type": "LineString", "coordinates": [[114.237045, 22.265726], [114.153598, 22.285893]]}}, {"type": "Feature", "properties": {"id": "ghost_ZA7388_20240608135543", "plate_no": "ZA7388", "gap_start_time": "2024-06-08T13:55:43", "gap_end_time": "2024-06-08T16:45:24", "gap_duration_min": 169.68, "wasted_distance_km": 5.883, "prev_trip": "DA240608017011", "next_trip": "DA240608003011", "prev_O": [114.1534172, 22.2867371], "next_O": [114.1941178, 22.2884225]}, "geometry": {"type": "LineString", "coordinates": [[114.166328, 22.24363], [114.194783, 22.289516]]}}, {"type": "Feature", "properties": {"id": "ghost_ZA976_20240608105629", "plate_no": "ZA976", "gap_start_time": "2024-06-08T10:56:29", "gap_end_time": "2024-06-08T12:15:29", "gap_duration_min": 79.0, "wasted_distance_km": 1.717, "prev_trip": "DA240608030811", "next_trip": "DA240608024911", "prev_O": [114.1688084, 22.4426526], "next_O": [114.1613761, 22.3200828]}, "geometry": {"type": "LineString", "coordinates": [[114.16255, 22.335501], [114.161355, 22.3201]]}}, {"type": "Feature", "properties": {"id": "ghost_ZB3917_20240608093305", "plate_no": "ZB3917", "gap_start_time": "2024-06-08T09:33:05", "gap_end_time": "2024-06-08T14:31:03", "gap_duration_min": 297.97, "wasted_distance_km": 5.257, "prev_trip": "DA240608007511", "next_trip": "DA240608012602", "prev_O": [114.1309497, 22.3545456], "next_O": [114.1758412, 22.3194297]}, "geometry": {"type": "LineString", "coordinates": [[114.224711, 22.331566], [114.17561, 22.318458]]}}]}