{"type": "FeatureCollection", "features": [{"type": "Feature", "properties": {"id": "ghost_RV4356_20240630110915", "plate_no": "RV4356", "gap_start_time": "2024-06-30T11:09:15", "gap_end_time": "2024-06-30T13:30:16", "gap_duration_min": 141.02, "wasted_distance_km": 6.483, "prev_trip": "DA240630011911", "next_trip": "DA240630002901", "prev_O": [114.159174, 22.249964], "next_O": [114.1737752, 22.3192759]}, "geometry": {"type": "LineString", "coordinates": [[114.199336, 22.371933], [114.173878, 22.318595], [114.173878, 22.318595]]}}, {"type": "Feature", "properties": {"id": "ghost_RV4356_20240630135046", "plate_no": "RV4356", "gap_start_time": "2024-06-30T13:50:46", "gap_end_time": "2024-06-30T17:25:18", "gap_duration_min": 214.53, "wasted_distance_km": 1.17, "prev_trip": "DA240630002901", "next_trip": "DA240630010502", "prev_O": [114.1737752, 22.3192759], "next_O": [114.159174, 22.249964]}, "geometry": {"type": "LineString", "coordinates": [[114.166715, 22.245918], [114.156168, 22.249848], [114.156168, 22.249848]]}}, {"type": "Feature", "properties": {"id": "ghost_RX2070_20240630090919", "plate_no": "RX2070", "gap_start_time": "2024-06-30T09:09:19", "gap_end_time": "2024-06-30T09:45:19", "gap_duration_min": 36.0, "wasted_distance_km": 1.47, "prev_trip": "DA240630018511", "next_trip": "DA240630003001", "prev_O": [114.190706, 22.342478], "next_O": [114.2371957, 22.3060262]}, "geometry": {"type": "LineString", "coordinates": [[114.224896, 22.313121], [114.236915, 22.305966], [114.236915, 22.305966]]}}, {"type": "Feature", "properties": {"id": "ghost_RX3329_20240630093637", "plate_no": "RX3329", "gap_start_time": "2024-06-30T09:36:37", "gap_end_time": "2024-06-30T11:30:19", "gap_duration_min": 113.7, "wasted_distance_km": 10.438, "prev_trip": "DA240630009201", "next_trip": "DA240630015402", "prev_O": [114.2152034, 22.2836357], "next_O": [114.256657, 22.311238]}, "geometry": {"type": "LineString", "coordinates": [[114.205846, 22.390888], [114.257728, 22.310205], [114.257728, 22.310205]]}}, {"type": "Feature", "properties": {"id": "ghost_SL9703_20240630112143", "plate_no": "SL9703", "gap_start_time": "2024-06-30T11:21:43", "gap_end_time": "2024-06-30T15:00:58", "gap_duration_min": 219.25, "wasted_distance_km": 0.103, "prev_trip": "DA240630001811", "next_trip": "DA240630001911", "prev_O": [114.1567547, 22.4475678], "next_O": [114.1941333, 22.2884017]}, "geometry": {"type": "LineString", "coordinates": [[114.193458, 22.28838], [114.194231, 22.287796], [114.194231, 22.287796]]}}, {"type": "Feature", "properties": {"id": "ghost_TB9578_20240630083027", "plate_no": "TB9578", "gap_start_time": "2024-06-30T08:30:27", "gap_end_time": "2024-06-30T10:00:27", "gap_duration_min": 90.0, "wasted_distance_km": 8.189, "prev_trip": "DA240630019801", "next_trip": "DA240630004901", "prev_O": [114.2339811, 22.310777], "next_O": [114.2559063, 22.3149238]}, "geometry": {"type": "LineString", "coordinates": [[114.17743, 22.303155], [114.255991, 22.31504], [114.255991, 22.31504]]}}, {"type": "Feature", "properties": {"id": "ghost_TB9578_20240630100857", "plate_no": "TB9578", "gap_start_time": "2024-06-30T10:08:57", "gap_end_time": "2024-06-30T10:50:27", "gap_duration_min": 41.5, "wasted_distance_km": 2.809, "prev_trip": "DA240630004901", "next_trip": "DA240630004301", "prev_O": [114.2559063, 22.3149238], "next_O": [114.2331127, 22.3069935]}, "geometry": {"type": "LineString", "coordinates": [[114.256138, 22.319923], [114.23249, 22.307285], [114.23249, 22.307285]]}}, {"type": "Feature", "properties": {"id": "ghost_TB9578_20240630110227", "plate_no": "TB9578", "gap_start_time": "2024-06-30T11:02:27", "gap_end_time": "2024-06-30T13:10:05", "gap_duration_min": 127.63, "wasted_distance_km": 0.237, "prev_trip": "DA240630004301", "next_trip": "DA240630004302", "prev_O": [114.2331127, 22.3069935], "next_O": [114.206607, 22.2920629]}, "geometry": {"type": "LineString", "coordinates": [[114.205206, 22.293161], [114.206833, 22.291656], [114.206833, 22.291656]]}}, {"type": "Feature", "properties": {"id": "ghost_TB9578_20240630133235", "plate_no": "TB9578", "gap_start_time": "2024-06-30T13:32:35", "gap_end_time": "2024-06-30T15:30:06", "gap_duration_min": 117.52, "wasted_distance_km": 2.99, "prev_trip": "DA240630004302", "next_trip": "DA240630004902", "prev_O": [114.206607, 22.2920629], "next_O": [114.2571136, 22.3216179]}, "geometry": {"type": "LineString", "coordinates": [[114.234128, 22.30839], [114.257225, 22.324711], [114.257225, 22.324711]]}}, {"type": "Feature", "properties": {"id": "ghost_TB9578_20240630153536", "plate_no": "TB9578", "gap_start_time": "2024-06-30T15:35:36", "gap_end_time": "2024-06-30T16:40:27", "gap_duration_min": 64.85, "wasted_distance_km": 2.919, "prev_trip": "DA240630004902", "next_trip": "DA240630010601", "prev_O": [114.2571136, 22.3216179], "next_O": [114.2299447, 22.3143508]}, "geometry": {"type": "LineString", "coordinates": [[114.257828, 22.314628], [114.229463, 22.315476], [114.229463, 22.315476]]}}, {"type": "Feature", "properties": {"id": "ghost_TC5012_20240630095826", "plate_no": "TC5012", "gap_start_time": "2024-06-30T09:58:26", "gap_end_time": "2024-06-30T12:53:56", "gap_duration_min": 175.5, "wasted_distance_km": 8.806, "prev_trip": "DA240630015401", "next_trip": "DA240630008002", "prev_O": [114.255644, 22.322861], "next_O": [114.1802128, 22.2763155]}, "geometry": {"type": "LineString", "coordinates": [[114.257086, 22.31099], [114.180031, 22.276506], [114.180031, 22.276506]]}}, {"type": "Feature", "properties": {"id": "ghost_TC5012_20240630130954", "plate_no": "TC5012", "gap_start_time": "2024-06-30T13:09:54", "gap_end_time": "2024-06-30T15:44:41", "gap_duration_min": 154.78, "wasted_distance_km": 4.932, "prev_trip": "DA240630008002", "next_trip": "DA240630001502", "prev_O": [114.1802128, 22.2763155], "next_O": [114.2633643, 22.306645]}, "geometry": {"type": "LineString", "coordinates": [[114.226906, 22.278421], [114.263615, 22.306945], [114.263615, 22.306945]]}}, {"type": "Feature", "properties": {"id": "ghost_TV9732_20240630082644", "plate_no": "TV9732", "gap_start_time": "2024-06-30T08:26:44", "gap_end_time": "2024-06-30T09:25:14", "gap_duration_min": 58.5, "wasted_distance_km": 1.422, "prev_trip": "DA240630008511", "next_trip": "DA240630002211", "prev_O": [114.1861542, 22.3419036], "next_O": [114.1824387, 22.3166818]}, "geometry": {"type": "LineString", "coordinates": [[114.177438, 22.303128], [114.183481, 22.314626], [114.183481, 22.314626]]}}, {"type": "Feature", "properties": {"id": "ghost_TV9732_20240630093044", "plate_no": "TV9732", "gap_start_time": "2024-06-30T09:30:44", "gap_end_time": "2024-06-30T11:45:23", "gap_duration_min": 134.65, "wasted_distance_km": 0.069, "prev_trip": "DA240630002211", "next_trip": "DA240630002311", "prev_O": [114.1824387, 22.3166818], "next_O": [114.182692, 22.31886]}, "geometry": {"type": "LineString", "coordinates": [[114.182971, 22.31928], [114.182306, 22.319215], [114.182306, 22.319215]]}}, {"type": "Feature", "properties": {"id": "ghost_TW7410_20240630082520", "plate_no": "TW7410", "gap_start_time": "2024-06-30T08:25:20", "gap_end_time": "2024-06-30T12:45:22", "gap_duration_min": 260.03, "wasted_distance_km": 5.067, "prev_trip": "DA240630000101", "next_trip": "DA240630012801", "prev_O": [114.2387658, 22.2647989], "next_O": [114.2012365, 22.2911583]}, "geometry": {"type": "LineString", "coordinates": [[114.240666, 22.264505], [114.200758, 22.291196], [114.200758, 22.291196]]}}, {"type": "Feature", "properties": {"id": "ghost_TY3250_20240630121005", "plate_no": "TY3250", "gap_start_time": "2024-06-30T12:10:05", "gap_end_time": "2024-06-30T13:50:10", "gap_duration_min": 100.08, "wasted_distance_km": 10.15, "prev_trip": "DA240630009901", "next_trip": "DA240630012911", "prev_O": [114.2396535, 22.2933512], "next_O": [114.1272602, 22.2805453]}, "geometry": {"type": "LineString", "coordinates": [[114.22611, 22.281015], [114.127465, 22.280153], [114.127465, 22.280153]]}}, {"type": "Feature", "properties": {"id": "ghost_TY3250_20240630142340", "plate_no": "TY3250", "gap_start_time": "2024-06-30T14:23:40", "gap_end_time": "2024-06-30T17:15:14", "gap_duration_min": 171.57, "wasted_distance_km": 6.702, "prev_trip": "DA240630012911", "next_trip": "DA240630009902", "prev_O": [114.1272602, 22.2805453], "next_O": [114.2270223, 22.2814869]}, "geometry": {"type": "LineString", "coordinates": [[114.200586, 22.336441], [114.226556, 22.281168], [114.226556, 22.281168]]}}, {"type": "Feature", "properties": {"id": "ghost_TY3864_20240630094857", "plate_no": "TY3864", "gap_start_time": "2024-06-30T09:48:57", "gap_end_time": "2024-06-30T10:30:27", "gap_duration_min": 41.5, "wasted_distance_km": 10.438, "prev_trip": "DA240630004801", "next_trip": "DA240630015701", "prev_O": [114.231082, 22.325573], "next_O": [114.1642456, 22.2463683]}, "geometry": {"type": "LineString", "coordinates": [[114.148683, 22.338678], [114.164081, 22.245893], [114.164081, 22.245893]]}}, {"type": "Feature", "properties": {"id": "ghost_TY3864_20240630110327", "plate_no": "TY3864", "gap_start_time": "2024-06-30T11:03:27", "gap_end_time": "2024-06-30T16:32:49", "gap_duration_min": 329.37, "wasted_distance_km": 9.807, "prev_trip": "DA240630015701", "next_trip": "DA240630002902", "prev_O": [114.1642456, 22.2463683], "next_O": [114.164656, 22.2466407]}, "geometry": {"type": "LineString", "coordinates": [[114.157561, 22.33442], [114.163885, 22.246421], [114.163885, 22.246421]]}}, {"type": "Feature", "properties": {"id": "ghost_UN9790_20240630084809", "plate_no": "UN9790", "gap_start_time": "2024-06-30T08:48:09", "gap_end_time": "2024-06-30T12:45:29", "gap_duration_min": 237.33, "wasted_distance_km": 1.819, "prev_trip": "DA240630001301", "next_trip": "DA240630005702", "prev_O": [113.9642856, 22.373932], "next_O": [113.9792362, 22.3877306]}, "geometry": {"type": "LineString", "coordinates": [[113.978153, 22.404161], [113.97941, 22.387841], [113.97941, 22.387841]]}}, {"type": "Feature", "properties": {"id": "ghost_UN9790_20240630130059", "plate_no": "UN9790", "gap_start_time": "2024-06-30T13:00:59", "gap_end_time": "2024-06-30T16:30:20", "gap_duration_min": 209.35, "wasted_distance_km": 3.182, "prev_trip": "DA240630005702", "next_trip": "DA240630010402", "prev_O": [113.9792362, 22.3877306], "next_O": [113.9752841, 22.4145003]}, "geometry": {"type": "LineString", "coordinates": [[113.980676, 22.386526], [113.974728, 22.414611], [113.974728, 22.414611]]}}, {"type": "Feature", "properties": {"id": "ghost_UP3870_20240630083356", "plate_no": "UP3870", "gap_start_time": "2024-06-30T08:33:56", "gap_end_time": "2024-06-30T09:00:26", "gap_duration_min": 26.5, "wasted_distance_km": 1.103, "prev_trip": "DA240630015111", "next_trip": "DA240630009101", "prev_O": [114.2314804, 22.4191167], "next_O": [114.2168687, 22.3982025]}, "geometry": {"type": "LineString", "coordinates": [[114.207783, 22.392836], [114.216793, 22.398223], [114.216793, 22.398223]]}}, {"type": "Feature", "properties": {"id": "ghost_UP3870_20240630091156", "plate_no": "UP3870", "gap_start_time": "2024-06-30T09:11:56", "gap_end_time": "2024-06-30T11:15:19", "gap_duration_min": 123.38, "wasted_distance_km": 0.365, "prev_trip": "DA240630009101", "next_trip": "DA240630009102", "prev_O": [114.2168687, 22.3982025], "next_O": [114.2358636, 22.4276804]}, "geometry": {"type": "LineString", "coordinates": [[114.234141, 22.425036], [114.23702, 22.426953], [114.23702, 22.426953]]}}, {"type": "Feature", "properties": {"id": "ghost_UP6949_20240630095023", "plate_no": "UP6949", "gap_start_time": "2024-06-30T09:50:23", "gap_end_time": "2024-06-30T11:15:18", "gap_duration_min": 84.92, "wasted_distance_km": 1.177, "prev_trip": "DA240630019911", "next_trip": "DA240630000502", "prev_O": [114.1985124, 22.3742141], "next_O": [114.2358636, 22.4276804]}, "geometry": {"type": "LineString", "coordinates": [[114.22732, 22.422151], [114.237401, 22.427171], [114.237401, 22.427171]]}}, {"type": "Feature", "properties": {"id": "ghost_UP6949_20240630114723", "plate_no": "UP6949", "gap_start_time": "2024-06-30T11:47:23", "gap_end_time": "2024-06-30T15:01:34", "gap_duration_min": 194.18, "wasted_distance_km": 7.22, "prev_trip": "DA240630000502", "next_trip": "DA240630010001", "prev_O": [114.2358636, 22.4276804], "next_O": [114.2503388, 22.4318668]}, "geometry": {"type": "LineString", "coordinates": [[114.200373, 22.387065], [114.250413, 22.432628], [114.250413, 22.432628]]}}, {"type": "Feature", "properties": {"id": "ghost_UP7636_20240630094556", "plate_no": "UP7636", "gap_start_time": "2024-06-30T09:45:56", "gap_end_time": "2024-06-30T14:18:50", "gap_duration_min": 272.9, "wasted_distance_km": 21.677, "prev_trip": "DA240630010301", "next_trip": "DA240630018401", "prev_O": [114.2183846, 22.3955654], "next_O": [114.1715708, 22.3354862]}, "geometry": {"type": "LineString", "coordinates": [[113.976341, 22.401015], [114.173268, 22.331461], [114.173268, 22.331461]]}}, {"type": "Feature", "properties": {"id": "ghost_UR468_20240630073656", "plate_no": "UR468", "gap_start_time": "2024-06-30T07:36:56", "gap_end_time": "2024-06-30T09:30:26", "gap_duration_min": 113.5, "wasted_distance_km": 2.976, "prev_trip": "DA240630014211", "next_trip": "DA240630004701", "prev_O": [114.0342, 22.4279779], "next_O": [114.0048658, 22.4494779]}, "geometry": {"type": "LineString", "coordinates": [[114.029613, 22.437576], [114.004103, 22.450246], [114.004103, 22.450246]]}}, {"type": "Feature", "properties": {"id": "ghost_VE6920_20240630091853", "plate_no": "VE6920", "gap_start_time": "2024-06-30T09:18:53", "gap_end_time": "2024-06-30T10:30:01", "gap_duration_min": 71.13, "wasted_distance_km": 5.406, "prev_trip": "DA240630007511", "next_trip": "DA240630017511", "prev_O": [114.2110747, 22.3283168], "next_O": [114.2726925, 22.2937258]}, "geometry": {"type": "LineString", "coordinates": [[114.222575, 22.308963], [114.27258, 22.294011], [114.27258, 22.294011]]}}, {"type": "Feature", "properties": {"id": "ghost_VE6920_20240630104901", "plate_no": "VE6920", "gap_start_time": "2024-06-30T10:49:01", "gap_end_time": "2024-06-30T12:15:05", "gap_duration_min": 86.07, "wasted_distance_km": 3.199, "prev_trip": "DA240630017511", "next_trip": "DA240630007611", "prev_O": [114.2726925, 22.2937258], "next_O": [114.2259254, 22.3104389]}, "geometry": {"type": "LineString", "coordinates": [[114.25706, 22.31127], [114.225988, 22.310103], [114.225988, 22.310103]]}}, {"type": "Feature", "properties": {"id": "ghost_VV6972_20240630100625", "plate_no": "VV6972", "gap_start_time": "2024-06-30T10:06:25", "gap_end_time": "2024-06-30T11:31:25", "gap_duration_min": 85.0, "wasted_distance_km": 3.495, "prev_trip": "DA240630014001", "next_trip": "DA240630015001", "prev_O": [114.2303659, 22.2776466], "next_O": [114.2046887, 22.3803766]}, "geometry": {"type": "LineString", "coordinates": [[114.2221, 22.406443], [114.20505, 22.379256], [114.20505, 22.379256]]}}, {"type": "Feature", "properties": {"id": "ghost_VV6972_20240630114425", "plate_no": "VV6972", "gap_start_time": "2024-06-30T11:44:25", "gap_end_time": "2024-06-30T13:41:34", "gap_duration_min": 117.15, "wasted_distance_km": 4.191, "prev_trip": "DA240630015001", "next_trip": "DA240630013111", "prev_O": [114.2046887, 22.3803766], "next_O": [114.2083207, 22.3433374]}, "geometry": {"type": "LineString", "coordinates": [[114.179243, 22.317301], [114.20867, 22.343366], [114.20867, 22.343366]]}}, {"type": "Feature", "properties": {"id": "ghost_VV6972_20240630142645", "plate_no": "VV6972", "gap_start_time": "2024-06-30T14:26:45", "gap_end_time": "2024-06-30T17:30:26", "gap_duration_min": 183.68, "wasted_distance_km": 23.887, "prev_trip": "DA240630013111", "next_trip": "DA240630014002", "prev_O": [114.2083207, 22.3433374], "next_O": [114.2227165, 22.4064718]}, "geometry": {"type": "LineString", "coordinates": [[114.016778, 22.307346], [114.22297, 22.406268], [114.22297, 22.406268]]}}, {"type": "Feature", "properties": {"id": "ghost_VW3047_20240630102340", "plate_no": "VW3047", "gap_start_time": "2024-06-30T10:23:40", "gap_end_time": "2024-06-30T14:30:05", "gap_duration_min": 246.42, "wasted_distance_km": 8.407, "prev_trip": "DA240630016201", "next_trip": "DA240630016302", "prev_O": [114.1023537, 22.3629331], "next_O": [114.1686847, 22.2993834]}, "geometry": {"type": "LineString", "coordinates": [[114.127185, 22.363938], [114.168651, 22.298783], [114.168651, 22.298783]]}}, {"type": "Feature", "properties": {"id": "ghost_VW5222_20240630083003", "plate_no": "VW5222", "gap_start_time": "2024-06-30T08:30:03", "gap_end_time": "2024-06-30T14:00:21", "gap_duration_min": 330.3, "wasted_distance_km": 4.566, "prev_trip": "DA240630011401", "next_trip": "DA240630016911", "prev_O": [114.2702546, 22.2944817], "next_O": [114.231016, 22.2606335]}, "geometry": {"type": "LineString", "coordinates": [[114.2021, 22.29143], [114.231221, 22.260445], [114.231221, 22.260445]]}}, {"type": "Feature", "properties": {"id": "ghost_VW7058_20240630094455", "plate_no": "VW7058", "gap_start_time": "2024-06-30T09:44:55", "gap_end_time": "2024-06-30T10:32:25", "gap_duration_min": 47.5, "wasted_distance_km": 3.267, "prev_trip": "DA240630016611", "next_trip": "DA240630012111", "prev_O": [113.9986706, 22.4597219], "next_O": [114.2419046, 22.42537]}, "geometry": {"type": "LineString", "coordinates": [[114.21142, 22.413298], [114.239636, 22.426823], [114.239636, 22.426823]]}}, {"type": "Feature", "properties": {"id": "ghost_VW7058_20240630105155", "plate_no": "VW7058", "gap_start_time": "2024-06-30T10:51:55", "gap_end_time": "2024-06-30T13:00:25", "gap_duration_min": 128.5, "wasted_distance_km": 2.345, "prev_trip": "DA240630012111", "next_trip": "DA240630016711", "prev_O": [114.2419046, 22.42537], "next_O": [114.2113817, 22.4136093]}, "geometry": {"type": "LineString", "coordinates": [[114.208196, 22.39233], [114.211425, 22.413203], [114.211425, 22.413203]]}}, {"type": "Feature", "properties": {"id": "ghost_VX3591_20240630120803", "plate_no": "VX3591", "gap_start_time": "2024-06-30T12:08:03", "gap_end_time": "2024-06-30T13:40:06", "gap_duration_min": 92.05, "wasted_distance_km": 5.763, "prev_trip": "DA240630006302", "next_trip": "DA240630009611", "prev_O": [113.9719753, 22.3815211], "next_O": [113.9961706, 22.4341317]}, "geometry": {"type": "LineString", "coordinates": [[113.975246, 22.386511], [113.996053, 22.434635], [113.996053, 22.434635]]}}, {"type": "Feature", "properties": {"id": "ghost_VY5967_20240630094744", "plate_no": "VY5967", "gap_start_time": "2024-06-30T09:47:44", "gap_end_time": "2024-06-30T11:55:05", "gap_duration_min": 127.35, "wasted_distance_km": 9.217, "prev_trip": "DA240630015511", "next_trip": "DA240630016301", "prev_O": [114.0377578, 22.4455871], "next_O": [114.194932, 22.3762097]}, "geometry": {"type": "LineString", "coordinates": [[114.170038, 22.296328], [114.195341, 22.37585], [114.195341, 22.37585]]}}, {"type": "Feature", "properties": {"id": "ghost_VY8279_20240630101459", "plate_no": "VY8279", "gap_start_time": "2024-06-30T10:14:59", "gap_end_time": "2024-06-30T12:15:11", "gap_duration_min": 120.2, "wasted_distance_km": 6.2, "prev_trip": "DA240630006401", "next_trip": "DA240630000202", "prev_O": [114.2581878, 22.3233143], "next_O": [114.1749415, 22.3700097]}, "geometry": {"type": "LineString", "coordinates": [[114.222941, 22.40657], [114.179006, 22.368376], [114.179006, 22.368376]]}}, {"type": "Feature", "properties": {"id": "ghost_VY8279_20240630121641", "plate_no": "VY8279", "gap_start_time": "2024-06-30T12:16:41", "gap_end_time": "2024-06-30T17:30:09", "gap_duration_min": 313.47, "wasted_distance_km": 6.027, "prev_trip": "DA240630000202", "next_trip": "DA240630006402", "prev_O": [114.1749415, 22.3700097], "next_O": [114.2225493, 22.4082198]}, "geometry": {"type": "LineString", "coordinates": [[114.180033, 22.3694], [114.22298, 22.40629], [114.22298, 22.40629]]}}, {"type": "Feature", "properties": {"id": "ghost_WP3306_20240630093434", "plate_no": "WP3306", "gap_start_time": "2024-06-30T09:34:34", "gap_end_time": "2024-06-30T10:30:04", "gap_duration_min": 55.5, "wasted_distance_km": 1.128, "prev_trip": "DA240630014611", "next_trip": "DA240630015911", "prev_O": [114.0125859, 22.3678397], "next_O": [114.1759364, 22.2510939]}, "geometry": {"type": "LineString", "coordinates": [[114.16472, 22.249316], [114.175545, 22.25093], [114.175545, 22.25093]]}}, {"type": "Feature", "properties": {"id": "ghost_WP3306_20240630105234", "plate_no": "WP3306", "gap_start_time": "2024-06-30T10:52:34", "gap_end_time": "2024-06-30T16:00:25", "gap_duration_min": 307.85, "wasted_distance_km": 14.718, "prev_trip": "DA240630015911", "next_trip": "DA240630005602", "prev_O": [114.1759364, 22.2510939], "next_O": [114.1225052, 22.3682938]}, "geometry": {"type": "LineString", "coordinates": [[114.227313, 22.278278], [114.122173, 22.368063], [114.122173, 22.368063]]}}, {"type": "Feature", "properties": {"id": "ghost_WP3825_20240630134008", "plate_no": "WP3825", "gap_start_time": "2024-06-30T13:40:08", "gap_end_time": "2024-06-30T14:01:09", "gap_duration_min": 21.02, "wasted_distance_km": 1.929, "prev_trip": "DA240630017102", "next_trip": "DA240630019802", "prev_O": [114.1883828, 22.3356331], "next_O": [114.1746148, 22.300414]}, "geometry": {"type": "LineString", "coordinates": [[114.179726, 22.317136], [114.17352, 22.300766], [114.17352, 22.300766]]}}, {"type": "Feature", "properties": {"id": "ghost_WP510_20240630091326", "plate_no": "WP510", "gap_start_time": "2024-06-30T09:13:26", "gap_end_time": "2024-06-30T10:30:32", "gap_duration_min": 77.1, "wasted_distance_km": 7.177, "prev_trip": "DA240630000501", "next_trip": "DA240630014101", "prev_O": [114.1967664, 22.3885926], "next_O": [114.1673908, 22.4428756]}, "geometry": {"type": "LineString", "coordinates": [[114.2341, 22.42521], [114.166838, 22.442545], [114.166838, 22.442545]]}}, {"type": "Feature", "properties": {"id": "ghost_WP510_20240630104602", "plate_no": "WP510", "gap_start_time": "2024-06-30T10:46:02", "gap_end_time": "2024-06-30T11:15:02", "gap_duration_min": 29.0, "wasted_distance_km": 5.101, "prev_trip": "DA240630014101", "next_trip": "DA240630000402", "prev_O": [114.1673908, 22.4428756], "next_O": [114.2358636, 22.4276804]}, "geometry": {"type": "LineString", "coordinates": [[114.208718, 22.389391], [114.236996, 22.427086], [114.236996, 22.427086]]}}, {"type": "Feature", "properties": {"id": "ghost_WP510_20240630113602", "plate_no": "WP510", "gap_start_time": "2024-06-30T11:36:02", "gap_end_time": "2024-06-30T15:00:00", "gap_duration_min": 203.97, "wasted_distance_km": 23.975, "prev_trip": "DA240630000402", "next_trip": "DA240630018011", "prev_O": [114.2358636, 22.4276804], "next_O": [113.9799924, 22.3851448]}, "geometry": {"type": "LineString", "coordinates": [[114.212728, 22.399356], [113.980043, 22.38504], [113.980043, 22.38504]]}}, {"type": "Feature", "properties": {"id": "ghost_XE2198_20240630090903", "plate_no": "XE2198", "gap_start_time": "2024-06-30T09:09:03", "gap_end_time": "2024-06-30T13:30:02", "gap_duration_min": 260.98, "wasted_distance_km": 5.011, "prev_trip": "DA240630000801", "next_trip": "DA240630008201", "prev_O": [114.2294373, 22.4161286], "next_O": [114.2089158, 22.385752]}, "geometry": {"type": "LineString", "coordinates": [[114.233826, 22.42556], [114.209218, 22.386663], [114.209218, 22.386663]]}}, {"type": "Feature", "properties": {"id": "ghost_XE2198_20240630140132", "plate_no": "XE2198", "gap_start_time": "2024-06-30T14:01:32", "gap_end_time": "2024-06-30T16:00:01", "gap_duration_min": 118.48, "wasted_distance_km": 0.037, "prev_trip": "DA240630008201", "next_trip": "DA240630008202", "prev_O": [114.2089158, 22.385752], "next_O": [114.2214997, 22.3107319]}, "geometry": {"type": "LineString", "coordinates": [[114.221531, 22.310481], [114.221628, 22.310805], [114.221628, 22.310805]]}}, {"type": "Feature", "properties": {"id": "ghost_XE7168_20240630081954", "plate_no": "XE7168", "gap_start_time": "2024-06-30T08:19:54", "gap_end_time": "2024-06-30T11:00:25", "gap_duration_min": 160.52, "wasted_distance_km": 0.417, "prev_trip": "DA240630003811", "next_trip": "DA240630004011", "prev_O": [114.2168288, 22.3242203], "next_O": [114.2156772, 22.3177996]}, "geometry": {"type": "LineString", "coordinates": [[114.21835, 22.315095], [114.215775, 22.317995], [114.215775, 22.317995]]}}, {"type": "Feature", "properties": {"id": "ghost_XE7595_20240630101019", "plate_no": "XE7595", "gap_start_time": "2024-06-30T10:10:19", "gap_end_time": "2024-06-30T15:00:18", "gap_duration_min": 289.98, "wasted_distance_km": 6.156, "prev_trip": "DA240630000901", "next_trip": "DA240630019011", "prev_O": [114.1055607, 22.3610656], "next_O": [114.1604226, 22.3305507]}, "geometry": {"type": "LineString", "coordinates": [[114.1147, 22.366131], [114.160518, 22.330511], [114.160518, 22.330511]]}}, {"type": "Feature", "properties": {"id": "ghost_XE7595_20240630151248", "plate_no": "XE7595", "gap_start_time": "2024-06-30T15:12:48", "gap_end_time": "2024-06-30T16:15:18", "gap_duration_min": 62.5, "wasted_distance_km": 2.331, "prev_trip": "DA240630019011", "next_trip": "DA240630018402", "prev_O": [114.1604226, 22.3305507], "next_O": [114.1730979, 22.3316763]}, "geometry": {"type": "LineString", "coordinates": [[114.170206, 22.314758], [114.17222, 22.335635], [114.17222, 22.335635]]}}, {"type": "Feature", "properties": {"id": "ghost_XN6179_20240630091144", "plate_no": "XN6179", "gap_start_time": "2024-06-30T09:11:44", "gap_end_time": "2024-06-30T13:00:13", "gap_duration_min": 228.48, "wasted_distance_km": 12.396, "prev_trip": "DA240630000401", "next_trip": "DA240630013301", "prev_O": [114.2168687, 22.3982025], "next_O": [114.1680907, 22.3332819]}, "geometry": {"type": "LineString", "coordinates": [[114.233816, 22.426281], [114.167725, 22.333041], [114.167725, 22.333041]]}}, {"type": "Feature", "properties": {"id": "ghost_XN6179_20240630135843", "plate_no": "XN6179", "gap_start_time": "2024-06-30T13:58:43", "gap_end_time": "2024-06-30T16:30:13", "gap_duration_min": 151.5, "wasted_distance_km": 0.034, "prev_trip": "DA240630013301", "next_trip": "DA240630013302", "prev_O": [114.1680907, 22.3332819], "next_O": [114.1498217, 22.4816744]}, "geometry": {"type": "LineString", "coordinates": [[114.149531, 22.481548], [114.149235, 22.481418], [114.149235, 22.481418]]}}, {"type": "Feature", "properties": {"id": "ghost_XU7187_20240630105424", "plate_no": "XU7187", "gap_start_time": "2024-06-30T10:54:24", "gap_end_time": "2024-06-30T12:01:24", "gap_duration_min": 67.0, "wasted_distance_km": 5.147, "prev_trip": "DA240630008311", "next_trip": "DA240630012002", "prev_O": [114.1393313, 22.2578067], "next_O": [114.1380346, 22.2871261]}, "geometry": {"type": "LineString", "coordinates": [[114.149568, 22.242228], [114.139045, 22.287483], [114.139045, 22.287483]]}}, {"type": "Feature", "properties": {"id": "ghost_XU7187_20240630122924", "plate_no": "XU7187", "gap_start_time": "2024-06-30T12:29:24", "gap_end_time": "2024-06-30T13:16:20", "gap_duration_min": 46.93, "wasted_distance_km": 11.771, "prev_trip": "DA240630012002", "next_trip": "DA240630004702", "prev_O": [114.1380346, 22.2871261], "next_O": [114.069125, 22.436165]}, "geometry": {"type": "LineString", "coordinates": [[114.137645, 22.351778], [114.068976, 22.436485], [114.068976, 22.436485]]}}, {"type": "Feature", "properties": {"id": "ghost_XV2836_20240630083612", "plate_no": "XV2836", "gap_start_time": "2024-06-30T08:36:12", "gap_end_time": "2024-06-30T12:10:10", "gap_duration_min": 213.97, "wasted_distance_km": 0.348, "prev_trip": "DA240630006811", "next_trip": "DA240630001711", "prev_O": [114.2427183, 22.2646264], "next_O": [114.2337094, 22.262039]}, "geometry": {"type": "LineString", "coordinates": [[114.236611, 22.261623], [114.233228, 22.261748], [114.233228, 22.261748]]}}, {"type": "Feature", "properties": {"id": "ghost_XV7468_20240630091215", "plate_no": "XV7468", "gap_start_time": "2024-06-30T09:12:15", "gap_end_time": "2024-06-30T14:21:40", "gap_duration_min": 309.42, "wasted_distance_km": 3.987, "prev_trip": "DA240630007901", "next_trip": "DA240630019511", "prev_O": [114.199602, 22.350058], "next_O": [114.225222, 22.312401]}, "geometry": {"type": "LineString", "coordinates": [[114.190951, 22.333601], [114.22323, 22.313755], [114.22323, 22.313755]]}}, {"type": "Feature", "properties": {"id": "ghost_YK4725_20240630092159", "plate_no": "YK4725", "gap_start_time": "2024-06-30T09:21:59", "gap_end_time": "2024-06-30T12:00:02", "gap_duration_min": 158.05, "wasted_distance_km": 6.628, "prev_trip": "DA240630017811", "next_trip": "DA240630020001", "prev_O": [114.229125, 22.3155505], "next_O": [114.234519, 22.31035]}, "geometry": {"type": "LineString", "coordinates": [[114.171745, 22.319771], [114.235421, 22.310678], [114.235421, 22.310678]]}}, {"type": "Feature", "properties": {"id": "ghost_YK4725_20240630123632", "plate_no": "YK4725", "gap_start_time": "2024-06-30T12:36:32", "gap_end_time": "2024-06-30T17:30:32", "gap_duration_min": 294.0, "wasted_distance_km": 7.888, "prev_trip": "DA240630020001", "next_trip": "DA240630018102", "prev_O": [114.234519, 22.31035], "next_O": [114.1497148, 22.3374258]}, "geometry": {"type": "LineString", "coordinates": [[114.225735, 22.330526], [114.149408, 22.337415], [114.149408, 22.337415]]}}, {"type": "Feature", "properties": {"id": "ghost_YL1821_20240630093400", "plate_no": "YL1821", "gap_start_time": "2024-06-30T09:34:00", "gap_end_time": "2024-06-30T10:45:01", "gap_duration_min": 71.02, "wasted_distance_km": 0.642, "prev_trip": "DA240630006301", "next_trip": "DA240630005701", "prev_O": [113.9770187, 22.3878801], "next_O": [113.976817, 22.387882]}, "geometry": {"type": "LineString", "coordinates": [[113.975291, 22.382565], [113.97729, 22.388038], [113.97729, 22.388038]]}}, {"type": "Feature", "properties": {"id": "ghost_YL9716_20240630113201", "plate_no": "YL9716", "gap_start_time": "2024-06-30T11:32:01", "gap_end_time": "2024-06-30T15:36:43", "gap_duration_min": 244.7, "wasted_distance_km": 8.235, "prev_trip": "DA240630001202", "next_trip": "DA240630012602", "prev_O": [114.137493, 22.2572259], "next_O": [114.171981, 22.323]}, "geometry": {"type": "LineString", "coordinates": [[114.136976, 22.258451], [114.172448, 22.324843], [114.172448, 22.324843]]}}, {"type": "Feature", "properties": {"id": "ghost_YY7621_20240630102838", "plate_no": "YY7621", "gap_start_time": "2024-06-30T10:28:38", "gap_end_time": "2024-06-30T14:00:20", "gap_duration_min": 211.7, "wasted_distance_km": 7.079, "prev_trip": "DA240630008101", "next_trip": "DA240630018101", "prev_O": [114.199679, 22.3964246], "next_O": [114.2396535, 22.3096507]}, "geometry": {"type": "LineString", "coordinates": [[114.178836, 22.28038], [114.240135, 22.309301], [114.240135, 22.309301]]}}, {"type": "Feature", "properties": {"id": "ghost_YZ2545_20240630091151", "plate_no": "YZ2545", "gap_start_time": "2024-06-30T09:11:51", "gap_end_time": "2024-06-30T11:15:12", "gap_duration_min": 123.35, "wasted_distance_km": 0.349, "prev_trip": "DA240630000601", "next_trip": "DA240630000602", "prev_O": [114.125774, 22.493591], "next_O": [114.2358636, 22.4276804]}, "geometry": {"type": "LineString", "coordinates": [[114.233806, 22.426206], [114.237076, 22.427055], [114.237076, 22.427055]]}}, {"type": "Feature", "properties": {"id": "ghost_ZA3406_20240630111448", "plate_no": "ZA3406", "gap_start_time": "2024-06-30T11:14:48", "gap_end_time": "2024-06-30T13:00:47", "gap_duration_min": 105.98, "wasted_distance_km": 0.331, "prev_trip": "DA240630019601", "next_trip": "DA240630019602", "prev_O": [114.175839, 22.2728009], "next_O": [114.161759, 22.28237]}, "geometry": {"type": "LineString", "coordinates": [[114.159638, 22.282448], [114.15811, 22.285068], [114.15811, 22.285068]]}}, {"type": "Feature", "properties": {"id": "ghost_ZA3406_20240630130717", "plate_no": "ZA3406", "gap_start_time": "2024-06-30T13:07:17", "gap_end_time": "2024-06-30T15:00:22", "gap_duration_min": 113.08, "wasted_distance_km": 2.599, "prev_trip": "DA240630019602", "next_trip": "DA240630002111", "prev_O": [114.161759, 22.28237], "next_O": [114.1941333, 22.2884017]}, "geometry": {"type": "LineString", "coordinates": [[114.178546, 22.2705], [114.194941, 22.288281], [114.194941, 22.288281]]}}, {"type": "Feature", "properties": {"id": "ghost_ZA4388_20240630092210", "plate_no": "ZA4388", "gap_start_time": "2024-06-30T09:22:10", "gap_end_time": "2024-06-30T11:10:11", "gap_duration_min": 108.02, "wasted_distance_km": 0.392, "prev_trip": "DA240630000301", "next_trip": "DA240630000302", "prev_O": [114.143284, 22.4857616], "next_O": [114.2358636, 22.4276804]}, "geometry": {"type": "LineString", "coordinates": [[114.2342, 22.424805], [114.237168, 22.427021], [114.237168, 22.427021]]}}, {"type": "Feature", "properties": {"id": "ghost_ZA6585_20240630074049", "plate_no": "ZA6585", "gap_start_time": "2024-06-30T07:40:49", "gap_end_time": "2024-06-30T10:00:23", "gap_duration_min": 139.57, "wasted_distance_km": 3.448, "prev_trip": "DA240630011101", "next_trip": "DA240630012601", "prev_O": [114.136552, 22.250488], "next_O": [114.1245247, 22.2709886]}, "geometry": {"type": "LineString", "coordinates": [[114.148093, 22.249521], [114.124211, 22.271271], [114.124211, 22.271271]]}}, {"type": "Feature", "properties": {"id": "ghost_ZA6585_20240630102453", "plate_no": "ZA6585", "gap_start_time": "2024-06-30T10:24:53", "gap_end_time": "2024-06-30T14:30:51", "gap_duration_min": 245.97, "wasted_distance_km": 1.646, "prev_trip": "DA240630012601", "next_trip": "DA240630003002", "prev_O": [114.1245247, 22.2709886], "next_O": [114.169504, 22.3050535]}, "geometry": {"type": "LineString", "coordinates": [[114.172673, 22.319751], [114.16971, 22.305201], [114.16971, 22.305201]]}}, {"type": "Feature", "properties": {"id": "ghost_ZA6941_20240630085745", "plate_no": "ZA6941", "gap_start_time": "2024-06-30T08:57:45", "gap_end_time": "2024-06-30T09:35:16", "gap_duration_min": 37.52, "wasted_distance_km": 0.084, "prev_trip": "DA240630011201", "next_trip": "DA240630011102", "prev_O": [114.1566154, 22.241485], "next_O": [114.1478782, 22.2498261]}, "geometry": {"type": "LineString", "coordinates": [[114.14722, 22.249433], [114.148028, 22.24954], [114.148028, 22.24954]]}}, {"type": "Feature", "properties": {"id": "ghost_ZA6941_20240630094546", "plate_no": "ZA6941", "gap_start_time": "2024-06-30T09:45:46", "gap_end_time": "2024-06-30T11:20:16", "gap_duration_min": 94.5, "wasted_distance_km": 1.185, "prev_trip": "DA240630011102", "next_trip": "DA240630011202", "prev_O": [114.1478782, 22.2498261], "next_O": [114.1478782, 22.2498261]}, "geometry": {"type": "LineString", "coordinates": [[114.136546, 22.25095], [114.147968, 22.24961], [114.147968, 22.24961]]}}, {"type": "Feature", "properties": {"id": "ghost_ZA6941_20240630112146", "plate_no": "ZA6941", "gap_start_time": "2024-06-30T11:21:46", "gap_end_time": "2024-06-30T13:30:11", "gap_duration_min": 128.42, "wasted_distance_km": 1.558, "prev_trip": "DA240630011202", "next_trip": "DA240630006001", "prev_O": [114.1478782, 22.2498261], "next_O": [114.1377977, 22.2585542]}, "geometry": {"type": "LineString", "coordinates": [[114.148666, 22.24929], [114.137736, 22.258985], [114.137736, 22.258985]]}}, {"type": "Feature", "properties": {"id": "ghost_ZA6941_20240630134447", "plate_no": "ZA6941", "gap_start_time": "2024-06-30T13:44:47", "gap_end_time": "2024-06-30T16:00:48", "gap_duration_min": 136.02, "wasted_distance_km": 0.101, "prev_trip": "DA240630006001", "next_trip": "DA240630006002", "prev_O": [114.1377977, 22.2585542], "next_O": [114.1821226, 22.2768126]}, "geometry": {"type": "LineString", "coordinates": [[114.180513, 22.276255], [114.181381, 22.276681], [114.181381, 22.276681]]}}, {"type": "Feature", "properties": {"id": "ghost_ZB1369_20240630084955", "plate_no": "ZB1369", "gap_start_time": "2024-06-30T08:49:55", "gap_end_time": "2024-06-30T10:00:29", "gap_duration_min": 70.57, "wasted_distance_km": 4.977, "prev_trip": "DA240630016011", "next_trip": "DA240630001001", "prev_O": [114.1847642, 22.2687633], "next_O": [114.1927476, 22.2834462]}, "geometry": {"type": "LineString", "coordinates": [[114.237116, 22.265695], [114.192566, 22.283136], [114.192566, 22.283136]]}}, {"type": "Feature", "properties": {"id": "ghost_ZB1369_20240630101629", "plate_no": "ZB1369", "gap_start_time": "2024-06-30T10:16:29", "gap_end_time": "2024-06-30T11:30:27", "gap_duration_min": 73.97, "wasted_distance_km": 3.383, "prev_trip": "DA240630001001", "next_trip": "DA240630013201", "prev_O": [114.1927476, 22.2834462], "next_O": [114.1385055, 22.258284]}, "geometry": {"type": "LineString", "coordinates": [[114.158325, 22.282681], [114.13817, 22.258646], [114.13817, 22.258646]]}}, {"type": "Feature", "properties": {"id": "ghost_ZB1369_20240630115357", "plate_no": "ZB1369", "gap_start_time": "2024-06-30T11:53:57", "gap_end_time": "2024-06-30T12:50:23", "gap_duration_min": 56.43, "wasted_distance_km": 0.37, "prev_trip": "DA240630013201", "next_trip": "DA240630001002", "prev_O": [114.1385055, 22.258284], "next_O": [114.1554024, 22.2796308]}, "geometry": {"type": "LineString", "coordinates": [[114.154968, 22.282998], [114.155285, 22.27968], [114.155285, 22.27968]]}}]}