{"type": "FeatureCollection", "features": [{"type": "Feature", "properties": {"id": "ghost_RV8266_20240609134838", "plate_no": "RV8266", "gap_start_time": "2024-06-09T13:48:38", "gap_end_time": "2024-06-09T16:30:12", "gap_duration_min": 161.57, "wasted_distance_km": 0.353, "prev_trip": "DA240609007101", "next_trip": "DA240609007102", "prev_O": [114.1737752, 22.3192759], "next_O": [114.1642456, 22.2463683]}, "geometry": {"type": "LineString", "coordinates": [[114.166805, 22.245993], [114.16338, 22.246091]]}}, {"type": "Feature", "properties": {"id": "ghost_RX3329_20240609091639", "plate_no": "RX3329", "gap_start_time": "2024-06-09T09:16:39", "gap_end_time": "2024-06-09T09:47:47", "gap_duration_min": 31.13, "wasted_distance_km": 3.62, "prev_trip": "DA240609021311", "next_trip": "DA240609022001", "prev_O": [114.2110747, 22.3283168], "next_O": [114.2303659, 22.2776466]}, "geometry": {"type": "LineString", "coordinates": [[114.222591, 22.309006], [114.230505, 22.277281], [114.230505, 22.277281]]}}, {"type": "Feature", "properties": {"id": "ghost_SL9703_20240609100613", "plate_no": "SL9703", "gap_start_time": "2024-06-09T10:06:13", "gap_end_time": "2024-06-09T11:50:19", "gap_duration_min": 104.1, "wasted_distance_km": 3.067, "prev_trip": "DA240609005201", "next_trip": "DA240609021011", "prev_O": [114.163574, 22.43394], "next_O": [114.1923776, 22.3079644]}, "geometry": {"type": "LineString", "coordinates": [[114.175093, 22.33037], [114.192683, 22.308098]]}}, {"type": "Feature", "properties": {"id": "ghost_SL9703_20240609120749", "plate_no": "SL9703", "gap_start_time": "2024-06-09T12:07:49", "gap_end_time": "2024-06-09T16:00:19", "gap_duration_min": 232.5, "wasted_distance_km": 18.906, "prev_trip": "DA240609021011", "next_trip": "DA240609016011", "prev_O": [114.1923776, 22.3079644], "next_O": [114.1360446, 22.5035068]}, "geometry": {"type": "LineString", "coordinates": [[114.150468, 22.333793], [114.136156, 22.503303]]}}, {"type": "Feature", "properties": {"id": "ghost_TV8531_20240609100801", "plate_no": "TV8531", "gap_start_time": "2024-06-09T10:08:01", "gap_end_time": "2024-06-09T10:45:07", "gap_duration_min": 37.1, "wasted_distance_km": 1.413, "prev_trip": "DA240609009301", "next_trip": "DA240609012711", "prev_O": [114.2581878, 22.3233143], "next_O": [114.227208, 22.417964]}, "geometry": {"type": "LineString", "coordinates": [[114.222103, 22.40643], [114.227795, 22.417995]]}}, {"type": "Feature", "properties": {"id": "ghost_TV9732_20240609085742", "plate_no": "TV9732", "gap_start_time": "2024-06-09T08:57:42", "gap_end_time": "2024-06-09T11:40:19", "gap_duration_min": 162.62, "wasted_distance_km": 11.168, "prev_trip": "DA240609009911", "next_trip": "DA240609019511", "prev_O": [114.2269991, 22.2807278], "next_O": [114.242281, 22.297986]}, "geometry": {"type": "LineString", "coordinates": [[114.147326, 22.249493], [114.242155, 22.298355], [114.242155, 22.298355]]}}, {"type": "Feature", "properties": {"id": "ghost_TY3250_20240609134027", "plate_no": "TY3250", "gap_start_time": "2024-06-09T13:40:27", "gap_end_time": "2024-06-09T17:15:27", "gap_duration_min": 215.0, "wasted_distance_km": 10.071, "prev_trip": "DA240609008511", "next_trip": "DA240609014002", "prev_O": [114.1283752, 22.3593896], "next_O": [114.2270223, 22.2814869]}, "geometry": {"type": "LineString", "coordinates": [[114.154506, 22.338531], [114.227548, 22.27823]]}}, {"type": "Feature", "properties": {"id": "ghost_TY3864_20240609090406", "plate_no": "TY3864", "gap_start_time": "2024-06-09T09:04:06", "gap_end_time": "2024-06-09T13:00:00", "gap_duration_min": 235.9, "wasted_distance_km": 9.598, "prev_trip": "DA240609006411", "next_trip": "DA240609011101", "prev_O": [114.2000956, 22.3444194], "next_O": [114.2183846, 22.3955654]}, "geometry": {"type": "LineString", "coordinates": [[114.237776, 22.311165], [114.218693, 22.395661]]}}, {"type": "Feature", "properties": {"id": "ghost_TY3864_20240609132909", "plate_no": "TY3864", "gap_start_time": "2024-06-09T13:29:09", "gap_end_time": "2024-06-09T16:30:02", "gap_duration_min": 180.88, "wasted_distance_km": 0.329, "prev_trip": "DA240609011101", "next_trip": "DA240609011102", "prev_O": [114.2183846, 22.3955654], "next_O": [114.1522308, 22.2810944]}, "geometry": {"type": "LineString", "coordinates": [[114.15466, 22.278965], [114.1523, 22.280963]]}}, {"type": "Feature", "properties": {"id": "ghost_UL4469_20240609112855", "plate_no": "UL4469", "gap_start_time": "2024-06-09T11:28:55", "gap_end_time": "2024-06-09T13:00:29", "gap_duration_min": 91.57, "wasted_distance_km": 1.052, "prev_trip": "DA240609009602", "next_trip": "DA240609020601", "prev_O": [114.1478782, 22.2498261], "next_O": [114.1501361, 22.244705]}, "geometry": {"type": "LineString", "coordinates": [[114.150001, 22.2514], [114.154476, 22.242895]]}}, {"type": "Feature", "properties": {"id": "ghost_UM5134_20240609115313", "plate_no": "UM5134", "gap_start_time": "2024-06-09T11:53:13", "gap_end_time": "2024-06-09T12:25:13", "gap_duration_min": 32.0, "wasted_distance_km": 4.856, "prev_trip": "DA240609002111", "next_trip": "DA240609004202", "prev_O": [114.1567547, 22.4475678], "next_O": [114.233905, 22.264608]}, "geometry": {"type": "LineString", "coordinates": [[114.194868, 22.288255], [114.234435, 22.26446]]}}, {"type": "Feature", "properties": {"id": "ghost_UM5134_20240609123343", "plate_no": "UM5134", "gap_start_time": "2024-06-09T12:33:43", "gap_end_time": "2024-06-09T13:30:28", "gap_duration_min": 56.75, "wasted_distance_km": 3.105, "prev_trip": "DA240609004202", "next_trip": "DA240609004102", "prev_O": [114.233905, 22.264608], "next_O": [114.200486, 22.2922246]}, "geometry": {"type": "LineString", "coordinates": [[114.228246, 22.28216], [114.200345, 22.292813]]}}, {"type": "Feature", "properties": {"id": "ghost_UM5134_20240609134358", "plate_no": "UM5134", "gap_start_time": "2024-06-09T13:43:58", "gap_end_time": "2024-06-09T16:15:28", "gap_duration_min": 151.5, "wasted_distance_km": 3.645, "prev_trip": "DA240609004102", "next_trip": "DA240609002211", "prev_O": [114.200486, 22.2922246], "next_O": [114.1941178, 22.2884225]}, "geometry": {"type": "LineString", "coordinates": [[114.228948, 22.27972], [114.194681, 22.288048]]}}, {"type": "Feature", "properties": {"id": "ghost_UM7167_20240609083404", "plate_no": "UM7167", "gap_start_time": "2024-06-09T08:34:04", "gap_end_time": "2024-06-09T09:20:04", "gap_duration_min": 46.0, "wasted_distance_km": 4.207, "prev_trip": "DA240609016111", "next_trip": "DA240609013901", "prev_O": [114.2314804, 22.4191167], "next_O": [114.2073775, 22.429827]}, "geometry": {"type": "LineString", "coordinates": [[114.208225, 22.392303], [114.207793, 22.430131]]}}, {"type": "Feature", "properties": {"id": "ghost_UM7167_20240609093504", "plate_no": "UM7167", "gap_start_time": "2024-06-09T09:35:04", "gap_end_time": "2024-06-09T11:50:25", "gap_duration_min": 135.35, "wasted_distance_km": 0.458, "prev_trip": "DA240609013901", "next_trip": "DA240609013902", "prev_O": [114.2073775, 22.429827], "next_O": [114.2067158, 22.3815181]}, "geometry": {"type": "LineString", "coordinates": [[114.210176, 22.383358], [114.206933, 22.380531]]}}, {"type": "Feature", "properties": {"id": "ghost_UM7167_20240609120125", "plate_no": "UM7167", "gap_start_time": "2024-06-09T12:01:25", "gap_end_time": "2024-06-09T17:15:40", "gap_duration_min": 314.25, "wasted_distance_km": 4.982, "prev_trip": "DA240609013902", "next_trip": "DA240609017801", "prev_O": [114.2067158, 22.3815181], "next_O": [114.1726302, 22.4612951]}, "geometry": {"type": "LineString", "coordinates": [[114.207591, 22.426888], [114.172343, 22.457648]]}}, {"type": "Feature", "properties": {"id": "ghost_UN8698_20240609133710", "plate_no": "UN8698", "gap_start_time": "2024-06-09T13:37:10", "gap_end_time": "2024-06-09T15:30:28", "gap_duration_min": 113.3, "wasted_distance_km": 1.134, "prev_trip": "DA240609019811", "next_trip": "DA240609005411", "prev_O": [114.1735961, 22.4623443], "next_O": [114.103119, 22.353436]}, "geometry": {"type": "LineString", "coordinates": [[114.10791, 22.344646], [114.10309, 22.353816]]}}, {"type": "Feature", "properties": {"id": "ghost_UN9790_20240609122304", "plate_no": "UN9790", "gap_start_time": "2024-06-09T12:23:04", "gap_end_time": "2024-06-09T16:00:00", "gap_duration_min": 216.93, "wasted_distance_km": 1.22, "prev_trip": "DA240609003111", "next_trip": "DA240609015302", "prev_O": [114.1913558, 22.2872008], "next_O": [113.9694978, 22.4074253]}, "geometry": {"type": "LineString", "coordinates": [[113.974293, 22.39581], [113.969163, 22.405703]]}}, {"type": "Feature", "properties": {"id": "ghost_UP3870_20240609114544", "plate_no": "UP3870", "gap_start_time": "2024-06-09T11:45:44", "gap_end_time": "2024-06-09T13:40:07", "gap_duration_min": 114.38, "wasted_distance_km": 7.465, "prev_trip": "DA240609018011", "next_trip": "DA240609013411", "prev_O": [113.96832, 22.4008], "next_O": [113.9961706, 22.4341317]}, "geometry": {"type": "LineString", "coordinates": [[113.960803, 22.3757], [113.997051, 22.433873]]}}, {"type": "Feature", "properties": {"id": "ghost_UP6949_20240609092826", "plate_no": "UP6949", "gap_start_time": "2024-06-09T09:28:26", "gap_end_time": "2024-06-09T10:00:16", "gap_duration_min": 31.83, "wasted_distance_km": 4.67, "prev_trip": "DA240609000401", "next_trip": "DA240609000201", "prev_O": [114.2168687, 22.3982025], "next_O": [114.1819745, 22.3714238]}, "geometry": {"type": "LineString", "coordinates": [[114.217535, 22.39845], [114.182333, 22.371915]]}}, {"type": "Feature", "properties": {"id": "ghost_UP6949_20240609100616", "plate_no": "UP6949", "gap_start_time": "2024-06-09T10:06:16", "gap_end_time": "2024-06-09T15:10:34", "gap_duration_min": 304.3, "wasted_distance_km": 6.967, "prev_trip": "DA240609000201", "next_trip": "DA240609005702", "prev_O": [114.1819745, 22.3714238], "next_O": [114.169504, 22.3050535]}, "geometry": {"type": "LineString", "coordinates": [[114.174663, 22.36795], [114.169678, 22.305466]]}}, {"type": "Feature", "properties": {"id": "ghost_VE6920_20240609102847", "plate_no": "VE6920", "gap_start_time": "2024-06-09T10:28:47", "gap_end_time": "2024-06-09T11:00:03", "gap_duration_min": 31.27, "wasted_distance_km": 5.395, "prev_trip": "DA240609020011", "next_trip": "DA240609020411", "prev_O": [114.2248163, 22.3271692], "next_O": [114.1875475, 22.3435146]}, "geometry": {"type": "LineString", "coordinates": [[114.22964, 22.313901], [114.187915, 22.343305]]}}, {"type": "Feature", "properties": {"id": "ghost_VE8500_20240609083146", "plate_no": "VE8500", "gap_start_time": "2024-06-09T08:31:46", "gap_end_time": "2024-06-09T11:30:47", "gap_duration_min": 179.02, "wasted_distance_km": 14.361, "prev_trip": "DA240609015801", "next_trip": "DA240609019901", "prev_O": [114.2702546, 22.2944817], "next_O": [114.2272041, 22.4180166]}, "geometry": {"type": "LineString", "coordinates": [[114.201976, 22.291576], [114.229646, 22.418163]]}}, {"type": "Feature", "properties": {"id": "ghost_VE8500_20240609114447", "plate_no": "VE8500", "gap_start_time": "2024-06-09T11:44:47", "gap_end_time": "2024-06-09T16:01:02", "gap_duration_min": 256.25, "wasted_distance_km": 16.408, "prev_trip": "DA240609019901", "next_trip": "DA240609015802", "prev_O": [114.2272041, 22.4180166], "next_O": [114.1977586, 22.2904115]}, "geometry": {"type": "LineString", "coordinates": [[114.16374, 22.434408], [114.195835, 22.289865]]}}, {"type": "Feature", "properties": {"id": "ghost_VV6972_20240609084157", "plate_no": "VV6972", "gap_start_time": "2024-06-09T08:41:57", "gap_end_time": "2024-06-09T09:30:27", "gap_duration_min": 48.5, "wasted_distance_km": 2.151, "prev_trip": "DA240609012211", "next_trip": "DA240609013201", "prev_O": [114.1861542, 22.3419036], "next_O": [114.1816439, 22.3194382]}, "geometry": {"type": "LineString", "coordinates": [[114.175905, 22.299691], [114.181933, 22.318215]]}}, {"type": "Feature", "properties": {"id": "ghost_VV6972_20240609094927", "plate_no": "VV6972", "gap_start_time": "2024-06-09T09:49:27", "gap_end_time": "2024-06-09T11:30:01", "gap_duration_min": 100.57, "wasted_distance_km": 0.443, "prev_trip": "DA240609013201", "next_trip": "DA240609013202", "prev_O": [114.1816439, 22.3194382], "next_O": [114.167667, 22.3069429]}, "geometry": {"type": "LineString", "coordinates": [[114.171938, 22.308411], [114.16786, 22.307143]]}}, {"type": "Feature", "properties": {"id": "ghost_VV6972_20240609114601", "plate_no": "VV6972", "gap_start_time": "2024-06-09T11:46:01", "gap_end_time": "2024-06-09T14:01:14", "gap_duration_min": 135.22, "wasted_distance_km": 3.845, "prev_trip": "DA240609013202", "next_trip": "DA240609013311", "prev_O": [114.167667, 22.3069429], "next_O": [114.2007315, 22.3455219]}, "geometry": {"type": "LineString", "coordinates": [[114.181298, 22.315606], [114.200573, 22.345231]]}}, {"type": "Feature", "properties": {"id": "ghost_VW3047_20240609085329", "plate_no": "VW3047", "gap_start_time": "2024-06-09T08:53:29", "gap_end_time": "2024-06-09T19:01:25", "gap_duration_min": 607.93, "wasted_distance_km": 9.329, "prev_trip": "DA240609001401", "next_trip": "DA240609008602", "prev_O": [114.196076, 22.388196], "next_O": [114.1104222, 22.3776784]}, "geometry": {"type": "LineString", "coordinates": [[114.199193, 22.396633], [114.111418, 22.37539]]}}, {"type": "Feature", "properties": {"id": "ghost_VW5222_20240609092042", "plate_no": "VW5222", "gap_start_time": "2024-06-09T09:20:42", "gap_end_time": "2024-06-09T15:40:29", "gap_duration_min": 379.78, "wasted_distance_km": 0.518, "prev_trip": "DA240609001801", "next_trip": "DA240609001802", "prev_O": [114.2687672, 22.3166476], "next_O": [114.2633643, 22.306645]}, "geometry": {"type": "LineString", "coordinates": [[114.258598, 22.307101], [114.263635, 22.306961]]}}, {"type": "Feature", "properties": {"id": "ghost_VX2887_20240609124932", "plate_no": "VX2887", "gap_start_time": "2024-06-09T12:49:32", "gap_end_time": "2024-06-09T15:05:18", "gap_duration_min": 135.77, "wasted_distance_km": 7.39, "prev_trip": "DA240609021411", "next_trip": "DA240609016611", "prev_O": [114.2259254, 22.3104389], "next_O": [114.171385, 22.3049096]}, "geometry": {"type": "LineString", "coordinates": [[114.18042, 22.369143], [114.170145, 22.303368]]}}, {"type": "Feature", "properties": {"id": "ghost_VY8279_20240609095531", "plate_no": "VY8279", "gap_start_time": "2024-06-09T09:55:31", "gap_end_time": "2024-06-09T15:35:02", "gap_duration_min": 339.52, "wasted_distance_km": 11.141, "prev_trip": "DA240609013101", "next_trip": "DA240609019111", "prev_O": [114.2541271, 22.3241653], "next_O": [114.231082, 22.325573]}, "geometry": {"type": "LineString", "coordinates": [[114.128525, 22.35785], [114.231378, 22.32641]]}}, {"type": "Feature", "properties": {"id": "ghost_WN9331_20240609102052", "plate_no": "WN9331", "gap_start_time": "2024-06-09T10:20:52", "gap_end_time": "2024-06-09T11:16:00", "gap_duration_min": 55.13, "wasted_distance_km": 8.939, "prev_trip": "DA240609017501", "next_trip": "DA240609015901", "prev_O": [114.1023537, 22.3629331], "next_O": [114.202966, 22.329745]}, "geometry": {"type": "LineString", "coordinates": [[114.126135, 22.36451], [114.204058, 22.328895]]}}, {"type": "Feature", "properties": {"id": "ghost_WN9331_20240609114100", "plate_no": "WN9331", "gap_start_time": "2024-06-09T11:41:00", "gap_end_time": "2024-06-09T17:30:13", "gap_duration_min": 349.22, "wasted_distance_km": 8.888, "prev_trip": "DA240609015901", "next_trip": "DA240609021902", "prev_O": [114.202966, 22.329745], "next_O": [114.1883828, 22.3356331]}, "geometry": {"type": "LineString", "coordinates": [[114.23682, 22.26919], [114.188396, 22.335381]]}}, {"type": "Feature", "properties": {"id": "ghost_WP510_20240609090943", "plate_no": "WP510", "gap_start_time": "2024-06-09T09:09:43", "gap_end_time": "2024-06-09T11:15:23", "gap_duration_min": 125.67, "wasted_distance_km": 0.011, "prev_trip": "DA240609000501", "next_trip": "DA240609000502", "prev_O": [114.1967664, 22.3885926], "next_O": [114.2174678, 22.3987589]}, "geometry": {"type": "LineString", "coordinates": [[114.217553, 22.398328], [114.217543, 22.398431]]}}, {"type": "Feature", "properties": {"id": "ghost_WP510_20240609112053", "plate_no": "WP510", "gap_start_time": "2024-06-09T11:20:53", "gap_end_time": "2024-06-09T13:31:04", "gap_duration_min": 130.18, "wasted_distance_km": 10.228, "prev_trip": "DA240609000502", "next_trip": "DA240609001601", "prev_O": [114.2174678, 22.3987589], "next_O": [114.2649147, 22.3180295]}, "geometry": {"type": "LineString", "coordinates": [[114.217206, 22.398311], [114.26488, 22.317583]]}}, {"type": "Feature", "properties": {"id": "ghost_WP923_20240609134102", "plate_no": "WP923", "gap_start_time": "2024-06-09T13:41:02", "gap_end_time": "2024-06-09T15:30:33", "gap_duration_min": 109.52, "wasted_distance_km": 0.529, "prev_trip": "DA240609000702", "next_trip": "DA240609009211", "prev_O": [114.2174678, 22.3987589], "next_O": [114.1795494, 22.372727]}, "geometry": {"type": "LineString", "coordinates": [[114.183313, 22.369766], [114.179355, 22.3728]]}}, {"type": "Feature", "properties": {"id": "ghost_XE1372_20240609103614", "plate_no": "XE1372", "gap_start_time": "2024-06-09T10:36:14", "gap_end_time": "2024-06-09T17:01:02", "gap_duration_min": 384.8, "wasted_distance_km": 7.273, "prev_trip": "DA240609020201", "next_trip": "DA240609020602", "prev_O": [114.2626162, 22.307042], "next_O": [114.1999476, 22.3928624]}, "geometry": {"type": "LineString", "coordinates": [[114.271015, 22.382225], [114.20143, 22.393975]]}}, {"type": "Feature", "properties": {"id": "ghost_XE2198_20240609105105", "plate_no": "XE2198", "gap_start_time": "2024-06-09T10:51:05", "gap_end_time": "2024-06-09T12:00:07", "gap_duration_min": 69.03, "wasted_distance_km": 2.679, "prev_trip": "DA240609007611", "next_trip": "DA240609014811", "prev_O": [114.2419046, 22.42537], "next_O": [114.2113817, 22.4136093]}, "geometry": {"type": "LineString", "coordinates": [[114.208376, 22.388881], [114.211416, 22.412806]]}}, {"type": "Feature", "properties": {"id": "ghost_XE7053_20240609091227", "plate_no": "XE7053", "gap_start_time": "2024-06-09T09:12:27", "gap_end_time": "2024-06-09T12:45:27", "gap_duration_min": 213.0, "wasted_distance_km": 22.589, "prev_trip": "DA240609010701", "next_trip": "DA240609008802", "prev_O": [114.199602, 22.350058], "next_O": [113.9792362, 22.3877306]}, "geometry": {"type": "LineString", "coordinates": [[114.190976, 22.33382], [113.979255, 22.387971]]}}, {"type": "Feature", "properties": {"id": "ghost_XE7053_20240609125727", "plate_no": "XE7053", "gap_start_time": "2024-06-09T12:57:27", "gap_end_time": "2024-06-09T15:00:35", "gap_duration_min": 123.13, "wasted_distance_km": 1.989, "prev_trip": "DA240609008802", "next_trip": "DA240609010311", "prev_O": [113.9792362, 22.3877306], "next_O": [113.9630378, 22.3763104]}, "geometry": {"type": "LineString", "coordinates": [[113.979933, 22.390233], [113.96644, 22.37741]]}}, {"type": "Feature", "properties": {"id": "ghost_XE7053_20240609154334", "plate_no": "XE7053", "gap_start_time": "2024-06-09T15:43:34", "gap_end_time": "2024-06-09T16:00:04", "gap_duration_min": 16.5, "wasted_distance_km": 0.639, "prev_trip": "DA240609010311", "next_trip": "DA240609017602", "prev_O": [113.9630378, 22.3763104], "next_O": [114.1623477, 22.3152239]}, "geometry": {"type": "LineString", "coordinates": [[114.161205, 22.320215], [114.162593, 22.31461]]}}, {"type": "Feature", "properties": {"id": "ghost_XE8413_20240609104641", "plate_no": "XE8413", "gap_start_time": "2024-06-09T10:46:41", "gap_end_time": "2024-06-09T13:45:00", "gap_duration_min": 178.32, "wasted_distance_km": 1.725, "prev_trip": "DA240609008801", "next_trip": "DA240609015611", "prev_O": [113.976817, 22.387882], "next_O": [113.9675167, 22.3750735]}, "geometry": {"type": "LineString", "coordinates": [[113.977511, 22.387713], [113.967586, 22.375203]]}}, {"type": "Feature", "properties": {"id": "ghost_XE8413_20240609140830", "plate_no": "XE8413", "gap_start_time": "2024-06-09T14:08:30", "gap_end_time": "2024-06-09T16:33:02", "gap_duration_min": 144.53, "wasted_distance_km": 14.263, "prev_trip": "DA240609015611", "next_trip": "DA240609014602", "prev_O": [113.9675167, 22.3750735], "next_O": [113.9752841, 22.4145003]}, "geometry": {"type": "LineString", "coordinates": [[114.10798, 22.378596], [113.974798, 22.414533]]}}, {"type": "Feature", "properties": {"id": "ghost_YK4725_20240609095418", "plate_no": "YK4725", "gap_start_time": "2024-06-09T09:54:18", "gap_end_time": "2024-06-09T16:15:14", "gap_duration_min": 380.93, "wasted_distance_km": 3.644, "prev_trip": "DA240609012611", "next_trip": "DA240609002411", "prev_O": [114.214978, 22.33253], "next_O": [114.1941178, 22.2884225]}, "geometry": {"type": "LineString", "coordinates": [[114.170908, 22.312208], [114.194871, 22.288075]]}}, {"type": "Feature", "properties": {"id": "ghost_YK6404_20240609075229", "plate_no": "YK6404", "gap_start_time": "2024-06-09T07:52:29", "gap_end_time": "2024-06-09T10:30:11", "gap_duration_min": 157.7, "wasted_distance_km": 8.277, "prev_trip": "DA240609014301", "next_trip": "DA240609004101", "prev_O": [114.2399321, 22.3366271], "next_O": [114.2268615, 22.2808976]}, "geometry": {"type": "LineString", "coordinates": [[114.157475, 22.243813], [114.226961, 22.281303]]}}, {"type": "Feature", "properties": {"id": "ghost_YK905_20240609092920", "plate_no": "YK905", "gap_start_time": "2024-06-09T09:29:20", "gap_end_time": "2024-06-09T10:50:02", "gap_duration_min": 80.7, "wasted_distance_km": 5.157, "prev_trip": "DA240609002511", "next_trip": "DA240609006101", "prev_O": [114.1824387, 22.3166818], "next_O": [114.233113, 22.306994]}, "geometry": {"type": "LineString", "coordinates": [[114.183008, 22.31678], [114.231983, 22.306866]]}}, {"type": "Feature", "properties": {"id": "ghost_YL714_20240609093524", "plate_no": "YL714", "gap_start_time": "2024-06-09T09:35:24", "gap_end_time": "2024-06-09T10:16:24", "gap_duration_min": 41.0, "wasted_distance_km": 1.402, "prev_trip": "DA240609007901", "next_trip": "DA240609018711", "prev_O": [114.171901, 22.3344171], "next_O": [114.2288759, 22.3216011]}, "geometry": {"type": "LineString", "coordinates": [[114.216628, 22.317765], [114.230211, 22.318846]]}}, {"type": "Feature", "properties": {"id": "ghost_YY6773_20240609125908", "plate_no": "YY6773", "gap_start_time": "2024-06-09T12:59:08", "gap_end_time": "2024-06-09T17:15:24", "gap_duration_min": 256.27, "wasted_distance_km": 3.093, "prev_trip": "DA240609018901", "next_trip": "DA240609015702", "prev_O": [114.2012365, 22.2911583], "next_O": [114.2000753, 22.2912858]}, "geometry": {"type": "LineString", "coordinates": [[114.174393, 22.277836], [114.200276, 22.291985]]}}, {"type": "Feature", "properties": {"id": "ghost_YY7490_20240609103055", "plate_no": "YY7490", "gap_start_time": "2024-06-09T10:30:55", "gap_end_time": "2024-06-09T11:30:08", "gap_duration_min": 59.22, "wasted_distance_km": 3.834, "prev_trip": "DA240609001001", "next_trip": "DA240609015701", "prev_O": [114.1927476, 22.2834462], "next_O": [114.1756154, 22.2506586]}, "geometry": {"type": "LineString", "coordinates": [[114.155261, 22.279873], [114.17559, 22.250976]]}}, {"type": "Feature", "properties": {"id": "ghost_YY7621_20240609100331", "plate_no": "YY7621", "gap_start_time": "2024-06-09T10:03:31", "gap_end_time": "2024-06-09T15:04:30", "gap_duration_min": 300.98, "wasted_distance_km": 29.827, "prev_trip": "DA240609021201", "next_trip": "DA240609021611", "prev_O": [113.9692277, 22.4018301], "next_O": [114.1739272, 22.2941573]}, "geometry": {"type": "LineString", "coordinates": [[113.919408, 22.42017], [114.175751, 22.294671]]}}, {"type": "Feature", "properties": {"id": "ghost_YY7621_20240609151900", "plate_no": "YY7621", "gap_start_time": "2024-06-09T15:19:00", "gap_end_time": "2024-06-09T17:05:00", "gap_duration_min": 106.0, "wasted_distance_km": 9.57, "prev_trip": "DA240609021611", "next_trip": "DA240609009111", "prev_O": [114.1739272, 22.2941573], "next_O": [114.272693, 22.2810124]}, "geometry": {"type": "LineString", "coordinates": [[114.197643, 22.331921], [114.272605, 22.28095]]}}, {"type": "Feature", "properties": {"id": "ghost_YZ9176_20240609084139", "plate_no": "YZ9176", "gap_start_time": "2024-06-09T08:41:39", "gap_end_time": "2024-06-09T12:10:25", "gap_duration_min": 208.77, "wasted_distance_km": 0.413, "prev_trip": "DA240609009811", "next_trip": "DA240609002011", "prev_O": [114.2427183, 22.2646264], "next_O": [114.2337094, 22.262039]}, "geometry": {"type": "LineString", "coordinates": [[114.233698, 22.261726], [114.23677, 22.264118]]}}, {"type": "Feature", "properties": {"id": "ghost_ZA4388_20240609085858", "plate_no": "ZA4388", "gap_start_time": "2024-06-09T08:58:58", "gap_end_time": "2024-06-09T11:15:27", "gap_duration_min": 136.48, "wasted_distance_km": 0.005, "prev_trip": "DA240609000601", "next_trip": "DA240609015511", "prev_O": [114.125774, 22.493591], "next_O": [114.2174678, 22.3987589]}, "geometry": {"type": "LineString", "coordinates": [[114.21753, 22.39835], [114.217561, 22.398388]]}}, {"type": "Feature", "properties": {"id": "ghost_ZA4388_20240609112927", "plate_no": "ZA4388", "gap_start_time": "2024-06-09T11:29:27", "gap_end_time": "2024-06-09T13:15:09", "gap_duration_min": 105.7, "wasted_distance_km": 0.327, "prev_trip": "DA240609015511", "next_trip": "DA240609000602", "prev_O": [114.2174678, 22.3987589], "next_O": [114.2174678, 22.3987589]}, "geometry": {"type": "LineString", "coordinates": [[114.218788, 22.395748], [114.217576, 22.398463]]}}, {"type": "Feature", "properties": {"id": "ghost_ZA6585_20240609073653", "plate_no": "ZA6585", "gap_start_time": "2024-06-09T07:36:53", "gap_end_time": "2024-06-09T08:45:25", "gap_duration_min": 68.53, "wasted_distance_km": 1.203, "prev_trip": "DA240609009501", "next_trip": "DA240609009601", "prev_O": [114.136552, 22.250488], "next_O": [114.1566154, 22.241485]}, "geometry": {"type": "LineString", "coordinates": [[114.149121, 22.249413], [114.157115, 22.241523]]}}, {"type": "Feature", "properties": {"id": "ghost_ZA6585_20240609085855", "plate_no": "ZA6585", "gap_start_time": "2024-06-09T08:58:55", "gap_end_time": "2024-06-09T13:00:05", "gap_duration_min": 241.17, "wasted_distance_km": 9.304, "prev_trip": "DA240609009601", "next_trip": "DA240609015902", "prev_O": [114.1566154, 22.241485], "next_O": [114.2362653, 22.2695993]}, "geometry": {"type": "LineString", "coordinates": [[114.148983, 22.249523], [114.236875, 22.26913]]}}, {"type": "Feature", "properties": {"id": "ghost_ZA6585_20240609132709", "plate_no": "ZA6585", "gap_start_time": "2024-06-09T13:27:09", "gap_end_time": "2024-06-09T15:00:00", "gap_duration_min": 92.85, "wasted_distance_km": 8.006, "prev_trip": "DA240609015902", "next_trip": "DA240609002911", "prev_O": [114.2362653, 22.2695993], "next_O": [114.236844, 22.2612174]}, "geometry": {"type": "LineString", "coordinates": [[114.203993, 22.327135], [114.236521, 22.26173]]}}, {"type": "Feature", "properties": {"id": "ghost_ZA6941_20240609091913", "plate_no": "ZA6941", "gap_start_time": "2024-06-09T09:19:13", "gap_end_time": "2024-06-09T14:00:15", "gap_duration_min": 281.03, "wasted_distance_km": 19.324, "prev_trip": "DA240609006601", "next_trip": "DA240609017502", "prev_O": [114.1398775, 22.2505584], "next_O": [114.1270786, 22.3641144]}, "geometry": {"type": "LineString", "coordinates": [[113.944331, 22.320973], [114.126196, 22.364645]]}}, {"type": "Feature", "properties": {"id": "ghost_ZA6941_20240609141915", "plate_no": "ZA6941", "gap_start_time": "2024-06-09T14:19:15", "gap_end_time": "2024-06-09T16:31:47", "gap_duration_min": 132.53, "wasted_distance_km": 17.095, "prev_trip": "DA240609017502", "next_trip": "DA240609006602", "prev_O": [114.1270786, 22.3641144], "next_O": [113.943288, 22.321343]}, "geometry": {"type": "LineString", "coordinates": [[114.10318, 22.35934], [113.943138, 22.317841]]}}]}