{"type": "FeatureCollection", "features": [{"type": "Feature", "properties": {"id": "ghost_RV8266_20240610151514", "plate_no": "RV8266", "gap_start_time": "2024-06-10T15:15:14", "gap_end_time": "2024-06-10T16:00:04", "gap_duration_min": 44.83, "wasted_distance_km": 6.11, "prev_trip": "DA240610012811", "next_trip": "DA240610008411", "prev_O": [114.139128, 22.2504021], "next_O": [114.159772, 22.334819]}, "geometry": {"type": "LineString", "coordinates": [[114.16985, 22.280653], [114.160325, 22.33489]]}}, {"type": "Feature", "properties": {"id": "ghost_RX3329_20240610062106", "plate_no": "RX3329", "gap_start_time": "2024-06-10T06:21:06", "gap_end_time": "2024-06-10T10:00:06", "gap_duration_min": 219.0, "wasted_distance_km": 16.551, "prev_trip": "DA240610003401", "next_trip": "DA240610004701", "prev_O": [114.227417, 22.3259462], "next_O": [114.1677623, 22.4552859]}, "geometry": {"type": "LineString", "coordinates": [[114.174468, 22.30693], [114.167973, 22.455655]]}}, {"type": "Feature", "properties": {"id": "ghost_RX3329_20240610104506", "plate_no": "RX3329", "gap_start_time": "2024-06-10T10:45:06", "gap_end_time": "2024-06-10T14:00:02", "gap_duration_min": 194.93, "wasted_distance_km": 3.77, "prev_trip": "DA240610004701", "next_trip": "DA240610003902", "prev_O": [114.1677623, 22.4552859], "next_O": [114.2216835, 22.3196755]}, "geometry": {"type": "LineString", "coordinates": [[114.247105, 22.294983], [114.222106, 22.319773]]}}, {"type": "Feature", "properties": {"id": "ghost_RX5674_20240610083557", "plate_no": "RX5674", "gap_start_time": "2024-06-10T08:35:57", "gap_end_time": "2024-06-10T12:30:02", "gap_duration_min": 234.08, "wasted_distance_km": 2.752, "prev_trip": "DA240610000201", "next_trip": "DA240610008701", "prev_O": [114.2687672, 22.3166476], "next_O": [114.2393516, 22.2942923]}, "geometry": {"type": "LineString", "coordinates": [[114.261741, 22.307725], [114.23929, 22.294263]]}}, {"type": "Feature", "properties": {"id": "ghost_RX5674_20240610125632", "plate_no": "RX5674", "gap_start_time": "2024-06-10T12:56:32", "gap_end_time": "2024-06-10T15:40:00", "gap_duration_min": 163.47, "wasted_distance_km": 4.138, "prev_trip": "DA240610008701", "next_trip": "DA240610000202", "prev_O": [114.2393516, 22.2942923], "next_O": [114.2633643, 22.306645]}, "geometry": {"type": "LineString", "coordinates": [[114.227521, 22.323131], [114.263751, 22.306951]]}}, {"type": "Feature", "properties": {"id": "ghost_SL7802_20240610104933", "plate_no": "SL7802", "gap_start_time": "2024-06-10T10:49:33", "gap_end_time": "2024-06-10T14:00:16", "gap_duration_min": 190.72, "wasted_distance_km": 4.114, "prev_trip": "DA240610001401", "next_trip": "DA240610009211", "prev_O": [114.1565225, 22.3342843], "next_O": [114.1656896, 22.2428389]}, "geometry": {"type": "LineString", "coordinates": [[114.174571, 22.278535], [114.165781, 22.242441]]}}, {"type": "Feature", "properties": {"id": "ghost_SL7802_20240610142944", "plate_no": "SL7802", "gap_start_time": "2024-06-10T14:29:44", "gap_end_time": "2024-06-10T18:00:20", "gap_duration_min": 210.6, "wasted_distance_km": 29.16, "prev_trip": "DA240610009211", "next_trip": "DA240610011201", "prev_O": [114.1656896, 22.2428389], "next_O": [113.9427268, 22.2858597]}, "geometry": {"type": "LineString", "coordinates": [[114.222991, 22.320485], [113.941621, 22.28876]]}}, {"type": "Feature", "properties": {"id": "ghost_TX9739_20240610055534", "plate_no": "TX9739", "gap_start_time": "2024-06-10T05:55:34", "gap_end_time": "2024-06-10T06:25:24", "gap_duration_min": 29.83, "wasted_distance_km": 2.376, "prev_trip": "DA240610011701", "next_trip": "DA240610002801", "prev_O": [114.2021245, 22.343312], "next_O": [114.167627, 22.316376]}, "geometry": {"type": "LineString", "coordinates": [[114.163246, 22.333591], [114.167361, 22.312563]]}}, {"type": "Feature", "properties": {"id": "ghost_TX9739_20240610062854", "plate_no": "TX9739", "gap_start_time": "2024-06-10T06:28:54", "gap_end_time": "2024-06-10T08:01:53", "gap_duration_min": 92.98, "wasted_distance_km": 5.643, "prev_trip": "DA240610002801", "next_trip": "DA240610006701", "prev_O": [114.167627, 22.316376], "next_O": [114.23515, 22.31755]}, "geometry": {"type": "LineString", "coordinates": [[114.177683, 22.317893], [114.232476, 22.320446]]}}, {"type": "Feature", "properties": {"id": "ghost_TX9739_20240610081524", "plate_no": "TX9739", "gap_start_time": "2024-06-10T08:15:24", "gap_end_time": "2024-06-10T10:00:01", "gap_duration_min": 104.62, "wasted_distance_km": 3.232, "prev_trip": "DA240610006701", "next_trip": "DA240610006911", "prev_O": [114.23515, 22.31755], "next_O": [114.2414181, 22.2974304]}, "geometry": {"type": "LineString", "coordinates": [[114.27193, 22.28996], [114.24146, 22.297043]]}}, {"type": "Feature", "properties": {"id": "ghost_TX9739_20240610101632", "plate_no": "TX9739", "gap_start_time": "2024-06-10T10:16:32", "gap_end_time": "2024-06-10T11:00:08", "gap_duration_min": 43.6, "wasted_distance_km": 1.452, "prev_trip": "DA240610006911", "next_trip": "DA240610009501", "prev_O": [114.2414181, 22.2974304], "next_O": [114.2496838, 22.3033577]}, "geometry": {"type": "LineString", "coordinates": [[114.263746, 22.306751], [114.25015, 22.303258]]}}, {"type": "Feature", "properties": {"id": "ghost_TX9739_20240610112905", "plate_no": "TX9739", "gap_start_time": "2024-06-10T11:29:05", "gap_end_time": "2024-06-10T14:00:10", "gap_duration_min": 151.08, "wasted_distance_km": 0.057, "prev_trip": "DA240610009501", "next_trip": "DA240610009502", "prev_O": [114.2496838, 22.3033577], "next_O": [114.1622139, 22.3239613]}, "geometry": {"type": "LineString", "coordinates": [[114.162465, 22.323716], [114.162591, 22.323216]]}}, {"type": "Feature", "properties": {"id": "ghost_TY3864_20240610162117", "plate_no": "TY3864", "gap_start_time": "2024-06-10T16:21:17", "gap_end_time": "2024-06-10T18:00:17", "gap_duration_min": 99.0, "wasted_distance_km": 5.077, "prev_trip": "DA240610008511", "next_trip": "DA240610013102", "prev_O": [113.9683995, 22.374979], "next_O": [114.179118, 22.27986]}, "geometry": {"type": "LineString", "coordinates": [[114.131938, 22.266773], [114.179108, 22.28015]]}}, {"type": "Feature", "properties": {"id": "ghost_UL3556_20240610190044", "plate_no": "UL3556", "gap_start_time": "2024-06-10T19:00:44", "gap_end_time": "2024-06-10T20:30:14", "gap_duration_min": 89.5, "wasted_distance_km": 10.541, "prev_trip": "DA240610012502", "next_trip": "DA240610008702", "prev_O": [114.1636164, 22.4337333], "next_O": [114.2270881, 22.3229689]}, "geometry": {"type": "LineString", "coordinates": [[114.229583, 22.417528], [114.227305, 22.322758]]}}, {"type": "Feature", "properties": {"id": "ghost_UL4469_20240610152306", "plate_no": "UL4469", "gap_start_time": "2024-06-10T15:23:06", "gap_end_time": "2024-06-10T16:00:35", "gap_duration_min": 37.48, "wasted_distance_km": 2.932, "prev_trip": "DA240610007011", "next_trip": "DA240610002511", "prev_O": [114.2633643, 22.306645], "next_O": [114.2207762, 22.3185839]}, "geometry": {"type": "LineString", "coordinates": [[114.238921, 22.297016], [114.2216, 22.317951]]}}, {"type": "Feature", "properties": {"id": "ghost_UL4469_20240610162732", "plate_no": "UL4469", "gap_start_time": "2024-06-10T16:27:32", "gap_end_time": "2024-06-10T17:20:01", "gap_duration_min": 52.48, "wasted_distance_km": 15.218, "prev_trip": "DA240610002511", "next_trip": "DA240610009411", "prev_O": [114.2207762, 22.3185839], "next_O": [114.1791746, 22.3199438]}, "geometry": {"type": "LineString", "coordinates": [[114.172311, 22.453696], [114.178445, 22.316951]]}}, {"type": "Feature", "properties": {"id": "ghost_UL4469_20240610174131", "plate_no": "UL4469", "gap_start_time": "2024-06-10T17:41:31", "gap_end_time": "2024-06-10T18:30:54", "gap_duration_min": 49.38, "wasted_distance_km": 1.012, "prev_trip": "DA240610009411", "next_trip": "DA240610004511", "prev_O": [114.1791746, 22.3199438], "next_O": [114.1123721, 22.3713902]}, "geometry": {"type": "LineString", "coordinates": [[114.1183, 22.368918], [114.111801, 22.375758]]}}, {"type": "Feature", "properties": {"id": "ghost_UN8698_20240610120525", "plate_no": "UN8698", "gap_start_time": "2024-06-10T12:05:25", "gap_end_time": "2024-06-10T18:30:32", "gap_duration_min": 385.12, "wasted_distance_km": 7.545, "prev_trip": "DA240610000611", "next_trip": "DA240610011502", "prev_O": [114.1294971, 22.5078859], "next_O": [114.1798555, 22.3398475]}, "geometry": {"type": "LineString", "coordinates": [[114.115156, 22.37137], [114.179966, 22.339566]]}}, {"type": "Feature", "properties": {"id": "ghost_UP3870_20240610091316", "plate_no": "UP3870", "gap_start_time": "2024-06-10T09:13:16", "gap_end_time": "2024-06-10T11:32:21", "gap_duration_min": 139.08, "wasted_distance_km": 10.405, "prev_trip": "DA240610005001", "next_trip": "DA240610012501", "prev_O": [114.199602, 22.350058], "next_O": [114.2272041, 22.4180166]}, "geometry": {"type": "LineString", "coordinates": [[114.19243, 22.331356], [114.230098, 22.418201]]}}, {"type": "Feature", "properties": {"id": "ghost_VE7538_20240610135611", "plate_no": "VE7538", "gap_start_time": "2024-06-10T13:56:11", "gap_end_time": "2024-06-10T16:00:11", "gap_duration_min": 124.0, "wasted_distance_km": 13.874, "prev_trip": "DA240610002311", "next_trip": "DA240610001811", "prev_O": [113.9692359, 22.4059684], "next_O": [114.1336703, 22.3785272]}, "geometry": {"type": "LineString", "coordinates": [[114.25762, 22.325081], [114.133771, 22.374545]]}}, {"type": "Feature", "properties": {"id": "ghost_WN9331_20240610143824", "plate_no": "WN9331", "gap_start_time": "2024-06-10T14:38:24", "gap_end_time": "2024-06-10T16:30:18", "gap_duration_min": 111.9, "wasted_distance_km": 0.342, "prev_trip": "DA240610008201", "next_trip": "DA240610008202", "prev_O": [114.253937, 22.307157], "next_O": [114.2099012, 22.2193417]}, "geometry": {"type": "LineString", "coordinates": [[114.212743, 22.220456], [114.209451, 22.220035]]}}, {"type": "Feature", "properties": {"id": "ghost_WP3825_20240610124359", "plate_no": "WP3825", "gap_start_time": "2024-06-10T12:43:59", "gap_end_time": "2024-06-10T17:30:26", "gap_duration_min": 286.45, "wasted_distance_km": 11.539, "prev_trip": "DA240610008801", "next_trip": "DA240610003102", "prev_O": [114.1307673, 22.3630464], "next_O": [114.1962374, 22.2378169]}, "geometry": {"type": "LineString", "coordinates": [[114.179776, 22.339638], [114.19712, 22.237113]]}}, {"type": "Feature", "properties": {"id": "ghost_XE7053_20240610203207", "plate_no": "XE7053", "gap_start_time": "2024-06-10T20:32:07", "gap_end_time": "2024-06-10T20:39:07", "gap_duration_min": 7.0, "wasted_distance_km": 2.53, "prev_trip": "DA240610007302", "next_trip": "DA240610013002", "prev_O": [114.22895, 22.3166112], "next_O": [114.1972372, 22.3407992]}, "geometry": {"type": "LineString", "coordinates": [[114.217813, 22.32649], [114.198516, 22.340595]]}}, {"type": "Feature", "properties": {"id": "ghost_XE7053_20240610205937", "plate_no": "XE7053", "gap_start_time": "2024-06-10T20:59:37", "gap_end_time": "2024-06-10T22:00:08", "gap_duration_min": 60.52, "wasted_distance_km": 5.927, "prev_trip": "DA240610013002", "next_trip": "DA240610012902", "prev_O": [114.1972372, 22.3407992], "next_O": [114.170131, 22.2801253]}, "geometry": {"type": "LineString", "coordinates": [[114.163145, 22.33378], [114.169358, 22.280785]]}}, {"type": "Feature", "properties": {"id": "ghost_XN5447_20240610064444", "plate_no": "XN5447", "gap_start_time": "2024-06-10T06:44:44", "gap_end_time": "2024-06-10T09:10:11", "gap_duration_min": 145.45, "wasted_distance_km": 3.657, "prev_trip": "DA240610005301", "next_trip": "DA240610008601", "prev_O": [114.2018517, 22.3360239], "next_O": [114.197051, 22.2893861]}, "geometry": {"type": "LineString", "coordinates": [[114.172395, 22.314605], [114.193555, 22.288173]]}}, {"type": "Feature", "properties": {"id": "ghost_YK5072_20240610114123", "plate_no": "YK5072", "gap_start_time": "2024-06-10T11:41:23", "gap_end_time": "2024-06-10T13:30:19", "gap_duration_min": 108.93, "wasted_distance_km": 2.246, "prev_trip": "DA240610009311", "next_trip": "DA240610000311", "prev_O": [114.1178066, 22.3689762], "next_O": [114.1643429, 22.3340746]}, "geometry": {"type": "LineString", "coordinates": [[114.17764, 22.31791], [114.16471, 22.334185]]}}, {"type": "Feature", "properties": {"id": "ghost_YK5072_20240610150644", "plate_no": "YK5072", "gap_start_time": "2024-06-10T15:06:44", "gap_end_time": "2024-06-10T19:07:30", "gap_duration_min": 240.77, "wasted_distance_km": 11.334, "prev_trip": "DA240610000311", "next_trip": "DA240610011902", "prev_O": [114.1643429, 22.3340746], "next_O": [114.225222, 22.312401]}, "geometry": {"type": "LineString", "coordinates": [[114.124315, 22.271275], [114.224733, 22.313186]]}}, {"type": "Feature", "properties": {"id": "ghost_ZA6941_20240610070340", "plate_no": "ZA6941", "gap_start_time": "2024-06-10T07:03:40", "gap_end_time": "2024-06-10T09:30:05", "gap_duration_min": 146.42, "wasted_distance_km": 8.381, "prev_trip": "DA240610000801", "next_trip": "DA240610000701", "prev_O": [114.2029271, 22.2860192], "next_O": [114.2270772, 22.2780082]}, "geometry": {"type": "LineString", "coordinates": [[114.180408, 22.339176], [114.227626, 22.277751]]}}, {"type": "Feature", "properties": {"id": "ghost_ZA6941_20240610105206", "plate_no": "ZA6941", "gap_start_time": "2024-06-10T10:52:06", "gap_end_time": "2024-06-10T14:45:03", "gap_duration_min": 232.95, "wasted_distance_km": 29.084, "prev_trip": "DA240610000701", "next_trip": "DA240610007601", "prev_O": [114.2270772, 22.2780082], "next_O": [114.13917, 22.258037]}, "geometry": {"type": "LineString", "coordinates": [[113.918793, 22.420181], [114.139266, 22.256396]]}}]}