{"type": "FeatureCollection", "features": [{"type": "Feature", "properties": {"id": "ghost_RV3895_20240627091649", "plate_no": "RV3895", "gap_start_time": "2024-06-27T09:16:49", "gap_end_time": "2024-06-27T10:30:04", "gap_duration_min": 73.25, "wasted_distance_km": 5.717, "prev_trip": "DA240627005711", "next_trip": "DA240627015702", "prev_O": [114.2480121, 22.3226228], "next_O": [114.1743747, 22.3091816]}, "geometry": {"type": "LineString", "coordinates": [[114.230611, 22.308041], [114.17504, 22.30876]]}}, {"type": "Feature", "properties": {"id": "ghost_RV3895_20240627103837", "plate_no": "RV3895", "gap_start_time": "2024-06-27T10:38:37", "gap_end_time": "2024-06-27T12:45:04", "gap_duration_min": 126.45, "wasted_distance_km": 5.968, "prev_trip": "DA240627015702", "next_trip": "DA240627013301", "prev_O": [114.1743747, 22.3091816], "next_O": [114.2331127, 22.3069935]}, "geometry": {"type": "LineString", "coordinates": [[114.174435, 22.307415], [114.232443, 22.307048]]}}, {"type": "Feature", "properties": {"id": "ghost_RV3895_20240627131232", "plate_no": "RV3895", "gap_start_time": "2024-06-27T13:12:32", "gap_end_time": "2024-06-27T14:00:24", "gap_duration_min": 47.87, "wasted_distance_km": 2.446, "prev_trip": "DA240627013301", "next_trip": "DA240627045511", "prev_O": [114.2331127, 22.3069935], "next_O": [114.1604226, 22.3305507]}, "geometry": {"type": "LineString", "coordinates": [[114.175603, 22.313328], [114.160703, 22.330468]]}}, {"type": "Feature", "properties": {"id": "ghost_RX3329_20240627063037", "plate_no": "RX3329", "gap_start_time": "2024-06-27T06:30:37", "gap_end_time": "2024-06-27T07:05:07", "gap_duration_min": 34.5, "wasted_distance_km": 1.792, "prev_trip": "DA240627013501", "next_trip": "DA240627002701", "prev_O": [114.167627, 22.316376], "next_O": [114.1890105, 22.3079943]}, "geometry": {"type": "LineString", "coordinates": [[114.175431, 22.318251], [114.18889, 22.308016]]}}, {"type": "Feature", "properties": {"id": "ghost_RX3329_20240627083037", "plate_no": "RX3329", "gap_start_time": "2024-06-27T08:30:37", "gap_end_time": "2024-06-27T13:45:45", "gap_duration_min": 315.13, "wasted_distance_km": 3.763, "prev_trip": "DA240627002701", "next_trip": "DA240627024311", "prev_O": [114.1890105, 22.3079943], "next_O": [114.192812, 22.308068]}, "geometry": {"type": "LineString", "coordinates": [[114.213138, 22.33599], [114.191935, 22.308415]]}}, {"type": "Feature", "properties": {"id": "ghost_RX5674_20240627084308", "plate_no": "RX5674", "gap_start_time": "2024-06-27T08:43:08", "gap_end_time": "2024-06-27T13:30:03", "gap_duration_min": 286.92, "wasted_distance_km": 13.867, "prev_trip": "DA240627006811", "next_trip": "DA240627004802", "prev_O": [114.2567421, 22.3113053], "next_O": [114.1254938, 22.3694653]}, "geometry": {"type": "LineString", "coordinates": [[114.251386, 22.326196], [114.124918, 22.369455]]}}, {"type": "Feature", "properties": {"id": "ghost_SL9199_20240627120933", "plate_no": "SL9199", "gap_start_time": "2024-06-27T12:09:33", "gap_end_time": "2024-06-27T18:00:04", "gap_duration_min": 350.52, "wasted_distance_km": 20.985, "prev_trip": "DA240627029311", "next_trip": "DA240627027902", "prev_O": [114.1835224, 22.3763661], "next_O": [114.0048672, 22.4473228]}, "geometry": {"type": "LineString", "coordinates": [[114.15817, 22.322068], [114.005311, 22.447128]]}}, {"type": "Feature", "properties": {"id": "ghost_SM140_20240627084021", "plate_no": "SM140", "gap_start_time": "2024-06-27T08:40:21", "gap_end_time": "2024-06-27T10:00:43", "gap_duration_min": 80.37, "wasted_distance_km": 25.537, "prev_trip": "DA240627015101", "next_trip": "DA240627017601", "prev_O": [114.192957, 22.332628], "next_O": [113.9405304, 22.2884302]}, "geometry": {"type": "LineString", "coordinates": [[114.18581, 22.32696], [113.941186, 22.287926]]}}, {"type": "Feature", "properties": {"id": "ghost_SM140_20240627105147", "plate_no": "SM140", "gap_start_time": "2024-06-27T10:51:47", "gap_end_time": "2024-06-27T13:00:17", "gap_duration_min": 128.5, "wasted_distance_km": 0.014, "prev_trip": "DA240627017601", "next_trip": "DA240627017602", "prev_O": [113.9405304, 22.2884302], "next_O": [114.1713296, 22.3304227]}, "geometry": {"type": "LineString", "coordinates": [[114.17189, 22.330478], [114.171965, 22.330376]]}}, {"type": "Feature", "properties": {"id": "ghost_SM453_20240627073359", "plate_no": "SM453", "gap_start_time": "2024-06-27T07:33:59", "gap_end_time": "2024-06-27T08:30:30", "gap_duration_min": 56.52, "wasted_distance_km": 3.81, "prev_trip": "DA240627030301", "next_trip": "DA240627044411", "prev_O": [114.1877101, 22.3257679], "next_O": [114.1927269, 22.2787965]}, "geometry": {"type": "LineString", "coordinates": [[114.171071, 22.250986], [114.192635, 22.27884]]}}, {"type": "Feature", "properties": {"id": "ghost_SM453_20240627085430", "plate_no": "SM453", "gap_start_time": "2024-06-27T08:54:30", "gap_end_time": "2024-06-27T09:30:04", "gap_duration_min": 35.57, "wasted_distance_km": 3.818, "prev_trip": "DA240627044411", "next_trip": "DA240627042211", "prev_O": [114.1927269, 22.2787965], "next_O": [114.2023571, 22.2909523]}, "geometry": {"type": "LineString", "coordinates": [[114.233198, 22.27157], [114.202506, 22.290866]]}}, {"type": "Feature", "properties": {"id": "ghost_TB7275_20240627080652", "plate_no": "TB7275", "gap_start_time": "2024-06-27T08:06:52", "gap_end_time": "2024-06-27T09:30:22", "gap_duration_min": 83.5, "wasted_distance_km": 1.647, "prev_trip": "DA240627027401", "next_trip": "DA240627034701", "prev_O": [114.113115, 22.369607], "next_O": [114.1027503, 22.3726581]}, "geometry": {"type": "LineString", "coordinates": [[114.117595, 22.366815], [114.10237, 22.371403]]}}, {"type": "Feature", "properties": {"id": "ghost_TB7275_20240627094522", "plate_no": "TB7275", "gap_start_time": "2024-06-27T09:45:22", "gap_end_time": "2024-06-27T11:00:00", "gap_duration_min": 74.63, "wasted_distance_km": 13.053, "prev_trip": "DA240627034701", "next_trip": "DA240627014402", "prev_O": [114.1027503, 22.3726581], "next_O": [114.230334, 22.307947]}, "geometry": {"type": "LineString", "coordinates": [[114.121661, 22.372115], [114.228188, 22.308311]]}}, {"type": "Feature", "properties": {"id": "ghost_TB7382_20240627120604", "plate_no": "TB7382", "gap_start_time": "2024-06-27T12:06:04", "gap_end_time": "2024-06-27T14:56:11", "gap_duration_min": 170.12, "wasted_distance_km": 6.402, "prev_trip": "DA240627048211", "next_trip": "DA240627042801", "prev_O": [114.2440086, 22.3214412], "next_O": [114.2037094, 22.3474998]}, "geometry": {"type": "LineString", "coordinates": [[114.202836, 22.288495], [114.199406, 22.345978]]}}, {"type": "Feature", "properties": {"id": "ghost_TB7382_20240627150040", "plate_no": "TB7382", "gap_start_time": "2024-06-27T15:00:40", "gap_end_time": "2024-06-27T16:15:11", "gap_duration_min": 74.52, "wasted_distance_km": 4.618, "prev_trip": "DA240627042801", "next_trip": "DA240627041502", "prev_O": [114.2037094, 22.3474998], "next_O": [114.199216, 22.380851]}, "geometry": {"type": "LineString", "coordinates": [[114.207503, 22.339915], [114.199236, 22.380735]]}}, {"type": "Feature", "properties": {"id": "ghost_TF1503_20240627095431", "plate_no": "TF1503", "gap_start_time": "2024-06-27T09:54:31", "gap_end_time": "2024-06-27T11:30:04", "gap_duration_min": 95.55, "wasted_distance_km": 0.007, "prev_trip": "DA240627037901", "next_trip": "DA240627037902", "prev_O": [114.137108, 22.5004969], "next_O": [114.1246908, 22.4968697]}, "geometry": {"type": "LineString", "coordinates": [[114.124925, 22.496388], [114.124985, 22.496355]]}}, {"type": "Feature", "properties": {"id": "ghost_TF6298_20240627121948", "plate_no": "TF6298", "gap_start_time": "2024-06-27T12:19:48", "gap_end_time": "2024-06-27T17:30:13", "gap_duration_min": 310.42, "wasted_distance_km": 4.64, "prev_trip": "DA240627030602", "next_trip": "DA240627030902", "prev_O": [114.1777472, 22.2755438], "next_O": [114.2165038, 22.2853919]}, "geometry": {"type": "LineString", "coordinates": [[114.17173, 22.276518], [114.215755, 22.285576]]}}, {"type": "Feature", "properties": {"id": "ghost_TV8531_20240627104912", "plate_no": "TV8531", "gap_start_time": "2024-06-27T10:49:12", "gap_end_time": "2024-06-27T13:00:06", "gap_duration_min": 130.9, "wasted_distance_km": 3.03, "prev_trip": "DA240627024801", "next_trip": "DA240627040911", "prev_O": [114.13917, 22.258037], "next_O": [114.2008874, 22.2926716]}, "geometry": {"type": "LineString", "coordinates": [[114.179366, 22.273673], [114.200631, 22.292525]]}}, {"type": "Feature", "properties": {"id": "ghost_TV8531_20240627132732", "plate_no": "TV8531", "gap_start_time": "2024-06-27T13:27:32", "gap_end_time": "2024-06-27T13:45:02", "gap_duration_min": 17.5, "wasted_distance_km": 0.351, "prev_trip": "DA240627040911", "next_trip": "DA240627041111", "prev_O": [114.2008874, 22.2926716], "next_O": [114.1931223, 22.2889581]}, "geometry": {"type": "LineString", "coordinates": [[114.190836, 22.285595], [114.192741, 22.28821]]}}, {"type": "Feature", "properties": {"id": "ghost_TW6581_20240627090431", "plate_no": "TW6581", "gap_start_time": "2024-06-27T09:04:31", "gap_end_time": "2024-06-27T10:30:25", "gap_duration_min": 85.9, "wasted_distance_km": 7.424, "prev_trip": "DA240627036101", "next_trip": "DA240627019911", "prev_O": [114.183085, 22.31494], "next_O": [114.2012008, 22.3449238]}, "geometry": {"type": "LineString", "coordinates": [[114.131853, 22.339601], [114.203646, 22.346535]]}}, {"type": "Feature", "properties": {"id": "ghost_TW6581_20240627103654", "plate_no": "TW6581", "gap_start_time": "2024-06-27T10:36:54", "gap_end_time": "2024-06-27T11:00:20", "gap_duration_min": 23.43, "wasted_distance_km": 0.916, "prev_trip": "DA240627019911", "next_trip": "DA240627041601", "prev_O": [114.2012008, 22.3449238], "next_O": [114.1928636, 22.3404826]}, "geometry": {"type": "LineString", "coordinates": [[114.194766, 22.348928], [114.192216, 22.341038]]}}, {"type": "Feature", "properties": {"id": "ghost_TW7410_20240627154611", "plate_no": "TW7410", "gap_start_time": "2024-06-27T15:46:11", "gap_end_time": "2024-06-27T16:53:40", "gap_duration_min": 67.48, "wasted_distance_km": 1.479, "prev_trip": "DA240627016201", "next_trip": "DA240627013102", "prev_O": [114.0974479, 22.3543394], "next_O": [114.2009991, 22.289963]}, "geometry": {"type": "LineString", "coordinates": [[114.191395, 22.285241], [114.203325, 22.292663]]}}, {"type": "Feature", "properties": {"id": "ghost_TW8217_20240627101156", "plate_no": "TW8217", "gap_start_time": "2024-06-27T10:11:56", "gap_end_time": "2024-06-27T10:45:56", "gap_duration_min": 34.0, "wasted_distance_km": 7.922, "prev_trip": "DA240627010301", "next_trip": "DA240627018201", "prev_O": [114.175644, 22.3701591], "next_O": [114.1934337, 22.3463861]}, "geometry": {"type": "LineString", "coordinates": [[114.118333, 22.368821], [114.191475, 22.346458]]}}, {"type": "Feature", "properties": {"id": "ghost_TW8217_20240627112156", "plate_no": "TW8217", "gap_start_time": "2024-06-27T11:21:56", "gap_end_time": "2024-06-27T17:00:01", "gap_duration_min": 338.08, "wasted_distance_km": 3.635, "prev_trip": "DA240627018201", "next_trip": "DA240627013302", "prev_O": [114.1934337, 22.3463861], "next_O": [114.1743747, 22.3091816]}, "geometry": {"type": "LineString", "coordinates": [[114.205661, 22.293455], [114.174921, 22.309575]]}}, {"type": "Feature", "properties": {"id": "ghost_TX9739_20240627055227", "plate_no": "TX9739", "gap_start_time": "2024-06-27T05:52:27", "gap_end_time": "2024-06-27T06:30:27", "gap_duration_min": 38.0, "wasted_distance_km": 3.07, "prev_trip": "DA240627017801", "next_trip": "DA240627012801", "prev_O": [114.0979333, 22.3489429], "next_O": [114.2029271, 22.2860192]}, "geometry": {"type": "LineString", "coordinates": [[114.174711, 22.278291], [114.20344, 22.285738]]}}, {"type": "Feature", "properties": {"id": "ghost_TX9739_20240627065028", "plate_no": "TX9739", "gap_start_time": "2024-06-27T06:50:28", "gap_end_time": "2024-06-27T08:00:09", "gap_duration_min": 69.68, "wasted_distance_km": 1.748, "prev_trip": "DA240627012801", "next_trip": "DA240627039401", "prev_O": [114.2029271, 22.2860192], "next_O": [114.190706, 22.342478]}, "geometry": {"type": "LineString", "coordinates": [[114.179013, 22.339], [114.195001, 22.344343]]}}, {"type": "Feature", "properties": {"id": "ghost_TX9739_20240627082841", "plate_no": "TX9739", "gap_start_time": "2024-06-27T08:28:41", "gap_end_time": "2024-06-27T16:30:26", "gap_duration_min": 481.75, "wasted_distance_km": 5.183, "prev_trip": "DA240627039401", "next_trip": "DA240627047211", "prev_O": [114.190706, 22.342478], "next_O": [114.2362653, 22.2695993]}, "geometry": {"type": "LineString", "coordinates": [[114.257418, 22.314663], [114.238601, 22.271425]]}}, {"type": "Feature", "properties": {"id": "ghost_TX9893_20240627082047", "plate_no": "TX9893", "gap_start_time": "2024-06-27T08:20:47", "gap_end_time": "2024-06-27T13:40:19", "gap_duration_min": 319.53, "wasted_distance_km": 8.475, "prev_trip": "DA240627009101", "next_trip": "DA240627042001", "prev_O": [114.1819743, 22.3714238], "next_O": [114.1300706, 22.350379]}, "geometry": {"type": "LineString", "coordinates": [[114.195621, 22.396123], [114.130023, 22.349971]]}}, {"type": "Feature", "properties": {"id": "ghost_TX9893_20240627135649", "plate_no": "TX9893", "gap_start_time": "2024-06-27T13:56:49", "gap_end_time": "2024-06-27T15:00:19", "gap_duration_min": 63.5, "wasted_distance_km": 2.542, "prev_trip": "DA240627042001", "next_trip": "DA240627010801", "prev_O": [114.1300706, 22.350379], "next_O": [114.1358999, 22.3788732]}, "geometry": {"type": "LineString", "coordinates": [[114.128443, 22.356223], [114.13555, 22.37812]]}}, {"type": "Feature", "properties": {"id": "ghost_TY3130_20240627084103", "plate_no": "TY3130", "gap_start_time": "2024-06-27T08:41:03", "gap_end_time": "2024-06-27T13:00:15", "gap_duration_min": 259.2, "wasted_distance_km": 10.788, "prev_trip": "DA240627000201", "next_trip": "DA240627029601", "prev_O": [114.1266489, 22.3476314], "next_O": [114.2284154, 22.314391]}, "geometry": {"type": "LineString", "coordinates": [[114.129061, 22.346705], [114.227953, 22.31437]]}}, {"type": "Feature", "properties": {"id": "ghost_TY3130_20240627131015", "plate_no": "TY3130", "gap_start_time": "2024-06-27T13:10:15", "gap_end_time": "2024-06-27T15:50:28", "gap_duration_min": 160.22, "wasted_distance_km": 11.682, "prev_trip": "DA240627029601", "next_trip": "DA240627004511", "prev_O": [114.2284154, 22.314391], "next_O": [114.1245247, 22.2709886]}, "geometry": {"type": "LineString", "coordinates": [[114.228421, 22.308351], [114.122311, 22.270963]]}}, {"type": "Feature", "properties": {"id": "ghost_UL7617_20240627111503", "plate_no": "UL7617", "gap_start_time": "2024-06-27T11:15:03", "gap_end_time": "2024-06-27T14:45:27", "gap_duration_min": 210.4, "wasted_distance_km": 6.304, "prev_trip": "DA240627026401", "next_trip": "DA240627021811", "prev_O": [114.1031507, 22.3771276], "next_O": [114.2077187, 22.3228659]}, "geometry": {"type": "LineString", "coordinates": [[114.147775, 22.3356], [114.20762, 22.323355]]}}, {"type": "Feature", "properties": {"id": "ghost_UM4207_20240627083935", "plate_no": "UM4207", "gap_start_time": "2024-06-27T08:39:35", "gap_end_time": "2024-06-27T09:45:01", "gap_duration_min": 65.43, "wasted_distance_km": 2.584, "prev_trip": "DA240627000711", "next_trip": "DA240627020111", "prev_O": [114.217242, 22.322492], "next_O": [114.1614413, 22.3223459]}, "geometry": {"type": "LineString", "coordinates": [[114.18636, 22.325555], [114.161451, 22.322536]]}}, {"type": "Feature", "properties": {"id": "ghost_UM4207_20240627102027", "plate_no": "UM4207", "gap_start_time": "2024-06-27T10:20:27", "gap_end_time": "2024-06-27T11:00:25", "gap_duration_min": 39.97, "wasted_distance_km": 5.541, "prev_trip": "DA240627020111", "next_trip": "DA240627044901", "prev_O": [114.1614413, 22.3223459], "next_O": [114.1460255, 22.5017206]}, "geometry": {"type": "LineString", "coordinates": [[114.174585, 22.459048], [114.146123, 22.501375]]}}, {"type": "Feature", "properties": {"id": "ghost_UM4207_20240627113820", "plate_no": "UM4207", "gap_start_time": "2024-06-27T11:38:20", "gap_end_time": "2024-06-27T14:03:42", "gap_duration_min": 145.37, "wasted_distance_km": 8.184, "prev_trip": "DA240627044901", "next_trip": "DA240627039611", "prev_O": [114.1460255, 22.5017206], "next_O": [114.1034949, 22.3485601]}, "geometry": {"type": "LineString", "coordinates": [[114.17424, 22.325001], [114.09895, 22.348805]]}}, {"type": "Feature", "properties": {"id": "ghost_UM7167_20240627081551", "plate_no": "UM7167", "gap_start_time": "2024-06-27T08:15:51", "gap_end_time": "2024-06-27T12:30:16", "gap_duration_min": 254.42, "wasted_distance_km": 12.147, "prev_trip": "DA240627032801", "next_trip": "DA240627046611", "prev_O": [114.1688084, 22.4426526], "next_O": [114.129029, 22.3585969]}, "geometry": {"type": "LineString", "coordinates": [[114.174251, 22.460708], [114.129988, 22.359423]]}}, {"type": "Feature", "properties": {"id": "ghost_UP3870_20240627112020", "plate_no": "UP3870", "gap_start_time": "2024-06-27T11:20:20", "gap_end_time": "2024-06-27T13:30:24", "gap_duration_min": 130.07, "wasted_distance_km": 1.963, "prev_trip": "DA240627018711", "next_trip": "DA240627004702", "prev_O": [114.2556044, 22.3228373], "next_O": [114.1254938, 22.3694653]}, "geometry": {"type": "LineString", "coordinates": [[114.128286, 22.35246], [114.125148, 22.36987]]}}, {"type": "Feature", "properties": {"id": "ghost_VD768_20240627085730", "plate_no": "VD768", "gap_start_time": "2024-06-27T08:57:30", "gap_end_time": "2024-06-27T15:39:53", "gap_duration_min": 402.38, "wasted_distance_km": 14.231, "prev_trip": "DA240627007001", "next_trip": "DA240627008702", "prev_O": [114.2270772, 22.2780082], "next_O": [114.1219651, 22.3714765]}, "geometry": {"type": "LineString", "coordinates": [[114.221881, 22.28136], [114.123375, 22.371235]]}}, {"type": "Feature", "properties": {"id": "ghost_VE7538_20240627100040", "plate_no": "VE7538", "gap_start_time": "2024-06-27T10:00:40", "gap_end_time": "2024-06-27T11:45:41", "gap_duration_min": 105.02, "wasted_distance_km": 0.386, "prev_trip": "DA240627002001", "next_trip": "DA240627008202", "prev_O": [114.0245029, 22.4512088], "next_O": [113.9649146, 22.3748696]}, "geometry": {"type": "LineString", "coordinates": [[113.961298, 22.375063], [113.965028, 22.375461]]}}, {"type": "Feature", "properties": {"id": "ghost_VE8500_20240627102112", "plate_no": "VE8500", "gap_start_time": "2024-06-27T10:21:12", "gap_end_time": "2024-06-27T11:00:11", "gap_duration_min": 38.98, "wasted_distance_km": 5.492, "prev_trip": "DA240627037801", "next_trip": "DA240627043811", "prev_O": [114.23931, 22.306717], "next_O": [114.1762882, 22.2781796]}, "geometry": {"type": "LineString", "coordinates": [[114.123571, 22.271045], [114.176441, 22.277838]]}}, {"type": "Feature", "properties": {"id": "ghost_VE8500_20240627112141", "plate_no": "VE8500", "gap_start_time": "2024-06-27T11:21:41", "gap_end_time": "2024-06-27T17:00:01", "gap_duration_min": 338.33, "wasted_distance_km": 4.358, "prev_trip": "DA240627043811", "next_trip": "DA240627044211", "prev_O": [114.1762882, 22.2781796], "next_O": [114.1853645, 22.377122]}, "geometry": {"type": "LineString", "coordinates": [[114.193361, 22.338931], [114.18586, 22.377501]]}}, {"type": "Feature", "properties": {"id": "ghost_VG427_20240627074721", "plate_no": "VG427", "gap_start_time": "2024-06-27T07:47:21", "gap_end_time": "2024-06-27T12:01:42", "gap_duration_min": 254.35, "wasted_distance_km": 6.655, "prev_trip": "DA240627022511", "next_trip": "DA240627028602", "prev_O": [114.1120944, 22.3765863], "next_O": [114.1966145, 22.3456548]}, "geometry": {"type": "LineString", "coordinates": [[114.134891, 22.340758], [114.199353, 22.345938]]}}, {"type": "Feature", "properties": {"id": "ghost_VG427_20240627121242", "plate_no": "VG427", "gap_start_time": "2024-06-27T12:12:42", "gap_end_time": "2024-06-27T14:30:00", "gap_duration_min": 137.3, "wasted_distance_km": 9.312, "prev_trip": "DA240627028602", "next_trip": "DA240627031002", "prev_O": [114.1966145, 22.3456548], "next_O": [114.1126286, 22.370898]}, "geometry": {"type": "LineString", "coordinates": [[114.19182, 22.330623], [114.112373, 22.370793]]}}, {"type": "Feature", "properties": {"id": "ghost_VV6972_20240627144751", "plate_no": "VV6972", "gap_start_time": "2024-06-27T14:47:51", "gap_end_time": "2024-06-27T16:15:17", "gap_duration_min": 87.43, "wasted_distance_km": 3.818, "prev_trip": "DA240627018302", "next_trip": "DA240627036711", "prev_O": [114.1725229, 22.3019182], "next_O": [114.1777194, 22.2755944]}, "geometry": {"type": "LineString", "coordinates": [[114.143821, 22.28893], [114.177831, 22.27519]]}}, {"type": "Feature", "properties": {"id": "ghost_VV6972_20240627163017", "plate_no": "VV6972", "gap_start_time": "2024-06-27T16:30:17", "gap_end_time": "2024-06-27T17:50:04", "gap_duration_min": 79.78, "wasted_distance_km": 2.557, "prev_trip": "DA240627036711", "next_trip": "DA240627035511", "prev_O": [114.1777194, 22.2755944], "next_O": [114.1272602, 22.2805453]}, "geometry": {"type": "LineString", "coordinates": [[114.150981, 22.287695], [114.127445, 22.280311]]}}, {"type": "Feature", "properties": {"id": "ghost_VW871_20240627135418", "plate_no": "VW871", "gap_start_time": "2024-06-27T13:54:18", "gap_end_time": "2024-06-27T14:47:16", "gap_duration_min": 52.97, "wasted_distance_km": 5.082, "prev_trip": "DA240627038501", "next_trip": "DA240627003811", "prev_O": [113.9740818, 22.3843575], "next_O": [114.1200839, 22.3703121]}, "geometry": {"type": "LineString", "coordinates": [[114.155861, 22.3358], [114.120333, 22.367561]]}}, {"type": "Feature", "properties": {"id": "ghost_VX2887_20240627110036", "plate_no": "VX2887", "gap_start_time": "2024-06-27T11:00:36", "gap_end_time": "2024-06-27T13:00:03", "gap_duration_min": 119.45, "wasted_distance_km": 4.057, "prev_trip": "DA240627030202", "next_trip": "DA240627030101", "prev_O": [114.207831, 22.32266], "next_O": [114.192173, 22.304086]}, "geometry": {"type": "LineString", "coordinates": [[114.198145, 22.339866], [114.191561, 22.30389]]}}, {"type": "Feature", "properties": {"id": "ghost_VX2887_20240627132433", "plate_no": "VX2887", "gap_start_time": "2024-06-27T13:24:33", "gap_end_time": "2024-06-27T14:40:03", "gap_duration_min": 75.5, "wasted_distance_km": 1.454, "prev_trip": "DA240627030101", "next_trip": "DA240627000511", "prev_O": [114.192173, 22.304086], "next_O": [114.1831334, 22.3223645]}, "geometry": {"type": "LineString", "coordinates": [[114.171765, 22.33061], [114.182665, 22.322288]]}}, {"type": "Feature", "properties": {"id": "ghost_VX3591_20240627104558", "plate_no": "VX3591", "gap_start_time": "2024-06-27T10:45:58", "gap_end_time": "2024-06-27T13:15:26", "gap_duration_min": 149.47, "wasted_distance_km": 3.077, "prev_trip": "DA240627037201", "next_trip": "DA240627028511", "prev_O": [114.2009377, 22.2920835], "next_O": [114.2285538, 22.3079624]}, "geometry": {"type": "LineString", "coordinates": [[114.258275, 22.311], [114.228563, 22.30779]]}}, {"type": "Feature", "properties": {"id": "ghost_VX3591_20240627133827", "plate_no": "VX3591", "gap_start_time": "2024-06-27T13:38:27", "gap_end_time": "2024-06-27T14:55:02", "gap_duration_min": 76.58, "wasted_distance_km": 2.888, "prev_trip": "DA240627028511", "next_trip": "DA240627019611", "prev_O": [114.2285538, 22.3079624], "next_O": [114.2182917, 22.3260159]}, "geometry": {"type": "LineString", "coordinates": [[114.194151, 22.33879], [114.21681, 22.323455]]}}, {"type": "Feature", "properties": {"id": "ghost_VX3591_20240627150402", "plate_no": "VX3591", "gap_start_time": "2024-06-27T15:04:02", "gap_end_time": "2024-06-27T16:10:02", "gap_duration_min": 66.0, "wasted_distance_km": 3.795, "prev_trip": "DA240627019611", "next_trip": "DA240627038502", "prev_O": [114.2182917, 22.3260159], "next_O": [114.1566879, 22.3374273]}, "geometry": {"type": "LineString", "coordinates": [[114.176005, 22.306461], [114.156368, 22.335353]]}}, {"type": "Feature", "properties": {"id": "ghost_WN8723_20240627122543", "plate_no": "WN8723", "gap_start_time": "2024-06-27T12:25:43", "gap_end_time": "2024-06-27T15:00:22", "gap_duration_min": 154.65, "wasted_distance_km": 4.615, "prev_trip": "DA240627043502", "next_trip": "DA240627003201", "prev_O": [114.1466266, 22.2848757], "next_O": [114.1734921, 22.2726294]}, "geometry": {"type": "LineString", "coordinates": [[114.130025, 22.283345], [114.173373, 22.272691]]}}, {"type": "Feature", "properties": {"id": "ghost_WN8723_20240627151452", "plate_no": "WN8723", "gap_start_time": "2024-06-27T15:14:52", "gap_end_time": "2024-06-27T16:30:22", "gap_duration_min": 75.5, "wasted_distance_km": 0.256, "prev_trip": "DA240627003201", "next_trip": "DA240627003202", "prev_O": [114.1734921, 22.2726294], "next_O": [114.1734921, 22.2726294]}, "geometry": {"type": "LineString", "coordinates": [[114.175096, 22.274048], [114.172985, 22.272823]]}}, {"type": "Feature", "properties": {"id": "ghost_WN9330_20240627155136", "plate_no": "WN9330", "gap_start_time": "2024-06-27T15:51:36", "gap_end_time": "2024-06-27T16:45:36", "gap_duration_min": 54.0, "wasted_distance_km": 0.306, "prev_trip": "DA240627007602", "next_trip": "DA240627008902", "prev_O": [114.1987643, 22.3804685], "next_O": [114.1700846, 22.3760056]}, "geometry": {"type": "LineString", "coordinates": [[114.175683, 22.375445], [114.17379, 22.37757]]}}, {"type": "Feature", "properties": {"id": "ghost_WN9331_20240627092527", "plate_no": "WN9331", "gap_start_time": "2024-06-27T09:25:27", "gap_end_time": "2024-06-27T10:00:27", "gap_duration_min": 35.0, "wasted_distance_km": 2.564, "prev_trip": "DA240627007601", "next_trip": "DA240627022001", "prev_O": [114.1786768, 22.3729477], "next_O": [114.1701536, 22.3758406]}, "geometry": {"type": "LineString", "coordinates": [[114.194036, 22.381145], [114.169696, 22.376145]]}}, {"type": "Feature", "properties": {"id": "ghost_WN9331_20240627101026", "plate_no": "WN9331", "gap_start_time": "2024-06-27T10:10:26", "gap_end_time": "2024-06-27T14:50:07", "gap_duration_min": 279.68, "wasted_distance_km": 8.299, "prev_trip": "DA240627022001", "next_trip": "DA240627025402", "prev_O": [114.1701536, 22.3758406], "next_O": [114.2285538, 22.3079624]}, "geometry": {"type": "LineString", "coordinates": [[114.204311, 22.378803], [114.229235, 22.307815]]}}, {"type": "Feature", "properties": {"id": "ghost_WP1681_20240627125742", "plate_no": "WP1681", "gap_start_time": "2024-06-27T12:57:42", "gap_end_time": "2024-06-27T13:50:07", "gap_duration_min": 52.42, "wasted_distance_km": 4.2, "prev_trip": "DA240627021411", "next_trip": "DA240627036811", "prev_O": [114.176609, 22.3191338], "next_O": [114.2129975, 22.3358317]}, "geometry": {"type": "LineString", "coordinates": [[114.176908, 22.3181], [114.213058, 22.335656]]}}, {"type": "Feature", "properties": {"id": "ghost_WP3306_20240627125430", "plate_no": "WP3306", "gap_start_time": "2024-06-27T12:54:30", "gap_end_time": "2024-06-27T15:00:25", "gap_duration_min": 125.92, "wasted_distance_km": 14.393, "prev_trip": "DA240627016401", "next_trip": "DA240627007702", "prev_O": [113.9637297, 22.4082058], "next_O": [114.1987643, 22.3804685]}, "geometry": {"type": "LineString", "coordinates": [[114.123741, 22.271115], [114.198958, 22.380266]]}}, {"type": "Feature", "properties": {"id": "ghost_WP5818_20240627104247", "plate_no": "WP5818", "gap_start_time": "2024-06-27T10:42:47", "gap_end_time": "2024-06-27T12:45:24", "gap_duration_min": 122.62, "wasted_distance_km": 5.025, "prev_trip": "DA240627009811", "next_trip": "DA240627035401", "prev_O": [113.9859398, 22.4131046], "next_O": [114.0147185, 22.3663115]}, "geometry": {"type": "LineString", "coordinates": [[113.976863, 22.394701], [114.014146, 22.365476]]}}, {"type": "Feature", "properties": {"id": "ghost_XE1372_20240627171901", "plate_no": "XE1372", "gap_start_time": "2024-06-27T17:19:01", "gap_end_time": "2024-06-27T18:05:20", "gap_duration_min": 46.32, "wasted_distance_km": 3.299, "prev_trip": "DA240627041911", "next_trip": "DA240627034511", "prev_O": [114.1743747, 22.3091816], "next_O": [114.167667, 22.3069429]}, "geometry": {"type": "LineString", "coordinates": [[114.15808, 22.335651], [114.167893, 22.307408]]}}, {"type": "Feature", "properties": {"id": "ghost_XE1886_20240627101101", "plate_no": "XE1886", "gap_start_time": "2024-06-27T10:11:01", "gap_end_time": "2024-06-27T15:16:46", "gap_duration_min": 305.75, "wasted_distance_km": 7.866, "prev_trip": "DA240627028601", "next_trip": "DA240627017102", "prev_O": [114.1908249, 22.3295293], "next_O": [114.1475191, 22.2870175]}, "geometry": {"type": "LineString", "coordinates": [[114.192858, 22.343561], [114.147196, 22.286821]]}}, {"type": "Feature", "properties": {"id": "ghost_XE2198_20240627125033", "plate_no": "XE2198", "gap_start_time": "2024-06-27T12:50:33", "gap_end_time": "2024-06-27T13:40:03", "gap_duration_min": 49.5, "wasted_distance_km": 2.983, "prev_trip": "DA240627026201", "next_trip": "DA240627014002", "prev_O": [114.2382603, 22.3032465], "next_O": [114.1785116, 22.2985424]}, "geometry": {"type": "LineString", "coordinates": [[114.16865, 22.323985], [114.178583, 22.298781]]}}, {"type": "Feature", "properties": {"id": "ghost_XE612_20240627094024", "plate_no": "XE612", "gap_start_time": "2024-06-27T09:40:24", "gap_end_time": "2024-06-27T10:30:25", "gap_duration_min": 50.02, "wasted_distance_km": 3.015, "prev_trip": "DA240627031001", "next_trip": "DA240627032901", "prev_O": [114.2165357, 22.3222887], "next_O": [114.1014571, 22.3485601]}, "geometry": {"type": "LineString", "coordinates": [[114.11576, 22.371843], [114.100768, 22.348541]]}}, {"type": "Feature", "properties": {"id": "ghost_XE7053_20240627102841", "plate_no": "XE7053", "gap_start_time": "2024-06-27T10:28:41", "gap_end_time": "2024-06-27T13:00:23", "gap_duration_min": 151.7, "wasted_distance_km": 6.042, "prev_trip": "DA240627018411", "next_trip": "DA240627036911", "prev_O": [114.2028038, 22.4017167], "next_O": [114.2286568, 22.3119002]}, "geometry": {"type": "LineString", "coordinates": [[114.172535, 22.327381], [114.228715, 22.311511]]}}, {"type": "Feature", "properties": {"id": "ghost_XE7053_20240627131722", "plate_no": "XE7053", "gap_start_time": "2024-06-27T13:17:22", "gap_end_time": "2024-06-27T14:30:24", "gap_duration_min": 73.03, "wasted_distance_km": 3.098, "prev_trip": "DA240627036911", "next_trip": "DA240627029911", "prev_O": [114.2286568, 22.3119002], "next_O": [114.1725229, 22.3019182]}, "geometry": {"type": "LineString", "coordinates": [[114.161176, 22.326598], [114.17199, 22.300595]]}}, {"type": "Feature", "properties": {"id": "ghost_XE7168_20240627100802", "plate_no": "XE7168", "gap_start_time": "2024-06-27T10:08:02", "gap_end_time": "2024-06-27T16:30:02", "gap_duration_min": 382.0, "wasted_distance_km": 3.123, "prev_trip": "DA240627038302", "next_trip": "DA240627043402", "prev_O": [114.2270078, 22.323232], "next_O": [114.1803477, 22.3287827]}, "geometry": {"type": "LineString", "coordinates": [[114.208946, 22.32551], [114.17863, 22.327103]]}}, {"type": "Feature", "properties": {"id": "ghost_XE7595_20240627142928", "plate_no": "XE7595", "gap_start_time": "2024-06-27T14:29:28", "gap_end_time": "2024-06-27T15:45:28", "gap_duration_min": 76.0, "wasted_distance_km": 3.709, "prev_trip": "DA240627023602", "next_trip": "DA240627048111", "prev_O": [114.1684203, 22.449341], "next_O": [114.1745718, 22.4615488]}, "geometry": {"type": "LineString", "coordinates": [[114.210335, 22.457788], [114.174371, 22.46065]]}}, {"type": "Feature", "properties": {"id": "ghost_XE782_20240627112018", "plate_no": "XE782", "gap_start_time": "2024-06-27T11:20:18", "gap_end_time": "2024-06-27T14:00:13", "gap_duration_min": 159.92, "wasted_distance_km": 7.073, "prev_trip": "DA240627031701", "next_trip": "DA240627039211", "prev_O": [114.2642247, 22.3155765], "next_O": [114.1898359, 22.3167167]}, "geometry": {"type": "LineString", "coordinates": [[114.197211, 22.379865], [114.189971, 22.316606]]}}, {"type": "Feature", "properties": {"id": "ghost_XE782_20240627141213", "plate_no": "XE782", "gap_start_time": "2024-06-27T14:12:13", "gap_end_time": "2024-06-27T14:46:43", "gap_duration_min": 34.5, "wasted_distance_km": 1.382, "prev_trip": "DA240627039211", "next_trip": "DA240627018002", "prev_O": [114.1898359, 22.3167167], "next_O": [114.18052, 22.32278]}, "geometry": {"type": "LineString", "coordinates": [[114.170885, 22.311576], [114.17876, 22.321648]]}}, {"type": "Feature", "properties": {"id": "ghost_XE782_20240627145843", "plate_no": "XE782", "gap_start_time": "2024-06-27T14:58:43", "gap_end_time": "2024-06-27T15:30:13", "gap_duration_min": 31.5, "wasted_distance_km": 0.588, "prev_trip": "DA240627018002", "next_trip": "DA240627026102", "prev_O": [114.18052, 22.32278], "next_O": [114.17099, 22.312405]}, "geometry": {"type": "LineString", "coordinates": [[114.170651, 22.307045], [114.170473, 22.312326]]}}, {"type": "Feature", "properties": {"id": "ghost_XE782_20240627154343", "plate_no": "XE782", "gap_start_time": "2024-06-27T15:43:43", "gap_end_time": "2024-06-27T17:00:10", "gap_duration_min": 76.45, "wasted_distance_km": 5.437, "prev_trip": "DA240627026102", "next_trip": "DA240627006311", "prev_O": [114.17099, 22.312405], "next_O": [114.2303424, 22.3079333]}, "geometry": {"type": "LineString", "coordinates": [[114.19859, 22.342595], [114.233273, 22.3057]]}}, {"type": "Feature", "properties": {"id": "ghost_XE7898_20240627105955", "plate_no": "XE7898", "gap_start_time": "2024-06-27T10:59:55", "gap_end_time": "2024-06-27T12:00:25", "gap_duration_min": 60.5, "wasted_distance_km": 8.269, "prev_trip": "DA240627026901", "next_trip": "DA240627016101", "prev_O": [114.1203858, 22.3670155], "next_O": [114.2430202, 22.4265896]}, "geometry": {"type": "LineString", "coordinates": [[114.166376, 22.448031], [114.243453, 22.426698]]}}, {"type": "Feature", "properties": {"id": "ghost_XE7898_20240627120555", "plate_no": "XE7898", "gap_start_time": "2024-06-27T12:05:55", "gap_end_time": "2024-06-27T14:45:03", "gap_duration_min": 159.13, "wasted_distance_km": 13.558, "prev_trip": "DA240627016101", "next_trip": "DA240627000202", "prev_O": [114.2430202, 22.4265896], "next_O": [114.1283333, 22.3458333]}, "geometry": {"type": "LineString", "coordinates": [[114.229888, 22.423905], [114.128073, 22.346416]]}}, {"type": "Feature", "properties": {"id": "ghost_XE7898_20240627145803", "plate_no": "XE7898", "gap_start_time": "2024-06-27T14:58:03", "gap_end_time": "2024-06-27T16:21:03", "gap_duration_min": 83.0, "wasted_distance_km": 0.83, "prev_trip": "DA240627000202", "next_trip": "DA240627000302", "prev_O": [114.1283333, 22.3458333], "next_O": [114.1283333, 22.3458333]}, "geometry": {"type": "LineString", "coordinates": [[114.131391, 22.352245], [114.125965, 22.346715]]}}, {"type": "Feature", "properties": {"id": "ghost_XE8451_20240627131444", "plate_no": "XE8451", "gap_start_time": "2024-06-27T13:14:44", "gap_end_time": "2024-06-27T16:00:09", "gap_duration_min": 165.42, "wasted_distance_km": 13.931, "prev_trip": "DA240627032902", "next_trip": "DA240627002002", "prev_O": [114.1113314, 22.3751831], "next_O": [113.9649146, 22.3748696]}, "geometry": {"type": "LineString", "coordinates": [[114.097375, 22.349825], [113.964755, 22.375396]]}}, {"type": "Feature", "properties": {"id": "ghost_XM9877_20240627122802", "plate_no": "XM9877", "gap_start_time": "2024-06-27T12:28:02", "gap_end_time": "2024-06-27T14:30:02", "gap_duration_min": 122.0, "wasted_distance_km": 5.107, "prev_trip": "DA240627022711", "next_trip": "DA240627029802", "prev_O": [114.2302479, 22.308176], "next_O": [114.1725229, 22.3019182]}, "geometry": {"type": "LineString", "coordinates": [[114.198418, 22.340703], [114.171945, 22.301845]]}}, {"type": "Feature", "properties": {"id": "ghost_XM9877_20240627144712", "plate_no": "XM9877", "gap_start_time": "2024-06-27T14:47:12", "gap_end_time": "2024-06-27T17:45:08", "gap_duration_min": 177.93, "wasted_distance_km": 3.141, "prev_trip": "DA240627029802", "next_trip": "DA240627011311", "prev_O": [114.1725229, 22.3019182], "next_O": [114.1692496, 22.2764258]}, "geometry": {"type": "LineString", "coordinates": [[114.140811, 22.288306], [114.169015, 22.277498]]}}, {"type": "Feature", "properties": {"id": "ghost_XN5447_20240627101938", "plate_no": "XN5447", "gap_start_time": "2024-06-27T10:19:38", "gap_end_time": "2024-06-27T13:30:08", "gap_duration_min": 190.5, "wasted_distance_km": 7.531, "prev_trip": "DA240627048811", "next_trip": "DA240627030901", "prev_O": [114.1709123, 22.3613278], "next_O": [114.1201768, 22.3741788]}, "geometry": {"type": "LineString", "coordinates": [[114.168665, 22.323016], [114.120386, 22.373941]]}}, {"type": "Feature", "properties": {"id": "ghost_XU9430_20240627094550", "plate_no": "XU9430", "gap_start_time": "2024-06-27T09:45:50", "gap_end_time": "2024-06-27T11:00:20", "gap_duration_min": 74.5, "wasted_distance_km": 1.767, "prev_trip": "DA240627007311", "next_trip": "DA240627007911", "prev_O": [114.1987866, 22.3488882], "next_O": [114.2286722, 22.3119194]}, "geometry": {"type": "LineString", "coordinates": [[114.216411, 22.322955], [114.228601, 22.311763]]}}, {"type": "Feature", "properties": {"id": "ghost_XV2836_20240627133900", "plate_no": "XV2836", "gap_start_time": "2024-06-27T13:39:00", "gap_end_time": "2024-06-27T14:45:06", "gap_duration_min": 66.1, "wasted_distance_km": 9.784, "prev_trip": "DA240627043301", "next_trip": "DA240627003511", "prev_O": [114.2403965, 22.2674335], "next_O": [114.2336165, 22.2637098]}, "geometry": {"type": "LineString", "coordinates": [[114.141058, 22.28542], [114.233343, 22.264231]]}}, {"type": "Feature", "properties": {"id": "ghost_XV2836_20240627151037", "plate_no": "XV2836", "gap_start_time": "2024-06-27T15:10:37", "gap_end_time": "2024-06-27T16:16:07", "gap_duration_min": 65.5, "wasted_distance_km": 1.289, "prev_trip": "DA240627003511", "next_trip": "DA240627003611", "prev_O": [114.2336165, 22.2637098], "next_O": [114.2336165, 22.2637098]}, "geometry": {"type": "LineString", "coordinates": [[114.237955, 22.277828], [114.233745, 22.266906]]}}, {"type": "Feature", "properties": {"id": "ghost_XV3002_20240627093823", "plate_no": "XV3002", "gap_start_time": "2024-06-27T09:38:23", "gap_end_time": "2024-06-27T12:45:20", "gap_duration_min": 186.95, "wasted_distance_km": 0.461, "prev_trip": "DA240627012101", "next_trip": "DA240627027811", "prev_O": [114.145401, 22.2434883], "next_O": [114.132306, 22.266114]}, "geometry": {"type": "LineString", "coordinates": [[114.130135, 22.270305], [114.132088, 22.266573]]}}, {"type": "Feature", "properties": {"id": "ghost_XV3002_20240627131314", "plate_no": "XV3002", "gap_start_time": "2024-06-27T13:13:14", "gap_end_time": "2024-06-27T17:15:26", "gap_duration_min": 242.2, "wasted_distance_km": 4.447, "prev_trip": "DA240627027811", "next_trip": "DA240627014202", "prev_O": [114.132306, 22.266114], "next_O": [114.2011575, 22.2900879]}, "geometry": {"type": "LineString", "coordinates": [[114.240133, 22.269996], [114.203173, 22.290723]]}}, {"type": "Feature", "properties": {"id": "ghost_XV7112_20240627112609", "plate_no": "XV7112", "gap_start_time": "2024-06-27T11:26:09", "gap_end_time": "2024-06-27T13:30:29", "gap_duration_min": 124.33, "wasted_distance_km": 8.748, "prev_trip": "DA240627004701", "next_trip": "DA240627041501", "prev_O": [114.176559, 22.3679371], "next_O": [114.1999941, 22.3433792]}, "geometry": {"type": "LineString", "coordinates": [[114.125035, 22.369936], [114.204673, 22.342273]]}}, {"type": "Feature", "properties": {"id": "ghost_YK3534_20240627102109", "plate_no": "YK3534", "gap_start_time": "2024-06-27T10:21:09", "gap_end_time": "2024-06-27T12:30:29", "gap_duration_min": 129.33, "wasted_distance_km": 1.117, "prev_trip": "DA240627010201", "next_trip": "DA240627018511", "prev_O": [114.203802, 22.348183], "next_O": [114.1716857, 22.3301776]}, "geometry": {"type": "LineString", "coordinates": [[114.171728, 22.319728], [114.17203, 22.329768]]}}, {"type": "Feature", "properties": {"id": "ghost_YK3534_20240627130000", "plate_no": "YK3534", "gap_start_time": "2024-06-27T13:00:00", "gap_end_time": "2024-06-27T14:10:02", "gap_duration_min": 70.03, "wasted_distance_km": 1.654, "prev_trip": "DA240627018511", "next_trip": "DA240627028911", "prev_O": [114.1716857, 22.3301776], "next_O": [114.208881, 22.3887091]}, "geometry": {"type": "LineString", "coordinates": [[114.205391, 22.403751], [114.209263, 22.38931]]}}, {"type": "Feature", "properties": {"id": "ghost_YK4725_20240627111356", "plate_no": "YK4725", "gap_start_time": "2024-06-27T11:13:56", "gap_end_time": "2024-06-27T13:15:00", "gap_duration_min": 121.07, "wasted_distance_km": 21.121, "prev_trip": "DA240627041301", "next_trip": "DA240627040501", "prev_O": [114.1715708, 22.3354862], "next_O": [114.2259587, 22.2821854]}, "geometry": {"type": "LineString", "coordinates": [[114.232021, 22.471993], [114.225691, 22.282141]]}}, {"type": "Feature", "properties": {"id": "ghost_YK5072_20240627100402", "plate_no": "YK5072", "gap_start_time": "2024-06-27T10:04:02", "gap_end_time": "2024-06-27T11:00:01", "gap_duration_min": 55.98, "wasted_distance_km": 2.96, "prev_trip": "DA240627024201", "next_trip": "DA240627045701", "prev_O": [114.229722, 22.425278], "next_O": [114.1598332, 22.3369568]}, "geometry": {"type": "LineString", "coordinates": [[114.18589, 22.32512], [114.16012, 22.33697]]}}, {"type": "Feature", "properties": {"id": "ghost_YK5072_20240627112536", "plate_no": "YK5072", "gap_start_time": "2024-06-27T11:25:36", "gap_end_time": "2024-06-27T12:00:32", "gap_duration_min": 34.93, "wasted_distance_km": 1.16, "prev_trip": "DA240627045701", "next_trip": "DA240627027502", "prev_O": [114.1598332, 22.3369568], "next_O": [114.1440477, 22.2864015]}, "geometry": {"type": "LineString", "coordinates": [[114.155555, 22.284435], [114.144645, 22.28707]]}}, {"type": "Feature", "properties": {"id": "ghost_YK5072_20240627123757", "plate_no": "YK5072", "gap_start_time": "2024-06-27T12:37:57", "gap_end_time": "2024-06-27T15:45:46", "gap_duration_min": 187.82, "wasted_distance_km": 1.522, "prev_trip": "DA240627027502", "next_trip": "DA240627007002", "prev_O": [114.1440477, 22.2864015], "next_O": [114.2253505, 22.2821867]}, "geometry": {"type": "LineString", "coordinates": [[114.239541, 22.277795], [114.225355, 22.281658]]}}, {"type": "Feature", "properties": {"id": "ghost_YK6404_20240627114426", "plate_no": "YK6404", "gap_start_time": "2024-06-27T11:44:26", "gap_end_time": "2024-06-27T13:41:51", "gap_duration_min": 117.42, "wasted_distance_km": 4.221, "prev_trip": "DA240627029011", "next_trip": "DA240627034211", "prev_O": [114.1178066, 22.3689762], "next_O": [114.2110471, 22.3405652]}, "geometry": {"type": "LineString", "coordinates": [[114.178343, 22.317676], [114.210845, 22.340856]]}}, {"type": "Feature", "properties": {"id": "ghost_YK6404_20240627135621", "plate_no": "YK6404", "gap_start_time": "2024-06-27T13:56:21", "gap_end_time": "2024-06-27T15:15:21", "gap_duration_min": 79.0, "wasted_distance_km": 6.943, "prev_trip": "DA240627034211", "next_trip": "DA240627047001", "prev_O": [114.2110471, 22.3405652], "next_O": [114.2047659, 22.3855502]}, "geometry": {"type": "LineString", "coordinates": [[114.18694, 22.325618], [114.205098, 22.38576]]}}, {"type": "Feature", "properties": {"id": "ghost_YK6404_20240627154351", "plate_no": "YK6404", "gap_start_time": "2024-06-27T15:43:51", "gap_end_time": "2024-06-27T16:30:21", "gap_duration_min": 46.5, "wasted_distance_km": 0.35, "prev_trip": "DA240627047001", "next_trip": "DA240627026202", "prev_O": [114.2047659, 22.3855502], "next_O": [114.1681339, 22.3237335]}, "geometry": {"type": "LineString", "coordinates": [[114.164601, 22.323451], [114.167998, 22.32337]]}}, {"type": "Feature", "properties": {"id": "ghost_YK6404_20240627165921", "plate_no": "YK6404", "gap_start_time": "2024-06-27T16:59:21", "gap_end_time": "2024-06-27T17:30:21", "gap_duration_min": 31.0, "wasted_distance_km": 2.434, "prev_trip": "DA240627026202", "next_trip": "DA240627016802", "prev_O": [114.1681339, 22.3237335], "next_O": [114.2270881, 22.3229689]}, "geometry": {"type": "LineString", "coordinates": [[114.238381, 22.303715], [114.226043, 22.322391]]}}, {"type": "Feature", "properties": {"id": "ghost_YK7874_20240627093329", "plate_no": "YK7874", "gap_start_time": "2024-06-27T09:33:29", "gap_end_time": "2024-06-27T17:00:03", "gap_duration_min": 446.57, "wasted_distance_km": 3.968, "prev_trip": "DA240627046201", "next_trip": "DA240627017711", "prev_O": [114.167249, 22.306333], "next_O": [114.1394532, 22.2865441]}, "geometry": {"type": "LineString", "coordinates": [[114.172191, 22.305513], [114.139366, 22.286783]]}}, {"type": "Feature", "properties": {"id": "ghost_YK905_20240627085434", "plate_no": "YK905", "gap_start_time": "2024-06-27T08:54:34", "gap_end_time": "2024-06-27T09:55:04", "gap_duration_min": 60.5, "wasted_distance_km": 2.039, "prev_trip": "DA240627031301", "next_trip": "DA240627038001", "prev_O": [114.227845, 22.304483], "next_O": [114.200955, 22.346017]}, "geometry": {"type": "LineString", "coordinates": [[114.187811, 22.327308], [114.19863, 22.34267]]}}, {"type": "Feature", "properties": {"id": "ghost_YL1315_20240627135217", "plate_no": "YL1315", "gap_start_time": "2024-06-27T13:52:17", "gap_end_time": "2024-06-27T15:20:02", "gap_duration_min": 87.75, "wasted_distance_km": 3.034, "prev_trip": "DA240627018601", "next_trip": "DA240627001311", "prev_O": [114.2726925, 22.2937258], "next_O": [114.1734816, 22.2725317]}, "geometry": {"type": "LineString", "coordinates": [[114.144931, 22.28836], [114.1713, 22.27614]]}}, {"type": "Feature", "properties": {"id": "ghost_YL1315_20240627152932", "plate_no": "YL1315", "gap_start_time": "2024-06-27T15:29:32", "gap_end_time": "2024-06-27T16:35:32", "gap_duration_min": 66.0, "wasted_distance_km": 0.594, "prev_trip": "DA240627001311", "next_trip": "DA240627001402", "prev_O": [114.1734816, 22.2725317], "next_O": [114.1734816, 22.2725317]}, "geometry": {"type": "LineString", "coordinates": [[114.180246, 22.276505], [114.175213, 22.273891]]}}, {"type": "Feature", "properties": {"id": "ghost_YL7929_20240627064738", "plate_no": "YL7929", "gap_start_time": "2024-06-27T06:47:38", "gap_end_time": "2024-06-27T10:30:15", "gap_duration_min": 222.62, "wasted_distance_km": 2.738, "prev_trip": "DA240627019711", "next_trip": "DA240627032111", "prev_O": [114.2018517, 22.3360239], "next_O": [114.1675766, 22.3389067]}, "geometry": {"type": "LineString", "coordinates": [[114.172255, 22.314556], [114.167523, 22.338788]]}}, {"type": "Feature", "properties": {"id": "ghost_YL9716_20240627095015", "plate_no": "YL9716", "gap_start_time": "2024-06-27T09:50:15", "gap_end_time": "2024-06-27T13:30:22", "gap_duration_min": 220.12, "wasted_distance_km": 4.675, "prev_trip": "DA240627043001", "next_trip": "DA240627015011", "prev_O": [114.1245247, 22.2709886], "next_O": [114.1727549, 22.2772347]}, "geometry": {"type": "LineString", "coordinates": [[114.172793, 22.31951], [114.172628, 22.277463]]}}, {"type": "Feature", "properties": {"id": "ghost_YY7632_20240627122744", "plate_no": "YY7632", "gap_start_time": "2024-06-27T12:27:44", "gap_end_time": "2024-06-27T13:00:16", "gap_duration_min": 32.53, "wasted_distance_km": 1.391, "prev_trip": "DA240627028811", "next_trip": "DA240627027002", "prev_O": [114.1875475, 22.3413349], "next_O": [114.2005003, 22.3793742]}, "geometry": {"type": "LineString", "coordinates": [[114.207951, 22.39302], [114.202585, 22.381538]]}}, {"type": "Feature", "properties": {"id": "ghost_ZA2376_20240627104834", "plate_no": "ZA2376", "gap_start_time": "2024-06-27T10:48:34", "gap_end_time": "2024-06-27T12:30:28", "gap_duration_min": 101.9, "wasted_distance_km": 7.765, "prev_trip": "DA240627048411", "next_trip": "DA240627030011", "prev_O": [114.1720353, 22.303848], "next_O": [114.1219651, 22.3751398]}, "geometry": {"type": "LineString", "coordinates": [[114.188008, 22.34066], [114.122303, 22.37507]]}}, {"type": "Feature", "properties": {"id": "ghost_ZA4388_20240627090653", "plate_no": "ZA4388", "gap_start_time": "2024-06-27T09:06:53", "gap_end_time": "2024-06-27T09:47:53", "gap_duration_min": 41.0, "wasted_distance_km": 1.988, "prev_trip": "DA240627026601", "next_trip": "DA240627013101", "prev_O": [114.1393313, 22.2578067], "next_O": [114.149351, 22.280507]}, "geometry": {"type": "LineString", "coordinates": [[114.130405, 22.277133], [114.14942, 22.280323]]}}, {"type": "Feature", "properties": {"id": "ghost_ZA4388_20240627100553", "plate_no": "ZA4388", "gap_start_time": "2024-06-27T10:05:53", "gap_end_time": "2024-06-27T11:30:23", "gap_duration_min": 84.5, "wasted_distance_km": 5.454, "prev_trip": "DA240627013101", "next_trip": "DA240627026311", "prev_O": [114.149351, 22.280507], "next_O": [114.185168, 22.3394295]}, "geometry": {"type": "LineString", "coordinates": [[114.198796, 22.292098], [114.185063, 22.339471]]}}, {"type": "Feature", "properties": {"id": "ghost_ZA6585_20240627081218", "plate_no": "ZA6585", "gap_start_time": "2024-06-27T08:12:18", "gap_end_time": "2024-06-27T09:30:19", "gap_duration_min": 78.02, "wasted_distance_km": 2.592, "prev_trip": "DA240627004411", "next_trip": "DA240627049201", "prev_O": [114.192092, 22.281794], "next_O": [114.1431646, 22.2870024]}, "geometry": {"type": "LineString", "coordinates": [[114.122801, 22.272378], [114.14283, 22.286515]]}}, {"type": "Feature", "properties": {"id": "ghost_ZA6585_20240627095420", "plate_no": "ZA6585", "gap_start_time": "2024-06-27T09:54:20", "gap_end_time": "2024-06-27T10:25:20", "gap_duration_min": 31.0, "wasted_distance_km": 3.565, "prev_trip": "DA240627049201", "next_trip": "DA240627044301", "prev_O": [114.1431646, 22.2870024], "next_O": [114.1927269, 22.2787965]}, "geometry": {"type": "LineString", "coordinates": [[114.172778, 22.251725], [114.192563, 22.27804]]}}, {"type": "Feature", "properties": {"id": "ghost_ZA6941_20240627083633", "plate_no": "ZA6941", "gap_start_time": "2024-06-27T08:36:33", "gap_end_time": "2024-06-27T09:50:03", "gap_duration_min": 73.5, "wasted_distance_km": 2.243, "prev_trip": "DA240627001101", "next_trip": "DA240627028411", "prev_O": [114.1645223, 22.2794233], "next_O": [114.1944442, 22.338916]}, "geometry": {"type": "LineString", "coordinates": [[114.185766, 22.319918], [114.193846, 22.338653]]}}, {"type": "Feature", "properties": {"id": "ghost_ZA7388_20240627070921", "plate_no": "ZA7388", "gap_start_time": "2024-06-27T07:09:21", "gap_end_time": "2024-06-27T08:00:06", "gap_duration_min": 50.75, "wasted_distance_km": 0.115, "prev_trip": "DA240627022201", "next_trip": "DA240627003101", "prev_O": [114.204565, 22.2898326], "next_O": [114.17302, 22.2774003]}, "geometry": {"type": "LineString", "coordinates": [[114.174561, 22.278086], [114.173481, 22.277806]]}}, {"type": "Feature", "properties": {"id": "ghost_ZA976_20240627095028", "plate_no": "ZA976", "gap_start_time": "2024-06-27T09:50:28", "gap_end_time": "2024-06-27T12:00:59", "gap_duration_min": 130.52, "wasted_distance_km": 0.763, "prev_trip": "DA240627014001", "next_trip": "DA240627046202", "prev_O": [114.2265277, 22.3145538], "next_O": [114.1748444, 22.3083749]}, "geometry": {"type": "LineString", "coordinates": [[114.176043, 22.299718], [114.177063, 22.306516]]}}, {"type": "Feature", "properties": {"id": "ghost_ZB1369_20240627093649", "plate_no": "ZB1369", "gap_start_time": "2024-06-27T09:36:49", "gap_end_time": "2024-06-27T12:00:00", "gap_duration_min": 143.18, "wasted_distance_km": 2.56, "prev_trip": "DA240627021311", "next_trip": "DA240627012802", "prev_O": [114.1797887, 22.3147891], "next_O": [114.180362, 22.339322]}, "geometry": {"type": "LineString", "coordinates": [[114.180198, 22.316731], [114.180485, 22.339755]]}}, {"type": "Feature", "properties": {"id": "ghost_ZB1369_20240627122400", "plate_no": "ZB1369", "gap_start_time": "2024-06-27T12:24:00", "gap_end_time": "2024-06-27T13:15:00", "gap_duration_min": 51.0, "wasted_distance_km": 1.73, "prev_trip": "DA240627012802", "next_trip": "DA240627015201", "prev_O": [114.180362, 22.339322], "next_O": [114.2194991, 22.285987]}, "geometry": {"type": "LineString", "coordinates": [[114.202856, 22.28631], [114.219638, 22.287315]]}}, {"type": "Feature", "properties": {"id": "ghost_ZB1369_20240627133130", "plate_no": "ZB1369", "gap_start_time": "2024-06-27T13:31:30", "gap_end_time": "2024-06-27T15:45:13", "gap_duration_min": 133.72, "wasted_distance_km": 1.682, "prev_trip": "DA240627015201", "next_trip": "DA240627004111", "prev_O": [114.2194991, 22.285987], "next_O": [114.173637, 22.2733649]}, "geometry": {"type": "LineString", "coordinates": [[114.19006, 22.274796], [114.173761, 22.273658]]}}, {"type": "Feature", "properties": {"id": "ghost_ZB3917_20240627130717", "plate_no": "ZB3917", "gap_start_time": "2024-06-27T13:07:17", "gap_end_time": "2024-06-27T14:35:29", "gap_duration_min": 88.2, "wasted_distance_km": 0.412, "prev_trip": "DA240627031302", "next_trip": "DA240627029602", "prev_O": [114.184829, 22.3262591], "next_O": [114.2285538, 22.3079624]}, "geometry": {"type": "LineString", "coordinates": [[114.223971, 22.306315], [114.227578, 22.3047]]}}, {"type": "Feature", "properties": {"id": "ghost_ZB3917_20240627144959", "plate_no": "ZB3917", "gap_start_time": "2024-06-27T14:49:59", "gap_end_time": "2024-06-27T17:00:40", "gap_duration_min": 130.68, "wasted_distance_km": 0.618, "prev_trip": "DA240627029602", "next_trip": "DA240627006011", "prev_O": [114.2285538, 22.3079624], "next_O": [114.2303424, 22.3079333]}, "geometry": {"type": "LineString", "coordinates": [[114.226936, 22.311633], [114.230975, 22.30752]]}}]}