{"type": "FeatureCollection", "features": [{"type": "Feature", "properties": {"id": "ghost_RV8266_20240603080800", "plate_no": "RV8266", "gap_start_time": "2024-06-03T08:08:00", "gap_end_time": "2024-06-03T10:05:00", "gap_duration_min": 117.0, "wasted_distance_km": 9.345, "prev_trip": "DA240603035201", "next_trip": "DA240603022701", "prev_O": [114.2286709, 22.3119317], "next_O": [114.1049409, 22.3754453]}, "geometry": {"type": "LineString", "coordinates": [[114.172831, 22.319871], [114.10495, 22.375666], [114.10494, 22.375713]]}}, {"type": "Feature", "properties": {"id": "ghost_RX3329_20240603063200", "plate_no": "RX3329", "gap_start_time": "2024-06-03T06:32:00", "gap_end_time": "2024-06-03T09:15:00", "gap_duration_min": 163.0, "wasted_distance_km": 2.106, "prev_trip": "DA240603010401", "next_trip": "DA240603021201", "prev_O": [114.167627, 22.316376], "next_O": [114.1908526, 22.3301386]}, "geometry": {"type": "LineString", "coordinates": [[114.175246, 22.318318], [114.191048, 22.330333], [114.191028, 22.330331]]}}, {"type": "Feature", "properties": {"id": "ghost_RX3329_20240603095200", "plate_no": "RX3329", "gap_start_time": "2024-06-03T09:52:00", "gap_end_time": "2024-06-03T12:00:00", "gap_duration_min": 128.0, "wasted_distance_km": 13.757, "prev_trip": "DA240603021201", "next_trip": "DA240603019202", "prev_O": [114.1908526, 22.3301386], "next_O": [114.1832816, 22.3250389]}, "geometry": {"type": "LineString", "coordinates": [[114.17187, 22.44792], [114.183093, 22.324676], [114.18306, 22.324646]]}}, {"type": "Feature", "properties": {"id": "ghost_SL7802_20240603090600", "plate_no": "SL7802", "gap_start_time": "2024-06-03T09:06:00", "gap_end_time": "2024-06-03T09:46:00", "gap_duration_min": 40.0, "wasted_distance_km": 2.171, "prev_trip": "DA240603043601", "next_trip": "DA240603038211", "prev_O": [114.1598434, 22.3369654], "next_O": [114.19728, 22.340631]}, "geometry": {"type": "LineString", "coordinates": [[114.180985, 22.327038], [114.181923, 22.327086], [114.19586, 22.340573]]}}, {"type": "Feature", "properties": {"id": "ghost_SL9199_20240603095200", "plate_no": "SL9199", "gap_start_time": "2024-06-03T09:52:00", "gap_end_time": "2024-06-03T11:20:00", "gap_duration_min": 88.0, "wasted_distance_km": 1.354, "prev_trip": "DA240603026201", "next_trip": "DA240603037111", "prev_O": [114.110796, 22.367541], "next_O": [114.1178066, 22.3689762]}, "geometry": {"type": "LineString", "coordinates": [[114.11206, 22.37514], [114.111353, 22.375393], [114.110623, 22.375893], [114.110598, 22.37649], [114.117615, 22.368895], [114.117563, 22.368915]]}}, {"type": "Feature", "properties": {"id": "ghost_SL9199_20240603114900", "plate_no": "SL9199", "gap_start_time": "2024-06-03T11:49:00", "gap_end_time": "2024-06-03T13:45:00", "gap_duration_min": 116.0, "wasted_distance_km": 13.675, "prev_trip": "DA240603037111", "next_trip": "DA240603017311", "prev_O": [114.1178066, 22.3689762], "next_O": [114.2419046, 22.42537]}, "geometry": {"type": "LineString", "coordinates": [[114.178961, 22.317411], [114.24199, 22.425693], [114.241991, 22.425705]]}}, {"type": "Feature", "properties": {"id": "ghost_SL9199_20240603141200", "plate_no": "SL9199", "gap_start_time": "2024-06-03T14:12:00", "gap_end_time": "2024-06-03T15:10:00", "gap_duration_min": 58.0, "wasted_distance_km": 0.639, "prev_trip": "DA240603017311", "next_trip": "DA240603007702", "prev_O": [114.2419046, 22.42537], "next_O": [114.1987643, 22.3804685]}, "geometry": {"type": "LineString", "coordinates": [[114.204985, 22.379115], [114.198948, 22.380351], [114.198975, 22.380343]]}}, {"type": "Feature", "properties": {"id": "ghost_SL9199_20240603152800", "plate_no": "SL9199", "gap_start_time": "2024-06-03T15:28:00", "gap_end_time": "2024-06-03T16:45:00", "gap_duration_min": 77.0, "wasted_distance_km": 1.302, "prev_trip": "DA240603007702", "next_trip": "DA240603014602", "prev_O": [114.1987643, 22.3804685], "next_O": [114.1700846, 22.3760056]}, "geometry": {"type": "LineString", "coordinates": [[114.173013, 22.365346], [114.172818, 22.365121], [114.1697, 22.376166], [114.169703, 22.376168]]}}, {"type": "Feature", "properties": {"id": "ghost_SL9336_20240603112900", "plate_no": "SL9336", "gap_start_time": "2024-06-03T11:29:00", "gap_end_time": "2024-06-03T13:50:00", "gap_duration_min": 141.0, "wasted_distance_km": 6.043, "prev_trip": "DA240603008601", "next_trip": "DA240603036011", "prev_O": [113.9392882, 22.2888401], "next_O": [114.2009229, 22.2896155]}, "geometry": {"type": "LineString", "coordinates": [[114.163288, 22.333603], [114.199633, 22.291113], [114.19946, 22.29108]]}}, {"type": "Feature", "properties": {"id": "ghost_SL9703_20240603122800", "plate_no": "SL9703", "gap_start_time": "2024-06-03T12:28:00", "gap_end_time": "2024-06-03T14:30:00", "gap_duration_min": 122.0, "wasted_distance_km": 1.103, "prev_trip": "DA240603043902", "next_trip": "DA240603043701", "prev_O": [114.1832816, 22.3250389], "next_O": [114.2142746, 22.3346491]}, "geometry": {"type": "LineString", "coordinates": [[114.216588, 22.325225], [114.214363, 22.334523], [114.214606, 22.334855]]}}, {"type": "Feature", "properties": {"id": "ghost_SM140_20240603081200", "plate_no": "SM140", "gap_start_time": "2024-06-03T08:12:00", "gap_end_time": "2024-06-03T16:45:00", "gap_duration_min": 513.0, "wasted_distance_km": 1.757, "prev_trip": "DA240603014701", "next_trip": "DA240603018102", "prev_O": [114.1819743, 22.3714238], "next_O": [114.1870722, 22.3808725]}, "geometry": {"type": "LineString", "coordinates": [[114.195408, 22.396285], [114.190745, 22.381608], [114.190456, 22.381791], [114.190318, 22.381916]]}}, {"type": "Feature", "properties": {"id": "ghost_TC5012_20240603124400", "plate_no": "TC5012", "gap_start_time": "2024-06-03T12:44:00", "gap_end_time": "2024-06-03T14:30:00", "gap_duration_min": 106.0, "wasted_distance_km": 0.523, "prev_trip": "DA240603034301", "next_trip": "DA240603009311", "prev_O": [114.2393516, 22.2942923], "next_O": [114.2296358, 22.3165412]}, "geometry": {"type": "LineString", "coordinates": [[114.226671, 22.320926], [114.230081, 22.317576], [114.22999, 22.317628]]}}, {"type": "Feature", "properties": {"id": "ghost_TD4705_20240603101700", "plate_no": "TD4705", "gap_start_time": "2024-06-03T10:17:00", "gap_end_time": "2024-06-03T13:45:00", "gap_duration_min": 208.0, "wasted_distance_km": 0.775, "prev_trip": "DA240603027801", "next_trip": "DA240603029211", "prev_O": [114.2352605, 22.3197603], "next_O": [114.23366, 22.26308]}, "geometry": {"type": "LineString", "coordinates": [[114.236966, 22.269231], [114.233616, 22.263008], [114.233611, 22.26302]]}}, {"type": "Feature", "properties": {"id": "ghost_TF6298_20240603130200", "plate_no": "TF6298", "gap_start_time": "2024-06-03T13:02:00", "gap_end_time": "2024-06-03T15:20:00", "gap_duration_min": 138.0, "wasted_distance_km": 8.16, "prev_trip": "DA240603009401", "next_trip": "DA240603012601", "prev_O": [114.158419, 22.2802571], "next_O": [114.2033378, 22.3481688]}, "geometry": {"type": "LineString", "coordinates": [[114.22711, 22.277893], [114.204036, 22.3481], [114.204036, 22.3481]]}}, {"type": "Feature", "properties": {"id": "ghost_TX9893_20240603083300", "plate_no": "TX9893", "gap_start_time": "2024-06-03T08:33:00", "gap_end_time": "2024-06-03T15:00:00", "gap_duration_min": 387.0, "wasted_distance_km": 5.596, "prev_trip": "DA240603032001", "next_trip": "DA240603033302", "prev_O": [114.251239, 22.431952], "next_O": [114.2303424, 22.3079333]}, "geometry": {"type": "LineString", "coordinates": [[114.180673, 22.326138], [114.180315, 22.326103], [114.230683, 22.308028], [114.230666, 22.308018]]}}, {"type": "Feature", "properties": {"id": "ghost_TY3130_20240603082300", "plate_no": "TY3130", "gap_start_time": "2024-06-03T08:23:00", "gap_end_time": "2024-06-03T09:15:00", "gap_duration_min": 52.0, "wasted_distance_km": 10.887, "prev_trip": "DA240603034501", "next_trip": "DA240603041601", "prev_O": [114.113115, 22.369607], "next_O": [114.2159382, 22.3335288]}, "geometry": {"type": "LineString", "coordinates": [[114.124546, 22.37038], [114.121265, 22.370113], [114.215765, 22.333255], [114.215753, 22.333263]]}}, {"type": "Feature", "properties": {"id": "ghost_TY3130_20240603094300", "plate_no": "TY3130", "gap_start_time": "2024-06-03T09:43:00", "gap_end_time": "2024-06-03T11:00:00", "gap_duration_min": 77.0, "wasted_distance_km": 5.431, "prev_trip": "DA240603041601", "next_trip": "DA240603038301", "prev_O": [114.2159382, 22.3335288], "next_O": [114.2284154, 22.314391]}, "geometry": {"type": "LineString", "coordinates": [[114.17549, 22.308655], [114.227911, 22.314253], [114.227931, 22.314273]]}}, {"type": "Feature", "properties": {"id": "ghost_TY3130_20240603111600", "plate_no": "TY3130", "gap_start_time": "2024-06-03T11:16:00", "gap_end_time": "2024-06-03T12:30:00", "gap_duration_min": 74.0, "wasted_distance_km": 4.293, "prev_trip": "DA240603038301", "next_trip": "DA240603015601", "prev_O": [114.2284154, 22.314391], "next_O": [114.2384343, 22.2980792]}, "geometry": {"type": "LineString", "coordinates": [[114.20744, 22.323161], [114.23875, 22.297733], [114.238728, 22.297671]]}}, {"type": "Feature", "properties": {"id": "ghost_TY3130_20240603124000", "plate_no": "TY3130", "gap_start_time": "2024-06-03T12:40:00", "gap_end_time": "2024-06-03T17:15:00", "gap_duration_min": 275.0, "wasted_distance_km": 4.791, "prev_trip": "DA240603015601", "next_trip": "DA240603011702", "prev_O": [114.2384343, 22.2980792], "next_O": [114.1927721, 22.2860919]}, "geometry": {"type": "LineString", "coordinates": [[114.231128, 22.308946], [114.230538, 22.309465], [114.192623, 22.285916], [114.19261, 22.285831]]}}, {"type": "Feature", "properties": {"id": "ghost_TY3130_20240603173700", "plate_no": "TY3130", "gap_start_time": "2024-06-03T17:37:00", "gap_end_time": "2024-06-03T18:30:00", "gap_duration_min": 53.0, "wasted_distance_km": 9.577, "prev_trip": "DA240603011702", "next_trip": "DA240603011311", "prev_O": [114.1927721, 22.2860919], "next_O": [114.184829, 22.3262591]}, "geometry": {"type": "LineString", "coordinates": [[114.247851, 22.264998], [114.24817, 22.264691], [114.184325, 22.325576], [114.184271, 22.326446]]}}, {"type": "Feature", "properties": {"id": "ghost_TY3250_20240603120200", "plate_no": "TY3250", "gap_start_time": "2024-06-03T12:02:00", "gap_end_time": "2024-06-03T14:00:00", "gap_duration_min": 118.0, "wasted_distance_km": 3.055, "prev_trip": "DA240603040802", "next_trip": "DA240603020201", "prev_O": [114.1841339, 22.3775127], "next_O": [114.1866201, 22.3146669]}, "geometry": {"type": "LineString", "coordinates": [[114.19083, 22.341965], [114.186871, 22.314735], [114.186871, 22.314735]]}}, {"type": "Feature", "properties": {"id": "ghost_UL3556_20240603065100", "plate_no": "UL3556", "gap_start_time": "2024-06-03T06:51:00", "gap_end_time": "2024-06-03T08:15:00", "gap_duration_min": 84.0, "wasted_distance_km": 5.854, "prev_trip": "DA240603020101", "next_trip": "DA240603020701", "prev_O": [114.2279573, 22.3177342], "next_O": [114.2220997, 22.2828742]}, "geometry": {"type": "LineString", "coordinates": [[114.178481, 22.316943], [114.221998, 22.283313], [114.22184, 22.283428]]}}, {"type": "Feature", "properties": {"id": "ghost_UL3556_20240603082600", "plate_no": "UL3556", "gap_start_time": "2024-06-03T08:26:00", "gap_end_time": "2024-06-03T08:52:00", "gap_duration_min": 26.0, "wasted_distance_km": 3.828, "prev_trip": "DA240603020701", "next_trip": "DA240603036501", "prev_O": [114.2220997, 22.2828742], "next_O": [114.2020375, 22.2908346]}, "geometry": {"type": "LineString", "coordinates": [[114.233266, 22.271343], [114.202616, 22.290716], [114.20264, 22.290636]]}}, {"type": "Feature", "properties": {"id": "ghost_UM5134_20240603104200", "plate_no": "UM5134", "gap_start_time": "2024-06-03T10:42:00", "gap_end_time": "2024-06-03T11:45:00", "gap_duration_min": 63.0, "wasted_distance_km": 7.514, "prev_trip": "DA240603014901", "next_trip": "DA240603037611", "prev_O": [114.2633643, 22.306645], "next_O": [114.230334, 22.307947]}, "geometry": {"type": "LineString", "coordinates": [[114.163158, 22.333895], [114.23064, 22.308051], [114.230643, 22.308041]]}}, {"type": "Feature", "properties": {"id": "ghost_UM7167_20240603093700", "plate_no": "UM7167", "gap_start_time": "2024-06-03T09:37:00", "gap_end_time": "2024-06-03T10:07:00", "gap_duration_min": 30.0, "wasted_distance_km": 1.971, "prev_trip": "DA240603007701", "next_trip": "DA240603026401", "prev_O": [114.1786768, 22.3729477], "next_O": [114.199679, 22.3964246]}, "geometry": {"type": "LineString", "coordinates": [[114.19898, 22.380186], [114.199981, 22.397883]]}}, {"type": "Feature", "properties": {"id": "ghost_UN9553_20240603163100", "plate_no": "UN9553", "gap_start_time": "2024-06-03T16:31:00", "gap_end_time": "2024-06-03T17:18:00", "gap_duration_min": 47.0, "wasted_distance_km": 4.119, "prev_trip": "DA240603016002", "next_trip": "DA240603031302", "prev_O": [114.1795767, 22.3045633], "next_O": [114.1762153, 22.3188841]}, "geometry": {"type": "LineString", "coordinates": [[114.202398, 22.292753], [114.174771, 22.317635], [114.17395, 22.316488]]}}, {"type": "Feature", "properties": {"id": "ghost_VD768_20240603085400", "plate_no": "VD768", "gap_start_time": "2024-06-03T08:54:00", "gap_end_time": "2024-06-03T09:26:00", "gap_duration_min": 32.0, "wasted_distance_km": 0.599, "prev_trip": "DA240603007201", "next_trip": "DA240603029011", "prev_O": [114.2270772, 22.2780082], "next_O": [114.2295647, 22.2779318]}, "geometry": {"type": "LineString", "coordinates": [[114.226106, 22.282396], [114.229526, 22.278036]]}}, {"type": "Feature", "properties": {"id": "ghost_VD768_20240603095100", "plate_no": "VD768", "gap_start_time": "2024-06-03T09:51:00", "gap_end_time": "2024-06-03T12:45:00", "gap_duration_min": 174.0, "wasted_distance_km": 9.438, "prev_trip": "DA240603029011", "next_trip": "DA240603027601", "prev_O": [114.2295647, 22.2779318], "next_O": [114.1477075, 22.2445705]}, "geometry": {"type": "LineString", "coordinates": [[114.235663, 22.263643], [114.234825, 22.264296], [114.234531, 22.26448], [114.146913, 22.244455], [114.146925, 22.244461]]}}, {"type": "Feature", "properties": {"id": "ghost_VD768_20240603130800", "plate_no": "VD768", "gap_start_time": "2024-06-03T13:08:00", "gap_end_time": "2024-06-03T15:45:00", "gap_duration_min": 157.0, "wasted_distance_km": 8.979, "prev_trip": "DA240603027601", "next_trip": "DA240603014402", "prev_O": [114.1477075, 22.2445705], "next_O": [114.1219651, 22.3714765]}, "geometry": {"type": "LineString", "coordinates": [[114.190488, 22.32147], [114.122011, 22.371535], [114.12202, 22.371555]]}}, {"type": "Feature", "properties": {"id": "ghost_VE7751_20240603133000", "plate_no": "VE7751", "gap_start_time": "2024-06-03T13:30:00", "gap_end_time": "2024-06-03T20:00:00", "gap_duration_min": 390.0, "wasted_distance_km": 1.593, "prev_trip": "DA240603027311", "next_trip": "DA240603025911", "prev_O": [114.1799048, 22.3665477], "next_O": [114.2020238, 22.3946617]}, "geometry": {"type": "LineString", "coordinates": [[114.204268, 22.378776], [114.200393, 22.392646]]}}, {"type": "Feature", "properties": {"id": "ghost_VV6972_20240603091200", "plate_no": "VV6972", "gap_start_time": "2024-06-03T09:12:00", "gap_end_time": "2024-06-03T09:46:00", "gap_duration_min": 34.0, "wasted_distance_km": 6.628, "prev_trip": "DA240603043301", "next_trip": "DA240603009011", "prev_O": [114.2053004, 22.3796623], "next_O": [114.1339825, 22.5016482]}, "geometry": {"type": "LineString", "coordinates": [[114.174546, 22.458761], [114.13302, 22.504373]]}}, {"type": "Feature", "properties": {"id": "ghost_VW3047_20240603121000", "plate_no": "VW3047", "gap_start_time": "2024-06-03T12:10:00", "gap_end_time": "2024-06-03T14:00:00", "gap_duration_min": 110.0, "wasted_distance_km": 6.666, "prev_trip": "DA240603016901", "next_trip": "DA240603011511", "prev_O": [114.2419046, 22.42537], "next_O": [114.1344783, 22.3791587]}, "geometry": {"type": "LineString", "coordinates": [[114.198186, 22.388768], [114.134238, 22.379218], [114.134285, 22.379241]]}}, {"type": "Feature", "properties": {"id": "ghost_VW895_20240603103900", "plate_no": "VW895", "gap_start_time": "2024-06-03T10:39:00", "gap_end_time": "2024-06-03T12:20:00", "gap_duration_min": 101.0, "wasted_distance_km": 8.556, "prev_trip": "DA240603033901", "next_trip": "DA240603008311", "prev_O": [114.049219, 22.473131], "next_O": [113.9736862, 22.3822517]}, "geometry": {"type": "LineString", "coordinates": [[114.00874, 22.451476], [114.007823, 22.451431], [114.007445, 22.451256], [113.973588, 22.382331], [113.973591, 22.382336]]}}, {"type": "Feature", "properties": {"id": "ghost_VX3591_20240603141700", "plate_no": "VX3591", "gap_start_time": "2024-06-03T14:17:00", "gap_end_time": "2024-06-03T16:00:00", "gap_duration_min": 103.0, "wasted_distance_km": 1.276, "prev_trip": "DA240603035711", "next_trip": "DA240603035811", "prev_O": [114.1087611, 22.3451455], "next_O": [114.167385, 22.3004445]}, "geometry": {"type": "LineString", "coordinates": [[114.16877, 22.299735], [114.16848, 22.299855], [114.163403, 22.304525], [114.163556, 22.309083]]}}, {"type": "Feature", "properties": {"id": "ghost_VY5967_20240603085400", "plate_no": "VY5967", "gap_start_time": "2024-06-03T08:54:00", "gap_end_time": "2024-06-03T09:15:00", "gap_duration_min": 21.0, "wasted_distance_km": 1.133, "prev_trip": "DA240603014401", "next_trip": "DA240603002011", "prev_O": [114.113489, 22.361165], "next_O": [114.1236864, 22.362922]}, "geometry": {"type": "LineString", "coordinates": [[114.12191, 22.37145], [114.123398, 22.36222], [114.123795, 22.362115], [114.124033, 22.362538]]}}, {"type": "Feature", "properties": {"id": "ghost_VY5967_20240603092800", "plate_no": "VY5967", "gap_start_time": "2024-06-03T09:28:00", "gap_end_time": "2024-06-03T15:45:00", "gap_duration_min": 377.0, "wasted_distance_km": 10.136, "prev_trip": "DA240603002011", "next_trip": "DA240603013402", "prev_O": [114.1236864, 22.362922], "next_O": [114.1754722, 22.4530181]}, "geometry": {"type": "LineString", "coordinates": [[114.123813, 22.37495], [114.175455, 22.452496], [114.175461, 22.452403]]}}, {"type": "Feature", "properties": {"id": "ghost_WN8723_20240603111600", "plate_no": "WN8723", "gap_start_time": "2024-06-03T11:16:00", "gap_end_time": "2024-06-03T13:45:00", "gap_duration_min": 149.0, "wasted_distance_km": 7.108, "prev_trip": "DA240603037011", "next_trip": "DA240603043811", "prev_O": [114.2617509, 22.3069831], "next_O": [114.2017654, 22.3419211]}, "geometry": {"type": "LineString", "coordinates": [[114.265435, 22.317375], [114.201648, 22.341978], [114.201648, 22.341978]]}}, {"type": "Feature", "properties": {"id": "ghost_WN8723_20240603135600", "plate_no": "WN8723", "gap_start_time": "2024-06-03T13:56:00", "gap_end_time": "2024-06-03T14:30:00", "gap_duration_min": 34.0, "wasted_distance_km": 9.798, "prev_trip": "DA240603043811", "next_trip": "DA240603019102", "prev_O": [114.2017654, 22.3419211], "next_O": [114.2575215, 22.3214718]}, "geometry": {"type": "LineString", "coordinates": [[114.163058, 22.334536], [114.163248, 22.334063], [114.255761, 22.321748], [114.257005, 22.321728]]}}, {"type": "Feature", "properties": {"id": "ghost_WN8723_20240603144300", "plate_no": "WN8723", "gap_start_time": "2024-06-03T14:43:00", "gap_end_time": "2024-06-03T15:40:00", "gap_duration_min": 57.0, "wasted_distance_km": 2.102, "prev_trip": "DA240603019102", "next_trip": "DA240603003102", "prev_O": [114.2575215, 22.3214718], "next_O": [114.212997, 22.3358478]}, "geometry": {"type": "LineString", "coordinates": [[114.230666, 22.325785], [114.213285, 22.335716], [114.213286, 22.335723]]}}, {"type": "Feature", "properties": {"id": "ghost_WN9331_20240603140000", "plate_no": "WN9331", "gap_start_time": "2024-06-03T14:00:00", "gap_end_time": "2024-06-03T15:00:00", "gap_duration_min": 60.0, "wasted_distance_km": 0.73, "prev_trip": "DA240603038101", "next_trip": "DA240603003901", "prev_O": [114.2204772, 22.287643], "next_O": [114.1734921, 22.2726294]}, "geometry": {"type": "LineString", "coordinates": [[114.179865, 22.27496], [114.173431, 22.272306], [114.173393, 22.272336]]}}, {"type": "Feature", "properties": {"id": "ghost_WN9331_20240603151400", "plate_no": "WN9331", "gap_start_time": "2024-06-03T15:14:00", "gap_end_time": "2024-06-03T16:30:00", "gap_duration_min": 76.0, "wasted_distance_km": 0.037, "prev_trip": "DA240603003901", "next_trip": "DA240603003902", "prev_O": [114.1734921, 22.2726294], "next_O": [114.1734921, 22.2726294]}, "geometry": {"type": "LineString", "coordinates": [[114.172783, 22.272728], [114.173136, 22.272681], [114.173141, 22.272681]]}}, {"type": "Feature", "properties": {"id": "ghost_WP1681_20240603103200", "plate_no": "WP1681", "gap_start_time": "2024-06-03T10:32:00", "gap_end_time": "2024-06-03T13:01:00", "gap_duration_min": 149.0, "wasted_distance_km": 4.599, "prev_trip": "DA240603037711", "next_trip": "DA240603012711", "prev_O": [114.2667488, 22.3080872], "next_O": [114.1788626, 22.3124067]}, "geometry": {"type": "LineString", "coordinates": [[114.159113, 22.280018], [114.15812, 22.280301], [114.181345, 22.314495], [114.181363, 22.314495]]}}, {"type": "Feature", "properties": {"id": "ghost_WP3825_20240603084600", "plate_no": "WP3825", "gap_start_time": "2024-06-03T08:46:00", "gap_end_time": "2024-06-03T09:31:00", "gap_duration_min": 45.0, "wasted_distance_km": 7.582, "prev_trip": "DA240603019201", "next_trip": "DA240603039211", "prev_O": [114.192957, 22.332628], "next_O": [114.2559063, 22.3149238]}, "geometry": {"type": "LineString", "coordinates": [[114.183048, 22.324666], [114.255991, 22.31504], [114.255973, 22.315026]]}}, {"type": "Feature", "properties": {"id": "ghost_WP3895_20240603062400", "plate_no": "WP3895", "gap_start_time": "2024-06-03T06:24:00", "gap_end_time": "2024-06-03T06:38:00", "gap_duration_min": 14.0, "wasted_distance_km": 3.96, "prev_trip": "DA240603019401", "next_trip": "DA240603022111", "prev_O": [114.227417, 22.3259462], "next_O": [114.1917521, 22.3405523]}, "geometry": {"type": "LineString", "coordinates": [[114.174401, 22.306991], [114.193405, 22.337958]]}}, {"type": "Feature", "properties": {"id": "ghost_WP4172_20240603154400", "plate_no": "WP4172", "gap_start_time": "2024-06-03T15:44:00", "gap_end_time": "2024-06-03T19:01:00", "gap_duration_min": 197.0, "wasted_distance_km": 21.032, "prev_trip": "DA240603026002", "next_trip": "DA240603041501", "prev_O": [114.1743747, 22.3091816], "next_O": [114.12726, 22.493879]}, "geometry": {"type": "LineString", "coordinates": [[114.227001, 22.329745], [114.127551, 22.494716], [114.127266, 22.494613]]}}, {"type": "Feature", "properties": {"id": "ghost_WP4172_20240603194200", "plate_no": "WP4172", "gap_start_time": "2024-06-03T19:42:00", "gap_end_time": "2024-06-03T20:50:00", "gap_duration_min": 68.0, "wasted_distance_km": 6.016, "prev_trip": "DA240603041501", "next_trip": "DA240603022002", "prev_O": [114.12726, 22.493879], "next_O": [114.1697356, 22.3099208]}, "geometry": {"type": "LineString", "coordinates": [[114.228076, 22.305995], [114.169815, 22.310103], [114.169841, 22.310066]]}}, {"type": "Feature", "properties": {"id": "ghost_WP510_20240603114400", "plate_no": "WP510", "gap_start_time": "2024-06-03T11:44:00", "gap_end_time": "2024-06-03T13:30:00", "gap_duration_min": 106.0, "wasted_distance_km": 2.614, "prev_trip": "DA240603020702", "next_trip": "DA240603028811", "prev_O": [114.2362653, 22.2695993], "next_O": [114.23366, 22.26308]}, "geometry": {"type": "LineString", "coordinates": [[114.226515, 22.282748], [114.226008, 22.282903], [114.225095, 22.283678], [114.233443, 22.263223], [114.233441, 22.263218]]}}, {"type": "Feature", "properties": {"id": "ghost_WP5387_20240603142300", "plate_no": "WP5387", "gap_start_time": "2024-06-03T14:23:00", "gap_end_time": "2024-06-03T16:45:00", "gap_duration_min": 142.0, "wasted_distance_km": 7.257, "prev_trip": "DA240603019402", "next_trip": "DA240603008602", "prev_O": [114.1743747, 22.3091816], "next_O": [114.1611131, 22.3341651]}, "geometry": {"type": "LineString", "coordinates": [[114.230361, 22.323413], [114.229381, 22.324053], [114.160895, 22.33415], [114.16089, 22.334146]]}}, {"type": "Feature", "properties": {"id": "ghost_XE7053_20240603104900", "plate_no": "XE7053", "gap_start_time": "2024-06-03T10:49:00", "gap_end_time": "2024-06-03T14:25:00", "gap_duration_min": 216.0, "wasted_distance_km": 23.632, "prev_trip": "DA240603025001", "next_trip": "DA240603023402", "prev_O": [114.2635572, 22.3089111], "next_O": [114.1725229, 22.3019182]}, "geometry": {"type": "LineString", "coordinates": [[113.943081, 22.284756], [114.171975, 22.301888], [114.171971, 22.301838]]}}, {"type": "Feature", "properties": {"id": "ghost_XE7595_20240603160600", "plate_no": "XE7595", "gap_start_time": "2024-06-03T16:06:00", "gap_end_time": "2024-06-03T16:45:00", "gap_duration_min": 39.0, "wasted_distance_km": 11.166, "prev_trip": "DA240603019511", "next_trip": "DA240603026202", "prev_O": [114.1937582, 22.3879328], "next_O": [114.1078444, 22.3781035]}, "geometry": {"type": "LineString", "coordinates": [[114.172381, 22.455943], [114.107361, 22.375596], [114.107298, 22.375543]]}}, {"type": "Feature", "properties": {"id": "ghost_XE782_20240603132800", "plate_no": "XE782", "gap_start_time": "2024-06-03T13:28:00", "gap_end_time": "2024-06-03T14:40:00", "gap_duration_min": 72.0, "wasted_distance_km": 3.604, "prev_trip": "DA240603007511", "next_trip": "DA240603000711", "prev_O": [114.2289959, 22.3067374], "next_O": [114.1831334, 22.3223645]}, "geometry": {"type": "LineString", "coordinates": [[114.217771, 22.323733], [114.18278, 22.322308], [114.182775, 22.322298]]}}, {"type": "Feature", "properties": {"id": "ghost_XM4556_20240603135400", "plate_no": "XM4556", "gap_start_time": "2024-06-03T13:54:00", "gap_end_time": "2024-06-03T16:30:00", "gap_duration_min": 156.0, "wasted_distance_km": 10.757, "prev_trip": "DA240603024211", "next_trip": "DA240603022602", "prev_O": [114.2009991, 22.289963], "next_O": [114.207831, 22.32266]}, "geometry": {"type": "LineString", "coordinates": [[114.23015, 22.418231], [114.20607, 22.324121], [114.206058, 22.324155]]}}, {"type": "Feature", "properties": {"id": "ghost_XM6122_20240603110900", "plate_no": "XM6122", "gap_start_time": "2024-06-03T11:09:00", "gap_end_time": "2024-06-03T12:15:00", "gap_duration_min": 66.0, "wasted_distance_km": 9.399, "prev_trip": "DA240603037811", "next_trip": "DA240603033601", "prev_O": [114.1267959, 22.3675753], "next_O": [114.2025251, 22.3443523]}, "geometry": {"type": "LineString", "coordinates": [[114.117778, 22.372623], [114.117365, 22.372756], [114.202858, 22.344161], [114.202841, 22.3442]]}}, {"type": "Feature", "properties": {"id": "ghost_XM9877_20240603105500", "plate_no": "XM9877", "gap_start_time": "2024-06-03T10:55:00", "gap_end_time": "2024-06-03T17:00:00", "gap_duration_min": 365.0, "wasted_distance_km": 8.567, "prev_trip": "DA240603028511", "next_trip": "DA240603006311", "prev_O": [114.1488843, 22.3278927], "next_O": [114.230334, 22.307947]}, "geometry": {"type": "LineString", "coordinates": [[114.15353, 22.337273], [114.230578, 22.308201], [114.230553, 22.308135]]}}, {"type": "Feature", "properties": {"id": "ghost_XN5447_20240603094900", "plate_no": "XN5447", "gap_start_time": "2024-06-03T09:49:00", "gap_end_time": "2024-06-03T12:00:00", "gap_duration_min": 131.0, "wasted_distance_km": 5.51, "prev_trip": "DA240603040001", "next_trip": "DA240603021811", "prev_O": [114.15078, 22.329662], "next_O": [114.2307374, 22.3148956]}, "geometry": {"type": "LineString", "coordinates": [[114.1786, 22.302591], [114.230408, 22.315166]]}}, {"type": "Feature", "properties": {"id": "ghost_XN6179_20240603123600", "plate_no": "XN6179", "gap_start_time": "2024-06-03T12:36:00", "gap_end_time": "2024-06-03T15:15:00", "gap_duration_min": 159.0, "wasted_distance_km": 4.045, "prev_trip": "DA240603018002", "next_trip": "DA240603015602", "prev_O": [114.1795766, 22.3045634], "next_O": [114.2287366, 22.3118568]}, "geometry": {"type": "LineString", "coordinates": [[114.189761, 22.308833], [114.228978, 22.311496], [114.228978, 22.311496]]}}, {"type": "Feature", "properties": {"id": "ghost_XN6179_20240603152200", "plate_no": "XN6179", "gap_start_time": "2024-06-03T15:22:00", "gap_end_time": "2024-06-03T15:45:00", "gap_duration_min": 23.0, "wasted_distance_km": 2.621, "prev_trip": "DA240603015602", "next_trip": "DA240603043702", "prev_O": [114.2287366, 22.3118568], "next_O": [114.2270078, 22.323232]}, "geometry": {"type": "LineString", "coordinates": [[114.238141, 22.300798], [114.227831, 22.32174], [114.228401, 22.321915]]}}, {"type": "Feature", "properties": {"id": "ghost_XN6179_20240603160300", "plate_no": "XN6179", "gap_start_time": "2024-06-03T16:03:00", "gap_end_time": "2024-06-03T17:00:00", "gap_duration_min": 57.0, "wasted_distance_km": 3.441, "prev_trip": "DA240603043702", "next_trip": "DA240603006511", "prev_O": [114.2270078, 22.323232], "next_O": [114.230334, 22.307947]}, "geometry": {"type": "LineString", "coordinates": [[114.21309, 22.333913], [114.214055, 22.333851], [114.230633, 22.308011], [114.230633, 22.308011]]}}, {"type": "Feature", "properties": {"id": "ghost_XV3002_20240603092700", "plate_no": "XV3002", "gap_start_time": "2024-06-03T09:27:00", "gap_end_time": "2024-06-03T17:00:00", "gap_duration_min": 453.0, "wasted_distance_km": 0.348, "prev_trip": "DA240603023201", "next_trip": "DA240603022511", "prev_O": [114.132811, 22.2630374], "next_O": [114.1394532, 22.2865441]}, "geometry": {"type": "LineString", "coordinates": [[114.141343, 22.284655], [114.138951, 22.286418], [114.138971, 22.286123]]}}, {"type": "Feature", "properties": {"id": "ghost_XV3928_20240603120900", "plate_no": "XV3928", "gap_start_time": "2024-06-03T12:09:00", "gap_end_time": "2024-06-03T15:00:00", "gap_duration_min": 171.0, "wasted_distance_km": 12.635, "prev_trip": "DA240603014011", "next_trip": "DA240603014502", "prev_O": [114.1294971, 22.5078859], "next_O": [114.1372631, 22.4824241]}, "geometry": {"type": "LineString", "coordinates": [[114.120928, 22.370198], [114.120263, 22.370133], [114.137455, 22.481996], [114.137478, 22.481991]]}}, {"type": "Feature", "properties": {"id": "ghost_XV7112_20240603110000", "plate_no": "XV7112", "gap_start_time": "2024-06-03T11:00:00", "gap_end_time": "2024-06-03T13:00:00", "gap_duration_min": 120.0, "wasted_distance_km": 12.377, "prev_trip": "DA240603032501", "next_trip": "DA240603017801", "prev_O": [114.1203858, 22.3670155], "next_O": [114.1674118, 22.3396263]}, "geometry": {"type": "LineString", "coordinates": [[114.16767, 22.451001], [114.167808, 22.339693], [114.167808, 22.339693]]}}, {"type": "Feature", "properties": {"id": "ghost_XV7112_20240603131400", "plate_no": "XV7112", "gap_start_time": "2024-06-03T13:14:00", "gap_end_time": "2024-06-03T16:00:00", "gap_duration_min": 166.0, "wasted_distance_km": 24.636, "prev_trip": "DA240603017801", "next_trip": "DA240603002302", "prev_O": [114.1674118, 22.3396263], "next_O": [113.9649146, 22.3748696]}, "geometry": {"type": "LineString", "coordinates": [[114.20443, 22.378838], [113.964916, 22.375515], [113.96488, 22.37547]]}}, {"type": "Feature", "properties": {"id": "ghost_YJ4587_20240603133700", "plate_no": "YJ4587", "gap_start_time": "2024-06-03T13:37:00", "gap_end_time": "2024-06-03T20:30:00", "gap_duration_min": 413.0, "wasted_distance_km": 0.234, "prev_trip": "DA240603024801", "next_trip": "DA240603024802", "prev_O": [113.9853822, 22.4133667], "next_O": [113.9758931, 22.408255]}, "geometry": {"type": "LineString", "coordinates": [[113.976258, 22.410018], [113.97608, 22.408095], [113.97624, 22.408006]]}}, {"type": "Feature", "properties": {"id": "ghost_YK4725_20240603105400", "plate_no": "YK4725", "gap_start_time": "2024-06-03T10:54:00", "gap_end_time": "2024-06-03T13:01:00", "gap_duration_min": 127.0, "wasted_distance_km": 4.794, "prev_trip": "DA240603044401", "next_trip": "DA240603018711", "prev_O": [114.1565225, 22.3342843], "next_O": [114.2162379, 22.2854494]}, "geometry": {"type": "LineString", "coordinates": [[114.174308, 22.279856], [114.219465, 22.284913], [114.220303, 22.284245]]}}, {"type": "Feature", "properties": {"id": "ghost_YK4725_20240603131900", "plate_no": "YK4725", "gap_start_time": "2024-06-03T13:19:00", "gap_end_time": "2024-06-03T16:30:00", "gap_duration_min": 191.0, "wasted_distance_km": 8.401, "prev_trip": "DA240603018711", "next_trip": "DA240603018402", "prev_O": [114.2162379, 22.2854494], "next_O": [114.1814018, 22.3246172]}, "geometry": {"type": "LineString", "coordinates": [[114.130141, 22.27421], [114.130853, 22.271843], [114.181051, 22.326263], [114.17941, 22.325966]]}}, {"type": "Feature", "properties": {"id": "ghost_YK4725_20240603163600", "plate_no": "YK4725", "gap_start_time": "2024-06-03T16:36:00", "gap_end_time": "2024-06-03T17:00:00", "gap_duration_min": 24.0, "wasted_distance_km": 2.648, "prev_trip": "DA240603018402", "next_trip": "DA240603013902", "prev_O": [114.1814018, 22.3246172], "next_O": [114.1743747, 22.3091816]}, "geometry": {"type": "LineString", "coordinates": [[114.161331, 22.325105], [114.158821, 22.324925], [114.175211, 22.309708]]}}, {"type": "Feature", "properties": {"id": "ghost_YK5072_20240603090900", "plate_no": "YK5072", "gap_start_time": "2024-06-03T09:09:00", "gap_end_time": "2024-06-03T09:29:00", "gap_duration_min": 20.0, "wasted_distance_km": 2.691, "prev_trip": "DA240603019801", "next_trip": "DA240603038701", "prev_O": [114.1035242, 22.3486056], "next_O": [114.136552, 22.250488]}, "geometry": {"type": "LineString", "coordinates": [[114.12664, 22.273195], [114.136676, 22.25085]]}}, {"type": "Feature", "properties": {"id": "ghost_YK5072_20240603100600", "plate_no": "YK5072", "gap_start_time": "2024-06-03T10:06:00", "gap_end_time": "2024-06-03T14:50:00", "gap_duration_min": 284.0, "wasted_distance_km": 11.969, "prev_trip": "DA240603038701", "next_trip": "DA240603032801", "prev_O": [114.136552, 22.250488], "next_O": [114.15078, 22.329662]}, "geometry": {"type": "LineString", "coordinates": [[114.238606, 22.259336], [114.150256, 22.329311], [114.150236, 22.329341]]}}, {"type": "Feature", "properties": {"id": "ghost_YK5072_20240603150400", "plate_no": "YK5072", "gap_start_time": "2024-06-03T15:04:00", "gap_end_time": "2024-06-03T17:10:00", "gap_duration_min": 126.0, "wasted_distance_km": 0.421, "prev_trip": "DA240603032801", "next_trip": "DA240603032802", "prev_O": [114.15078, 22.329662], "next_O": [114.1763226, 22.3187944]}, "geometry": {"type": "LineString", "coordinates": [[114.173491, 22.316088], [114.176985, 22.318051]]}}, {"type": "Feature", "properties": {"id": "ghost_YK5072_20240603173100", "plate_no": "YK5072", "gap_start_time": "2024-06-03T17:31:00", "gap_end_time": "2024-06-03T18:30:00", "gap_duration_min": 59.0, "wasted_distance_km": 7.748, "prev_trip": "DA240603032802", "next_trip": "DA240603023101", "prev_O": [114.1763226, 22.3187944], "next_O": [114.1942585, 22.3864175]}, "geometry": {"type": "LineString", "coordinates": [[114.152121, 22.328426], [114.194283, 22.386138], [114.194295, 22.38617]]}}, {"type": "Feature", "properties": {"id": "ghost_YK7398_20240603120200", "plate_no": "YK7398", "gap_start_time": "2024-06-03T12:02:00", "gap_end_time": "2024-06-03T14:10:00", "gap_duration_min": 128.0, "wasted_distance_km": 6.2, "prev_trip": "DA240603029911", "next_trip": "DA240603025401", "prev_O": [114.2440086, 22.3214412], "next_O": [114.157823, 22.2486203]}, "geometry": {"type": "LineString", "coordinates": [[114.20217, 22.285875], [114.201808, 22.285208], [114.157586, 22.24856], [114.157666, 22.24853]]}}, {"type": "Feature", "properties": {"id": "ghost_YK7541_20240603092700", "plate_no": "YK7541", "gap_start_time": "2024-06-03T09:27:00", "gap_end_time": "2024-06-03T11:51:00", "gap_duration_min": 144.0, "wasted_distance_km": 0.018, "prev_trip": "DA240603012501", "next_trip": "DA240603012502", "prev_O": [114.0015178, 22.4691353], "next_O": [113.9649146, 22.3748696]}, "geometry": {"type": "LineString", "coordinates": [[113.96127, 22.375273], [113.961371, 22.375141]]}}, {"type": "Feature", "properties": {"id": "ghost_YK9007_20240603100400", "plate_no": "YK9007", "gap_start_time": "2024-06-03T10:04:00", "gap_end_time": "2024-06-03T14:35:00", "gap_duration_min": 271.0, "wasted_distance_km": 11.728, "prev_trip": "DA240603011801", "next_trip": "DA240603003711", "prev_O": [114.1225225, 22.3665044], "next_O": [114.173637, 22.2733649]}, "geometry": {"type": "LineString", "coordinates": [[114.122033, 22.366785], [114.175016, 22.273406], [114.175005, 22.273405]]}}, {"type": "Feature", "properties": {"id": "ghost_YK905_20240603112200", "plate_no": "YK905", "gap_start_time": "2024-06-03T11:22:00", "gap_end_time": "2024-06-03T13:15:00", "gap_duration_min": 113.0, "wasted_distance_km": 0.036, "prev_trip": "DA240603026701", "next_trip": "DA240603026702", "prev_O": [114.176559, 22.3679371], "next_O": [114.1253327, 22.369354]}, "geometry": {"type": "LineString", "coordinates": [[114.124936, 22.369361], [114.124611, 22.369486]]}}, {"type": "Feature", "properties": {"id": "ghost_YK9198_20240603091600", "plate_no": "YK9198", "gap_start_time": "2024-06-03T09:16:00", "gap_end_time": "2024-06-03T13:31:00", "gap_duration_min": 255.0, "wasted_distance_km": 6.023, "prev_trip": "DA240603006111", "next_trip": "DA240603009101", "prev_O": [114.2755017, 22.2971806], "next_O": [114.1910075, 22.3429899]}, "geometry": {"type": "LineString", "coordinates": [[114.228405, 22.306105], [114.187718, 22.344666], [114.18759, 22.344918]]}}, {"type": "Feature", "properties": {"id": "ghost_YY7632_20240603100200", "plate_no": "YY7632", "gap_start_time": "2024-06-03T10:02:00", "gap_end_time": "2024-06-03T13:40:00", "gap_duration_min": 218.0, "wasted_distance_km": 7.232, "prev_trip": "DA240603016401", "next_trip": "DA240603008501", "prev_O": [114.232943, 22.307857], "next_O": [114.2168753, 22.3806145]}, "geometry": {"type": "LineString", "coordinates": [[114.229305, 22.316238], [114.216998, 22.38014], [114.217068, 22.380258]]}}, {"type": "Feature", "properties": {"id": "ghost_YZ9431_20240603081900", "plate_no": "YZ9431", "gap_start_time": "2024-06-03T08:19:00", "gap_end_time": "2024-06-03T09:25:00", "gap_duration_min": 66.0, "wasted_distance_km": 2.09, "prev_trip": "DA240603005011", "next_trip": "DA240603019301", "prev_O": [114.192092, 22.281794], "next_O": [114.1416827, 22.2837515]}, "geometry": {"type": "LineString", "coordinates": [[114.125358, 22.272893], [114.141866, 22.283595], [114.141798, 22.283723]]}}, {"type": "Feature", "properties": {"id": "ghost_YZ9431_20240603094100", "plate_no": "YZ9431", "gap_start_time": "2024-06-03T09:41:00", "gap_end_time": "2024-06-03T14:50:00", "gap_duration_min": 309.0, "wasted_distance_km": 6.458, "prev_trip": "DA240603019301", "next_trip": "DA240603034002", "prev_O": [114.1416827, 22.2837515], "next_O": [114.1882198, 22.278467]}, "geometry": {"type": "LineString", "coordinates": [[114.12372, 22.270843], [114.185868, 22.27748], [114.185748, 22.277326]]}}, {"type": "Feature", "properties": {"id": "ghost_ZA3805_20240603094400", "plate_no": "ZA3805", "gap_start_time": "2024-06-03T09:44:00", "gap_end_time": "2024-06-03T13:30:00", "gap_duration_min": 226.0, "wasted_distance_km": 3.018, "prev_trip": "DA240603016802", "next_trip": "DA240603034611", "prev_O": [114.2014147, 22.3788502], "next_O": [114.2014147, 22.3788502]}, "geometry": {"type": "LineString", "coordinates": [[114.177021, 22.376466], [114.204348, 22.379275], [114.204925, 22.378426], [114.204216, 22.378143]]}}, {"type": "Feature", "properties": {"id": "ghost_ZA6941_20240603104300", "plate_no": "ZA6941", "gap_start_time": "2024-06-03T10:43:00", "gap_end_time": "2024-06-03T12:45:00", "gap_duration_min": 122.0, "wasted_distance_km": 4.302, "prev_trip": "DA240603018001", "next_trip": "DA240603030101", "prev_O": [114.1926114, 22.3085362], "next_O": [114.212603, 22.3248013]}, "geometry": {"type": "LineString", "coordinates": [[114.177896, 22.303565], [114.212496, 22.325236], [114.212503, 22.325201]]}}, {"type": "Feature", "properties": {"id": "ghost_ZB3917_20240603122800", "plate_no": "ZB3917", "gap_start_time": "2024-06-03T12:28:00", "gap_end_time": "2024-06-03T14:00:00", "gap_duration_min": 92.0, "wasted_distance_km": 4.558, "prev_trip": "DA240603040002", "next_trip": "DA240603041001", "prev_O": [114.1795767, 22.3045633], "next_O": [114.1878414, 22.3129079]}, "geometry": {"type": "LineString", "coordinates": [[114.14842, 22.331985], [114.18754, 22.312733], [114.18754, 22.312733]]}}]}