{"type": "FeatureCollection", "features": [{"type": "Feature", "properties": {"id": "ghost_RV3951_20240612092127", "plate_no": "RV3951", "gap_start_time": "2024-06-12T09:21:27", "gap_end_time": "2024-06-12T12:50:18", "gap_duration_min": 208.85, "wasted_distance_km": 6.334, "prev_trip": "DA240612029001", "next_trip": "DA240612041011", "prev_O": [114.2399321, 22.3366271], "next_O": [114.1245247, 22.2709886]}, "geometry": {"type": "LineString", "coordinates": [[114.185095, 22.277706], [114.123968, 22.270975]]}}, {"type": "Feature", "properties": {"id": "ghost_RV4356_20240612082441", "plate_no": "RV4356", "gap_start_time": "2024-06-12T08:24:41", "gap_end_time": "2024-06-12T09:00:13", "gap_duration_min": 35.53, "wasted_distance_km": 3.035, "prev_trip": "DA240612046311", "next_trip": "DA240612045001", "prev_O": [114.1944442, 22.338916], "next_O": [114.159871, 22.336948]}, "geometry": {"type": "LineString", "coordinates": [[114.175658, 22.313171], [114.157546, 22.334723]]}}, {"type": "Feature", "properties": {"id": "ghost_RV4356_20240612091141", "plate_no": "RV4356", "gap_start_time": "2024-06-12T09:11:41", "gap_end_time": "2024-06-12T13:00:16", "gap_duration_min": 228.58, "wasted_distance_km": 5.16, "prev_trip": "DA240612045001", "next_trip": "DA240612045611", "prev_O": [114.159871, 22.336948], "next_O": [114.2285083, 22.320914]}, "geometry": {"type": "LineString", "coordinates": [[114.17913, 22.31757], [114.229121, 22.321453]]}}, {"type": "Feature", "properties": {"id": "ghost_RV4356_20240612131653", "plate_no": "RV4356", "gap_start_time": "2024-06-12T13:16:53", "gap_end_time": "2024-06-12T15:30:29", "gap_duration_min": 133.6, "wasted_distance_km": 5.43, "prev_trip": "DA240612045611", "next_trip": "DA240612029302", "prev_O": [114.2285083, 22.320914], "next_O": [114.2303424, 22.3079333]}, "geometry": {"type": "LineString", "coordinates": [[114.177508, 22.305986], [114.230281, 22.30527]]}}, {"type": "Feature", "properties": {"id": "ghost_RV7493_20240612111113", "plate_no": "RV7493", "gap_start_time": "2024-06-12T11:11:13", "gap_end_time": "2024-06-12T14:10:53", "gap_duration_min": 179.67, "wasted_distance_km": 4.892, "prev_trip": "DA240612028502", "next_trip": "DA240612023201", "prev_O": [114.2303424, 22.3079333], "next_O": [114.2037094, 22.330674]}, "geometry": {"type": "LineString", "coordinates": [[114.23826, 22.30092], [114.203253, 22.330695]]}}, {"type": "Feature", "properties": {"id": "ghost_RV8266_20240612083023", "plate_no": "RV8266", "gap_start_time": "2024-06-12T08:30:23", "gap_end_time": "2024-06-12T12:45:10", "gap_duration_min": 254.78, "wasted_distance_km": 6.489, "prev_trip": "DA240612006811", "next_trip": "DA240612014201", "prev_O": [114.2567421, 22.3113053], "next_O": [114.186342, 22.317778]}, "geometry": {"type": "LineString", "coordinates": [[114.249251, 22.323665], [114.186413, 22.318566]]}}, {"type": "Feature", "properties": {"id": "ghost_RX3329_20240612090424", "plate_no": "RX3329", "gap_start_time": "2024-06-12T09:04:24", "gap_end_time": "2024-06-12T09:30:49", "gap_duration_min": 26.42, "wasted_distance_km": 0.933, "prev_trip": "DA240612002701", "next_trip": "DA240612022201", "prev_O": [114.268715, 22.2962922], "next_O": [114.2094681, 22.3284564]}, "geometry": {"type": "LineString", "coordinates": [[114.213156, 22.335843], [114.210365, 22.327863]]}}, {"type": "Feature", "properties": {"id": "ghost_RX3329_20240612095749", "plate_no": "RX3329", "gap_start_time": "2024-06-12T09:57:49", "gap_end_time": "2024-06-12T12:01:34", "gap_duration_min": 123.75, "wasted_distance_km": 5.627, "prev_trip": "DA240612022201", "next_trip": "DA240612028311", "prev_O": [114.2094681, 22.3284564], "next_O": [114.2301021, 22.3077205]}, "geometry": {"type": "LineString", "coordinates": [[114.176285, 22.31131], [114.230873, 22.308018]]}}, {"type": "Feature", "properties": {"id": "ghost_SL7802_20240612091219", "plate_no": "SL7802", "gap_start_time": "2024-06-12T09:12:19", "gap_end_time": "2024-06-12T09:58:05", "gap_duration_min": 45.77, "wasted_distance_km": 7.242, "prev_trip": "DA240612028401", "next_trip": "DA240612043101", "prev_O": [114.15078, 22.329662], "next_O": [114.1249379, 22.3605418]}, "geometry": {"type": "LineString", "coordinates": [[114.171413, 22.313116], [114.121481, 22.35904]]}}, {"type": "Feature", "properties": {"id": "ghost_SM453_20240612112115", "plate_no": "SM453", "gap_start_time": "2024-06-12T11:21:15", "gap_end_time": "2024-06-12T13:30:20", "gap_duration_min": 129.08, "wasted_distance_km": 8.211, "prev_trip": "DA240612045511", "next_trip": "DA240612019411", "prev_O": [114.1418959, 22.3452847], "next_O": [114.070833, 22.426567]}, "geometry": {"type": "LineString", "coordinates": [[113.998513, 22.455401], [114.072125, 22.426695]]}}, {"type": "Feature", "properties": {"id": "ghost_TC5012_20240612113559", "plate_no": "TC5012", "gap_start_time": "2024-06-12T11:35:59", "gap_end_time": "2024-06-12T14:00:41", "gap_duration_min": 144.7, "wasted_distance_km": 1.945, "prev_trip": "DA240612027801", "next_trip": "DA240612020501", "prev_O": [114.2381156, 22.3107977], "next_O": [114.2536398, 22.3258021]}, "geometry": {"type": "LineString", "coordinates": [[114.268266, 22.318345], [114.251261, 22.325991]]}}, {"type": "Feature", "properties": {"id": "ghost_TC6931_20240612133255", "plate_no": "TC6931", "gap_start_time": "2024-06-12T13:32:55", "gap_end_time": "2024-06-12T20:54:37", "gap_duration_min": 441.7, "wasted_distance_km": 5.743, "prev_trip": "DA240612010711", "next_trip": "DA240612039902", "prev_O": [114.1112, 22.375143], "next_O": [114.155652, 22.280191]}, "geometry": {"type": "LineString", "coordinates": [[114.183091, 22.324646], [114.15932, 22.277913]]}}, {"type": "Feature", "properties": {"id": "ghost_TD7860_20240612082422", "plate_no": "TD7860", "gap_start_time": "2024-06-12T08:24:22", "gap_end_time": "2024-06-12T13:00:02", "gap_duration_min": 275.67, "wasted_distance_km": 6.191, "prev_trip": "DA240612013601", "next_trip": "DA240612024502", "prev_O": [114.1819743, 22.3714238], "next_O": [114.202222, 22.3411893]}, "geometry": {"type": "LineString", "coordinates": [[114.195413, 22.396306], [114.20223, 22.34099]]}}, {"type": "Feature", "properties": {"id": "ghost_TD7860_20240612131131", "plate_no": "TD7860", "gap_start_time": "2024-06-12T13:11:31", "gap_end_time": "2024-06-12T17:45:04", "gap_duration_min": 273.55, "wasted_distance_km": 5.661, "prev_trip": "DA240612024502", "next_trip": "DA240612014702", "prev_O": [114.202222, 22.3411893], "next_O": [114.2014147, 22.3788502]}, "geometry": {"type": "LineString", "coordinates": [[114.165353, 22.340078], [114.201596, 22.378403]]}}, {"type": "Feature", "properties": {"id": "ghost_TF1503_20240612152201", "plate_no": "TF1503", "gap_start_time": "2024-06-12T15:22:01", "gap_end_time": "2024-06-12T16:45:28", "gap_duration_min": 83.45, "wasted_distance_km": 15.198, "prev_trip": "DA240612013102", "next_trip": "DA240612015602", "prev_O": [114.1372631, 22.4824241], "next_O": [114.201222, 22.378404]}, "geometry": {"type": "LineString", "coordinates": [[114.13381, 22.500015], [114.201456, 22.378471]]}}, {"type": "Feature", "properties": {"id": "ghost_TF2479_20240612064415", "plate_no": "TF2479", "gap_start_time": "2024-06-12T06:44:15", "gap_end_time": "2024-06-12T08:58:54", "gap_duration_min": 134.65, "wasted_distance_km": 3.313, "prev_trip": "DA240612024901", "next_trip": "DA240612007001", "prev_O": [114.2395037, 22.2679627], "next_O": [114.2270772, 22.2780082]}, "geometry": {"type": "LineString", "coordinates": [[114.19458, 22.27551], [114.226016, 22.281943]]}}, {"type": "Feature", "properties": {"id": "ghost_TF2479_20240612090712", "plate_no": "TF2479", "gap_start_time": "2024-06-12T09:07:12", "gap_end_time": "2024-06-12T09:30:12", "gap_duration_min": 23.0, "wasted_distance_km": 2.175, "prev_trip": "DA240612007001", "next_trip": "DA240612025211", "prev_O": [114.2270772, 22.2780082], "next_O": [114.23478, 22.262839]}, "geometry": {"type": "LineString", "coordinates": [[114.22969, 22.282193], [114.234711, 22.263195]]}}, {"type": "Feature", "properties": {"id": "ghost_TF6298_20240612131715", "plate_no": "TF6298", "gap_start_time": "2024-06-12T13:17:15", "gap_end_time": "2024-06-12T16:45:13", "gap_duration_min": 207.97, "wasted_distance_km": 1.633, "prev_trip": "DA240612038901", "next_trip": "DA240612007411", "prev_O": [114.1934337, 22.3463861], "next_O": [114.2182917, 22.3260159]}, "geometry": {"type": "LineString", "coordinates": [[114.225213, 22.313225], [114.217985, 22.326303]]}}, {"type": "Feature", "properties": {"id": "ghost_TW274_20240612095059", "plate_no": "TW274", "gap_start_time": "2024-06-12T09:50:59", "gap_end_time": "2024-06-12T11:10:02", "gap_duration_min": 79.05, "wasted_distance_km": 2.061, "prev_trip": "DA240612019801", "next_trip": "DA240612028402", "prev_O": [114.1430877, 22.2850022], "next_O": [114.1763226, 22.3187944]}, "geometry": {"type": "LineString", "coordinates": [[114.167866, 22.302803], [114.176933, 22.319336]]}}, {"type": "Feature", "properties": {"id": "ghost_TW274_20240612113232", "plate_no": "TW274", "gap_start_time": "2024-06-12T11:32:32", "gap_end_time": "2024-06-12T12:51:13", "gap_duration_min": 78.68, "wasted_distance_km": 1.88, "prev_trip": "DA240612028402", "next_trip": "DA240612015511", "prev_O": [114.1763226, 22.3187944], "next_O": [114.1687962, 22.3240273]}, "geometry": {"type": "LineString", "coordinates": [[114.152766, 22.328818], [114.169036, 22.321108]]}}, {"type": "Feature", "properties": {"id": "ghost_TW6581_20240612105315", "plate_no": "TW6581", "gap_start_time": "2024-06-12T10:53:15", "gap_end_time": "2024-06-12T14:30:27", "gap_duration_min": 217.2, "wasted_distance_km": 8.695, "prev_trip": "DA240612024501", "next_trip": "DA240612038101", "prev_O": [114.1675766, 22.3389067], "next_O": [114.1236125, 22.3669113]}, "geometry": {"type": "LineString", "coordinates": [[114.203456, 22.340326], [114.123788, 22.366501]]}}, {"type": "Feature", "properties": {"id": "ghost_TW8217_20240612084423", "plate_no": "TW8217", "gap_start_time": "2024-06-12T08:44:23", "gap_end_time": "2024-06-12T09:10:24", "gap_duration_min": 26.02, "wasted_distance_km": 1.798, "prev_trip": "DA240612009601", "next_trip": "DA240612017601", "prev_O": [114.228115, 22.280767], "next_O": [114.226268, 22.2780256]}, "geometry": {"type": "LineString", "coordinates": [[114.243531, 22.272466], [114.227315, 22.27849]]}}, {"type": "Feature", "properties": {"id": "ghost_TW8217_20240612092850", "plate_no": "TW8217", "gap_start_time": "2024-06-12T09:28:50", "gap_end_time": "2024-06-12T10:30:22", "gap_duration_min": 61.53, "wasted_distance_km": 4.909, "prev_trip": "DA240612017601", "next_trip": "DA240612043201", "prev_O": [114.226268, 22.2780256], "next_O": [114.1363081, 22.2538641]}, "geometry": {"type": "LineString", "coordinates": [[114.180788, 22.270423], [114.136541, 22.253935]]}}, {"type": "Feature", "properties": {"id": "ghost_TW8217_20240612105333", "plate_no": "TW8217", "gap_start_time": "2024-06-12T10:53:33", "gap_end_time": "2024-06-12T13:45:14", "gap_duration_min": 171.68, "wasted_distance_km": 7.406, "prev_trip": "DA240612043201", "next_trip": "DA240612033301", "prev_O": [114.1363081, 22.2538641], "next_O": [114.2204772, 22.287643]}, "geometry": {"type": "LineString", "coordinates": [[114.145426, 22.285438], [114.21737, 22.287448]]}}, {"type": "Feature", "properties": {"id": "ghost_TW8217_20240612140542", "plate_no": "TW8217", "gap_start_time": "2024-06-12T14:05:42", "gap_end_time": "2024-06-12T15:50:01", "gap_duration_min": 104.32, "wasted_distance_km": 5.489, "prev_trip": "DA240612033301", "next_trip": "DA240612004411", "prev_O": [114.2204772, 22.287643], "next_O": [114.1245247, 22.2709886]}, "geometry": {"type": "LineString", "coordinates": [[114.175513, 22.274698], [114.122323, 22.270966]]}}, {"type": "Feature", "properties": {"id": "ghost_TX9769_20240612080105", "plate_no": "TX9769", "gap_start_time": "2024-06-12T08:01:05", "gap_end_time": "2024-06-12T09:00:00", "gap_duration_min": 58.92, "wasted_distance_km": 3.056, "prev_trip": "DA240612027601", "next_trip": "DA240612011401", "prev_O": [114.186736, 22.30968], "next_O": [114.1565225, 22.3342843]}, "geometry": {"type": "LineString", "coordinates": [[114.184086, 22.323398], [114.15658, 22.333796]]}}, {"type": "Feature", "properties": {"id": "ghost_TX9769_20240612094801", "plate_no": "TX9769", "gap_start_time": "2024-06-12T09:48:01", "gap_end_time": "2024-06-12T14:05:16", "gap_duration_min": 257.25, "wasted_distance_km": 6.891, "prev_trip": "DA240612011401", "next_trip": "DA240612034501", "prev_O": [114.1565225, 22.3342843], "next_O": [114.236191, 22.301887]}, "geometry": {"type": "LineString", "coordinates": [[114.174681, 22.277905], [114.236446, 22.301876]]}}, {"type": "Feature", "properties": {"id": "ghost_UL3556_20240612071837", "plate_no": "UL3556", "gap_start_time": "2024-06-12T07:18:37", "gap_end_time": "2024-06-12T08:00:16", "gap_duration_min": 41.65, "wasted_distance_km": 0.598, "prev_trip": "DA240612030511", "next_trip": "DA240612003011", "prev_O": [114.1675619, 22.3064441], "next_O": [114.2365271, 22.2631632]}, "geometry": {"type": "LineString", "coordinates": [[114.237518, 22.26857], [114.235853, 22.263413]]}}, {"type": "Feature", "properties": {"id": "ghost_UL3556_20240612091316", "plate_no": "UL3556", "gap_start_time": "2024-06-12T09:13:16", "gap_end_time": "2024-06-12T13:00:07", "gap_duration_min": 226.85, "wasted_distance_km": 11.73, "prev_trip": "DA240612003011", "next_trip": "DA240612013802", "prev_O": [114.2365271, 22.2631632], "next_O": [114.1856235, 22.3766467]}, "geometry": {"type": "LineString", "coordinates": [[114.17568, 22.274668], [114.189256, 22.379405]]}}, {"type": "Feature", "properties": {"id": "ghost_UL7617_20240612093634", "plate_no": "UL7617", "gap_start_time": "2024-06-12T09:36:34", "gap_end_time": "2024-06-12T11:00:04", "gap_duration_min": 83.5, "wasted_distance_km": 0.572, "prev_trip": "DA240612015101", "next_trip": "DA240612015102", "prev_O": [113.9740818, 22.3843575], "next_O": [114.1260671, 22.3474958]}, "geometry": {"type": "LineString", "coordinates": [[114.127821, 22.351651], [114.126025, 22.346783]]}}, {"type": "Feature", "properties": {"id": "ghost_UL7804_20240612160101", "plate_no": "UL7804", "gap_start_time": "2024-06-12T16:01:01", "gap_end_time": "2024-06-12T16:32:58", "gap_duration_min": 31.95, "wasted_distance_km": 1.765, "prev_trip": "DA240612022402", "next_trip": "DA240612025702", "prev_O": [114.1763226, 22.3187944], "next_O": [114.201222, 22.378404]}, "geometry": {"type": "LineString", "coordinates": [[114.188285, 22.374816], [114.204835, 22.379018]]}}, {"type": "Feature", "properties": {"id": "ghost_UM5926_20240612102312", "plate_no": "UM5926", "gap_start_time": "2024-06-12T10:23:12", "gap_end_time": "2024-06-12T12:15:12", "gap_duration_min": 112.0, "wasted_distance_km": 2.164, "prev_trip": "DA240612040611", "next_trip": "DA240612024011", "prev_O": [114.234206, 22.3071441], "next_O": [114.2302479, 22.308176]}, "geometry": {"type": "LineString", "coordinates": [[114.230601, 22.325365], [114.228608, 22.305995]]}}, {"type": "Feature", "properties": {"id": "ghost_UM5926_20240612122642", "plate_no": "UM5926", "gap_start_time": "2024-06-12T12:26:42", "gap_end_time": "2024-06-12T13:30:07", "gap_duration_min": 63.42, "wasted_distance_km": 0.456, "prev_trip": "DA240612024011", "next_trip": "DA240612019301", "prev_O": [114.2302479, 22.308176], "next_O": [114.2025251, 22.3443523]}, "geometry": {"type": "LineString", "coordinates": [[114.198543, 22.342873], [114.202731, 22.344225]]}}, {"type": "Feature", "properties": {"id": "ghost_UM7167_20240612093855", "plate_no": "UM7167", "gap_start_time": "2024-06-12T09:38:55", "gap_end_time": "2024-06-12T10:30:40", "gap_duration_min": 51.75, "wasted_distance_km": 0.639, "prev_trip": "DA240612007501", "next_trip": "DA240612008411", "prev_O": [114.1786768, 22.3729477], "next_O": [114.1988011, 22.3804562]}, "geometry": {"type": "LineString", "coordinates": [[114.194108, 22.380701], [114.199688, 22.378165]]}}, {"type": "Feature", "properties": {"id": "ghost_UN9790_20240612080627", "plate_no": "UN9790", "gap_start_time": "2024-06-12T08:06:27", "gap_end_time": "2024-06-12T12:30:42", "gap_duration_min": 264.25, "wasted_distance_km": 10.77, "prev_trip": "DA240612030701", "next_trip": "DA240612031111", "prev_O": [114.113115, 22.369607], "next_O": [114.21284, 22.335789]}, "geometry": {"type": "LineString", "coordinates": [[114.114671, 22.370728], [114.211658, 22.334193]]}}, {"type": "Feature", "properties": {"id": "ghost_UP3870_20240612111037", "plate_no": "UP3870", "gap_start_time": "2024-06-12T11:10:37", "gap_end_time": "2024-06-12T14:00:06", "gap_duration_min": 169.48, "wasted_distance_km": 7.199, "prev_trip": "DA240612033111", "next_trip": "DA240612014701", "prev_O": [114.230334, 22.307947], "next_O": [114.1727658, 22.3782576]}, "geometry": {"type": "LineString", "coordinates": [[114.17152, 22.31322], [114.172095, 22.377956]]}}, {"type": "Feature", "properties": {"id": "ghost_UP4016_20240612084249", "plate_no": "UP4016", "gap_start_time": "2024-06-12T08:42:49", "gap_end_time": "2024-06-12T09:04:49", "gap_duration_min": 22.0, "wasted_distance_km": 1.343, "prev_trip": "DA240612000811", "next_trip": "DA240612008201", "prev_O": [114.217242, 22.322492], "next_O": [114.177739, 22.31337]}, "geometry": {"type": "LineString", "coordinates": [[114.185993, 22.32509], [114.17768, 22.31578]]}}, {"type": "Feature", "properties": {"id": "ghost_UP4016_20240612100314", "plate_no": "UP4016", "gap_start_time": "2024-06-12T10:03:14", "gap_end_time": "2024-06-12T11:30:23", "gap_duration_min": 87.15, "wasted_distance_km": 0.316, "prev_trip": "DA240612008201", "next_trip": "DA240612008202", "prev_O": [114.177739, 22.31337], "next_O": [114.205792, 22.474148]}, "geometry": {"type": "LineString", "coordinates": [[114.206575, 22.472805], [114.205355, 22.470198]]}}, {"type": "Feature", "properties": {"id": "ghost_UP6949_20240612104019", "plate_no": "UP6949", "gap_start_time": "2024-06-12T10:40:19", "gap_end_time": "2024-06-12T12:30:02", "gap_duration_min": 109.72, "wasted_distance_km": 15.363, "prev_trip": "DA240612014911", "next_trip": "DA240612016202", "prev_O": [114.1946068, 22.3783196], "next_O": [114.1246908, 22.4968697]}, "geometry": {"type": "LineString", "coordinates": [[114.20212, 22.3782], [114.123405, 22.495655]]}}, {"type": "Feature", "properties": {"id": "ghost_UP7636_20240612110334", "plate_no": "UP7636", "gap_start_time": "2024-06-12T11:03:34", "gap_end_time": "2024-06-12T15:00:15", "gap_duration_min": 236.68, "wasted_distance_km": 14.997, "prev_trip": "DA240612016201", "next_trip": "DA240612007602", "prev_O": [114.1988011, 22.3804562], "next_O": [114.1987643, 22.3804685]}, "geometry": {"type": "LineString", "coordinates": [[114.125111, 22.496661], [114.199001, 22.380356]]}}, {"type": "Feature", "properties": {"id": "ghost_UP9011_20240612121850", "plate_no": "UP9011", "gap_start_time": "2024-06-12T12:18:50", "gap_end_time": "2024-06-12T14:01:08", "gap_duration_min": 102.3, "wasted_distance_km": 2.342, "prev_trip": "DA240612019102", "next_trip": "DA240612024202", "prev_O": [114.1713296, 22.3304227], "next_O": [114.1753942, 22.3092893]}, "geometry": {"type": "LineString", "coordinates": [[114.157, 22.320801], [114.175481, 22.308498]]}}, {"type": "Feature", "properties": {"id": "ghost_VA7459_20240612143913", "plate_no": "VA7459", "gap_start_time": "2024-06-12T14:39:13", "gap_end_time": "2024-06-12T15:40:13", "gap_duration_min": 61.0, "wasted_distance_km": 5.371, "prev_trip": "DA240612005002", "next_trip": "DA240612002902", "prev_O": [114.1705215, 22.301755], "next_O": [114.212997, 22.3358478]}, "geometry": {"type": "LineString", "coordinates": [[114.257951, 22.310591], [114.213296, 22.335631]]}}, {"type": "Feature", "properties": {"id": "ghost_VD768_20240612125211", "plate_no": "VD768", "gap_start_time": "2024-06-12T12:52:11", "gap_end_time": "2024-06-12T14:15:21", "gap_duration_min": 83.17, "wasted_distance_km": 10.058, "prev_trip": "DA240612035111", "next_trip": "DA240612035201", "prev_O": [114.1992046, 22.3382294], "next_O": [114.1953497, 22.3898836]}, "geometry": {"type": "LineString", "coordinates": [[114.233028, 22.306345], [114.195071, 22.389711]]}}, {"type": "Feature", "properties": {"id": "ghost_VD768_20240612143752", "plate_no": "VD768", "gap_start_time": "2024-06-12T14:37:52", "gap_end_time": "2024-06-12T15:30:22", "gap_duration_min": 52.5, "wasted_distance_km": 7.016, "prev_trip": "DA240612035201", "next_trip": "DA240612013002", "prev_O": [114.1953497, 22.3898836], "next_O": [114.1219651, 22.3714765]}, "geometry": {"type": "LineString", "coordinates": [[114.166208, 22.323695], [114.122061, 22.371803]]}}, {"type": "Feature", "properties": {"id": "ghost_VE7344_20240612135226", "plate_no": "VE7344", "gap_start_time": "2024-06-12T13:52:26", "gap_end_time": "2024-06-12T14:45:56", "gap_duration_min": 53.5, "wasted_distance_km": 9.115, "prev_trip": "DA240612032101", "next_trip": "DA240612003911", "prev_O": [114.1283752, 22.3593896], "next_O": [114.1200839, 22.3703121]}, "geometry": {"type": "LineString", "coordinates": [[114.17285, 22.308816], [114.117451, 22.372796]]}}, {"type": "Feature", "properties": {"id": "ghost_VE8110_20240612095743", "plate_no": "VE8110", "gap_start_time": "2024-06-12T09:57:43", "gap_end_time": "2024-06-12T14:15:01", "gap_duration_min": 257.3, "wasted_distance_km": 3.791, "prev_trip": "DA240612028501", "next_trip": "DA240612043501", "prev_O": [114.2386197, 22.304463], "next_O": [114.2032682, 22.3293706]}, "geometry": {"type": "LineString", "coordinates": [[114.232138, 22.306716], [114.203315, 22.327956]]}}, {"type": "Feature", "properties": {"id": "ghost_VV7298_20240612150459", "plate_no": "VV7298", "gap_start_time": "2024-06-12T15:04:59", "gap_end_time": "2024-06-12T16:32:15", "gap_duration_min": 87.27, "wasted_distance_km": 8.32, "prev_trip": "DA240612020411", "next_trip": "DA240612025111", "prev_O": [114.2210931, 22.2842897], "next_O": [114.1321573, 22.2669059]}, "geometry": {"type": "LineString", "coordinates": [[114.20696, 22.292465], [114.12983, 22.270005]]}}, {"type": "Feature", "properties": {"id": "ghost_VW4627_20240612083654", "plate_no": "VW4627", "gap_start_time": "2024-06-12T08:36:54", "gap_end_time": "2024-06-12T09:00:24", "gap_duration_min": 23.5, "wasted_distance_km": 0.67, "prev_trip": "DA240612018401", "next_trip": "DA240612043401", "prev_O": [114.1370345, 22.3651323], "next_O": [114.1675619, 22.3064441]}, "geometry": {"type": "LineString", "coordinates": [[114.168155, 22.312738], [114.16767, 22.306733]]}}, {"type": "Feature", "properties": {"id": "ghost_VX2887_20240612135447", "plate_no": "VX2887", "gap_start_time": "2024-06-12T13:54:47", "gap_end_time": "2024-06-12T15:40:28", "gap_duration_min": 105.68, "wasted_distance_km": 2.974, "prev_trip": "DA240612044211", "next_trip": "DA240612033911", "prev_O": [114.2017654, 22.3419211], "next_O": [114.1676132, 22.3073911]}, "geometry": {"type": "LineString", "coordinates": [[114.163383, 22.333675], [114.167178, 22.307158]]}}, {"type": "Feature", "properties": {"id": "ghost_VX2887_20240612155755", "plate_no": "VX2887", "gap_start_time": "2024-06-12T15:57:55", "gap_end_time": "2024-06-12T16:22:46", "gap_duration_min": 24.85, "wasted_distance_km": 3.833, "prev_trip": "DA240612033911", "next_trip": "DA240612028711", "prev_O": [114.1676132, 22.3073911], "next_O": [114.2077498, 22.3227562]}, "geometry": {"type": "LineString", "coordinates": [[114.242615, 22.317671], [114.205523, 22.320961]]}}, {"type": "Feature", "properties": {"id": "ghost_VX3591_20240612112958", "plate_no": "VX3591", "gap_start_time": "2024-06-12T11:29:58", "gap_end_time": "2024-06-12T14:20:17", "gap_duration_min": 170.32, "wasted_distance_km": 7.162, "prev_trip": "DA240612034101", "next_trip": "DA240612031211", "prev_O": [114.2159664, 22.2876331], "next_O": [114.1460719, 22.3374482]}, "geometry": {"type": "LineString", "coordinates": [[114.192958, 22.28744], [114.147895, 22.336536]]}}, {"type": "Feature", "properties": {"id": "ghost_VY5967_20240612093337", "plate_no": "VY5967", "gap_start_time": "2024-06-12T09:33:37", "gap_end_time": "2024-06-12T11:00:05", "gap_duration_min": 86.47, "wasted_distance_km": 1.9, "prev_trip": "DA240612001911", "next_trip": "DA240612015711", "prev_O": [114.1236864, 22.362922], "next_O": [114.129029, 22.3585969]}, "geometry": {"type": "LineString", "coordinates": [[114.121066, 22.374751], [114.128901, 22.359281]]}}, {"type": "Feature", "properties": {"id": "ghost_VY5967_20240612111600", "plate_no": "VY5967", "gap_start_time": "2024-06-12T11:16:00", "gap_end_time": "2024-06-12T12:15:02", "gap_duration_min": 59.03, "wasted_distance_km": 8.799, "prev_trip": "DA240612015711", "next_trip": "DA240612030411", "prev_O": [114.129029, 22.3585969], "next_O": [114.196624, 22.376603]}, "geometry": {"type": "LineString", "coordinates": [[114.111098, 22.375373], [114.196665, 22.376435]]}}, {"type": "Feature", "properties": {"id": "ghost_VY5967_20240612121831", "plate_no": "VY5967", "gap_start_time": "2024-06-12T12:18:31", "gap_end_time": "2024-06-12T15:45:29", "gap_duration_min": 206.97, "wasted_distance_km": 8.484, "prev_trip": "DA240612030411", "next_trip": "DA240612011902", "prev_O": [114.196624, 22.376603], "next_O": [114.1754722, 22.4530181]}, "geometry": {"type": "LineString", "coordinates": [[114.196603, 22.378935], [114.175388, 22.452668]]}}, {"type": "Feature", "properties": {"id": "ghost_WN8723_20240612111339", "plate_no": "WN8723", "gap_start_time": "2024-06-12T11:13:39", "gap_end_time": "2024-06-12T13:45:27", "gap_duration_min": 151.8, "wasted_distance_km": 0.386, "prev_trip": "DA240612037911", "next_trip": "DA240612038011", "prev_O": [114.19909, 22.347143], "next_O": [114.1676248, 22.3069524]}, "geometry": {"type": "LineString", "coordinates": [[114.169768, 22.310505], [114.16807, 22.30741]]}}, {"type": "Feature", "properties": {"id": "ghost_WN9331_20240612091409", "plate_no": "WN9331", "gap_start_time": "2024-06-12T09:14:09", "gap_end_time": "2024-06-12T14:45:07", "gap_duration_min": 330.97, "wasted_distance_km": 5.567, "prev_trip": "DA240612030001", "next_trip": "DA240612008111", "prev_O": [114.1524398, 22.2483068], "next_O": [114.2077592, 22.3227792]}, "geometry": {"type": "LineString", "coordinates": [[114.185238, 22.27739], [114.207198, 22.323143]]}}, {"type": "Feature", "properties": {"id": "ghost_WP1681_20240612104356", "plate_no": "WP1681", "gap_start_time": "2024-06-12T10:43:56", "gap_end_time": "2024-06-12T12:45:06", "gap_duration_min": 121.17, "wasted_distance_km": 7.744, "prev_trip": "DA240612016401", "next_trip": "DA240612010611", "prev_O": [114.247807, 22.324741], "next_O": [114.2000621, 22.3394461]}, "geometry": {"type": "LineString", "coordinates": [[114.12595, 22.346543], [114.200803, 22.338978]]}}, {"type": "Feature", "properties": {"id": "ghost_WP3890_20240612112145", "plate_no": "WP3890", "gap_start_time": "2024-06-12T11:21:45", "gap_end_time": "2024-06-12T14:20:07", "gap_duration_min": 178.37, "wasted_distance_km": 24.412, "prev_trip": "DA240612024401", "next_trip": "DA240612025411", "prev_O": [114.1011551, 22.3627171], "next_O": [114.192812, 22.308068]}, "geometry": {"type": "LineString", "coordinates": [[114.10845, 22.513696], [114.191888, 22.308146]]}}, {"type": "Feature", "properties": {"id": "ghost_WP4172_20240612162005", "plate_no": "WP4172", "gap_start_time": "2024-06-12T16:20:05", "gap_end_time": "2024-06-12T18:42:41", "gap_duration_min": 142.6, "wasted_distance_km": 10.57, "prev_trip": "DA240612028002", "next_trip": "DA240612005501", "prev_O": [114.1763226, 22.3187944], "next_O": [114.174102, 22.3645801]}, "geometry": {"type": "LineString", "coordinates": [[114.251646, 22.304238], [114.171378, 22.363596]]}}, {"type": "Feature", "properties": {"id": "ghost_XE1372_20240612131619", "plate_no": "XE1372", "gap_start_time": "2024-06-12T13:16:19", "gap_end_time": "2024-06-12T14:15:06", "gap_duration_min": 58.78, "wasted_distance_km": 4.281, "prev_trip": "DA240612032301", "next_trip": "DA240612040411", "prev_O": [114.1827676, 22.3819893], "next_O": [114.1904904, 22.3447512]}, "geometry": {"type": "LineString", "coordinates": [[114.174128, 22.309348], [114.19031, 22.344816]]}}, {"type": "Feature", "properties": {"id": "ghost_XE1372_20240612142136", "plate_no": "XE1372", "gap_start_time": "2024-06-12T14:21:36", "gap_end_time": "2024-06-12T15:15:29", "gap_duration_min": 53.88, "wasted_distance_km": 5.163, "prev_trip": "DA240612040411", "next_trip": "DA240612038902", "prev_O": [114.1904904, 22.3447512], "next_O": [114.2286568, 22.3119002]}, "geometry": {"type": "LineString", "coordinates": [[114.194721, 22.345281], [114.228766, 22.311156]]}}, {"type": "Feature", "properties": {"id": "ghost_XE2198_20240612083958", "plate_no": "XE2198", "gap_start_time": "2024-06-12T08:39:58", "gap_end_time": "2024-06-12T10:21:44", "gap_duration_min": 101.77, "wasted_distance_km": 11.043, "prev_trip": "DA240612023001", "next_trip": "DA240612040001", "prev_O": [114.2313931, 22.4253222], "next_O": [114.049219, 22.473131]}, "geometry": {"type": "LineString", "coordinates": [[113.972773, 22.404368], [114.05017, 22.473253]]}}, {"type": "Feature", "properties": {"id": "ghost_XE612_20240612122218", "plate_no": "XE612", "gap_start_time": "2024-06-12T12:22:18", "gap_end_time": "2024-06-12T15:40:24", "gap_duration_min": 198.1, "wasted_distance_km": 6.19, "prev_trip": "DA240612008011", "next_trip": "DA240612033302", "prev_O": [114.2325361, 22.3180048], "next_O": [114.1777194, 22.2755944]}, "geometry": {"type": "LineString", "coordinates": [[114.207455, 22.323105], [114.178228, 22.27445]]}}, {"type": "Feature", "properties": {"id": "ghost_XE7168_20240612093509", "plate_no": "XE7168", "gap_start_time": "2024-06-12T09:35:09", "gap_end_time": "2024-06-12T13:50:49", "gap_duration_min": 255.67, "wasted_distance_km": 11.601, "prev_trip": "DA240612019101", "next_trip": "DA240612026511", "prev_O": [114.1572889, 22.3192735], "next_O": [114.2125796, 22.4252094]}, "geometry": {"type": "LineString", "coordinates": [[114.17192, 22.32671], [114.2139, 22.423546]]}}, {"type": "Feature", "properties": {"id": "ghost_XE7168_20240612142922", "plate_no": "XE7168", "gap_start_time": "2024-06-12T14:29:22", "gap_end_time": "2024-06-12T16:30:25", "gap_duration_min": 121.05, "wasted_distance_km": 5.311, "prev_trip": "DA240612026511", "next_trip": "DA240612046511", "prev_O": [114.2125796, 22.4252094], "next_O": [114.228323, 22.3069112]}, "geometry": {"type": "LineString", "coordinates": [[114.177838, 22.315015], [114.228763, 22.307133]]}}, {"type": "Feature", "properties": {"id": "ghost_XE7168_20240612163455", "plate_no": "XE7168", "gap_start_time": "2024-06-12T16:34:55", "gap_end_time": "2024-06-12T17:15:25", "gap_duration_min": 40.5, "wasted_distance_km": 5.304, "prev_trip": "DA240612046511", "next_trip": "DA240612027102", "prev_O": [114.228323, 22.3069112], "next_O": [114.1762153, 22.3188841]}, "geometry": {"type": "LineString", "coordinates": [[114.227033, 22.311545], [114.176281, 22.319971]]}}, {"type": "Feature", "properties": {"id": "ghost_XE7595_20240612131705", "plate_no": "XE7595", "gap_start_time": "2024-06-12T13:17:05", "gap_end_time": "2024-06-12T15:31:27", "gap_duration_min": 134.37, "wasted_distance_km": 15.505, "prev_trip": "DA240612007811", "next_trip": "DA240612030702", "prev_O": [114.2286722, 22.3119194], "next_O": [114.118883, 22.369655]}, "geometry": {"type": "LineString", "coordinates": [[114.258021, 22.312076], [114.120558, 22.369325]]}}, {"type": "Feature", "properties": {"id": "ghost_XE782_20240612114411", "plate_no": "XE782", "gap_start_time": "2024-06-12T11:44:11", "gap_end_time": "2024-06-12T14:40:00", "gap_duration_min": 175.82, "wasted_distance_km": 8.937, "prev_trip": "DA240612020711", "next_trip": "DA240612000702", "prev_O": [114.234111, 22.309522], "next_O": [114.1831334, 22.3223645]}, "geometry": {"type": "LineString", "coordinates": [[114.269516, 22.3181], [114.182758, 22.322413]]}}, {"type": "Feature", "properties": {"id": "ghost_XE782_20240612151930", "plate_no": "XE782", "gap_start_time": "2024-06-12T15:19:30", "gap_end_time": "2024-06-12T16:49:26", "gap_duration_min": 89.93, "wasted_distance_km": 7.411, "prev_trip": "DA240612000702", "next_trip": "DA240612020502", "prev_O": [114.1831334, 22.3223645], "next_O": [114.2009991, 22.289963]}, "geometry": {"type": "LineString", "coordinates": [[114.130761, 22.277555], [114.200888, 22.292788]]}}, {"type": "Feature", "properties": {"id": "ghost_XM4556_20240612120756", "plate_no": "XM4556", "gap_start_time": "2024-06-12T12:07:56", "gap_end_time": "2024-06-12T14:01:20", "gap_duration_min": 113.4, "wasted_distance_km": 15.878, "prev_trip": "DA240612018402", "next_trip": "DA240612008801", "prev_O": [114.1722412, 22.3144134], "next_O": [114.2726925, 22.2937258]}, "geometry": {"type": "LineString", "coordinates": [[114.138973, 22.366893], [114.27243, 22.295116]]}}, {"type": "Feature", "properties": {"id": "ghost_XM4556_20240612141219", "plate_no": "XM4556", "gap_start_time": "2024-06-12T14:12:19", "gap_end_time": "2024-06-12T15:41:20", "gap_duration_min": 89.02, "wasted_distance_km": 8.2, "prev_trip": "DA240612008801", "next_trip": "DA240612010002", "prev_O": [114.2726925, 22.2937258], "next_O": [114.1298423, 22.2692879]}, "geometry": {"type": "LineString", "coordinates": [[114.205265, 22.293298], [114.129895, 22.26933]]}}, {"type": "Feature", "properties": {"id": "ghost_XM6122_20240612142120", "plate_no": "XM6122", "gap_start_time": "2024-06-12T14:21:20", "gap_end_time": "2024-06-12T15:40:25", "gap_duration_min": 79.08, "wasted_distance_km": 2.092, "prev_trip": "DA240612004902", "next_trip": "DA240612002802", "prev_O": [114.1705215, 22.301755], "next_O": [114.212997, 22.3358478]}, "geometry": {"type": "LineString", "coordinates": [[114.200146, 22.350253], [114.213163, 22.335796]]}}, {"type": "Feature", "properties": {"id": "ghost_XM9047_20240612124552", "plate_no": "XM9047", "gap_start_time": "2024-06-12T12:45:52", "gap_end_time": "2024-06-12T15:30:21", "gap_duration_min": 164.48, "wasted_distance_km": 4.065, "prev_trip": "DA240612022202", "next_trip": "DA240612032302", "prev_O": [114.1743747, 22.3091816], "next_O": [114.1743747, 22.3091816]}, "geometry": {"type": "LineString", "coordinates": [[114.208416, 22.325623], [114.173263, 22.308916]]}}, {"type": "Feature", "properties": {"id": "ghost_XM9047_20240612155951", "plate_no": "XM9047", "gap_start_time": "2024-06-12T15:59:51", "gap_end_time": "2024-06-12T16:30:21", "gap_duration_min": 30.5, "wasted_distance_km": 7.057, "prev_trip": "DA240612032302", "next_trip": "DA240612044602", "prev_O": [114.1743747, 22.3091816], "next_O": [114.207831, 22.32266]}, "geometry": {"type": "LineString", "coordinates": [[114.182848, 22.382011], [114.207391, 22.322743]]}}, {"type": "Feature", "properties": {"id": "ghost_XM9877_20240612145834", "plate_no": "XM9877", "gap_start_time": "2024-06-12T14:58:34", "gap_end_time": "2024-06-12T16:01:57", "gap_duration_min": 63.38, "wasted_distance_km": 5.666, "prev_trip": "DA240612027101", "next_trip": "DA240612030302", "prev_O": [114.1406144, 22.3364208], "next_O": [114.2303424, 22.3079333]}, "geometry": {"type": "LineString", "coordinates": [[114.173841, 22.316105], [114.228228, 22.308025]]}}, {"type": "Feature", "properties": {"id": "ghost_XM9877_20240612161237", "plate_no": "XM9877", "gap_start_time": "2024-06-12T16:12:37", "gap_end_time": "2024-06-12T17:00:07", "gap_duration_min": 47.5, "wasted_distance_km": 3.736, "prev_trip": "DA240612030302", "next_trip": "DA240612006311", "prev_O": [114.2303424, 22.3079333], "next_O": [114.2303424, 22.3079333]}, "geometry": {"type": "LineString", "coordinates": [[114.26551, 22.317215], [114.23056, 22.308095]]}}, {"type": "Feature", "properties": {"id": "ghost_XN5447_20240612093800", "plate_no": "XN5447", "gap_start_time": "2024-06-12T09:38:00", "gap_end_time": "2024-06-12T12:00:05", "gap_duration_min": 142.08, "wasted_distance_km": 4.579, "prev_trip": "DA240612013311", "next_trip": "DA240612043102", "prev_O": [114.1411034, 22.3352791], "next_O": [114.177655, 22.3010111]}, "geometry": {"type": "LineString", "coordinates": [[114.161433, 22.338728], [114.173825, 22.299176]]}}, {"type": "Feature", "properties": {"id": "ghost_XN7430_20240612113315", "plate_no": "XN7430", "gap_start_time": "2024-06-12T11:33:15", "gap_end_time": "2024-06-12T14:00:28", "gap_duration_min": 147.22, "wasted_distance_km": 0.899, "prev_trip": "DA240612017402", "next_trip": "DA240612017301", "prev_O": [114.1748444, 22.3083749], "next_O": [114.1866201, 22.3146669]}, "geometry": {"type": "LineString", "coordinates": [[114.190616, 22.32172], [114.186751, 22.314465]]}}, {"type": "Feature", "properties": {"id": "ghost_XN7430_20240612141358", "plate_no": "XN7430", "gap_start_time": "2024-06-12T14:13:58", "gap_end_time": "2024-06-12T15:15:13", "gap_duration_min": 61.25, "wasted_distance_km": 4.836, "prev_trip": "DA240612017301", "next_trip": "DA240612007211", "prev_O": [114.1866201, 22.3146669], "next_O": [114.222657, 22.3205314]}, "geometry": {"type": "LineString", "coordinates": [[114.175165, 22.309648], [114.220721, 22.320395]]}}, {"type": "Feature", "properties": {"id": "ghost_XV7112_20240612134205", "plate_no": "XV7112", "gap_start_time": "2024-06-12T13:42:05", "gap_end_time": "2024-06-12T15:45:15", "gap_duration_min": 123.17, "wasted_distance_km": 1.604, "prev_trip": "DA240612032701", "next_trip": "DA240612032102", "prev_O": [114.1812496, 22.3303924], "next_O": [114.1743747, 22.3091816]}, "geometry": {"type": "LineString", "coordinates": [[114.178203, 22.322328], [114.172911, 22.308756]]}}, {"type": "Feature", "properties": {"id": "ghost_XV7112_20240612160645", "plate_no": "XV7112", "gap_start_time": "2024-06-12T16:06:45", "gap_end_time": "2024-06-12T16:31:50", "gap_duration_min": 25.08, "wasted_distance_km": 2.2, "prev_trip": "DA240612032102", "next_trip": "DA240612038102", "prev_O": [114.1743747, 22.3091816], "next_O": [114.1071485, 22.3591782]}, "geometry": {"type": "LineString", "coordinates": [[114.127731, 22.358586], [114.10637, 22.357461]]}}, {"type": "Feature", "properties": {"id": "ghost_XV7468_20240612081743", "plate_no": "XV7468", "gap_start_time": "2024-06-12T08:17:43", "gap_end_time": "2024-06-12T09:30:14", "gap_duration_min": 72.52, "wasted_distance_km": 5.543, "prev_trip": "DA240612004111", "next_trip": "DA240612034701", "prev_O": [114.173386, 22.277853], "next_O": [114.2264127, 22.2825843]}, "geometry": {"type": "LineString", "coordinates": [[114.172313, 22.277393], [114.225931, 22.282256]]}}, {"type": "Feature", "properties": {"id": "ghost_XV7468_20240612094914", "plate_no": "XV7468", "gap_start_time": "2024-06-12T09:49:14", "gap_end_time": "2024-06-12T13:20:25", "gap_duration_min": 211.18, "wasted_distance_km": 2.568, "prev_trip": "DA240612034701", "next_trip": "DA240612018801", "prev_O": [114.2264127, 22.2825843], "next_O": [114.2009377, 22.2920835]}, "geometry": {"type": "LineString", "coordinates": [[114.181181, 22.276605], [114.19978, 22.292003]]}}, {"type": "Feature", "properties": {"id": "ghost_YK4725_20240612124850", "plate_no": "YK4725", "gap_start_time": "2024-06-12T12:48:50", "gap_end_time": "2024-06-12T17:00:07", "gap_duration_min": 251.28, "wasted_distance_km": 3.42, "prev_trip": "DA240612019002", "next_trip": "DA240612041202", "prev_O": [114.2270078, 22.323232], "next_O": [114.152451, 22.3406025]}, "geometry": {"type": "LineString", "coordinates": [[114.185378, 22.340801], [114.152131, 22.34108]]}}, {"type": "Feature", "properties": {"id": "ghost_YK4856_20240612091421", "plate_no": "YK4856", "gap_start_time": "2024-06-12T09:14:21", "gap_end_time": "2024-06-12T17:00:07", "gap_duration_min": 465.77, "wasted_distance_km": 5.372, "prev_trip": "DA240612006011", "next_trip": "DA240612043502", "prev_O": [114.194012, 22.3323594], "next_O": [114.1814018, 22.3246172]}, "geometry": {"type": "LineString", "coordinates": [[114.23022, 22.309868], [114.179945, 22.322926]]}}, {"type": "Feature", "properties": {"id": "ghost_YK5072_20240612090650", "plate_no": "YK5072", "gap_start_time": "2024-06-12T09:06:50", "gap_end_time": "2024-06-12T10:11:52", "gap_duration_min": 65.03, "wasted_distance_km": 4.946, "prev_trip": "DA240612005811", "next_trip": "DA240612044011", "prev_O": [114.1472078, 22.332315], "next_O": [114.2702546, 22.2944817]}, "geometry": {"type": "LineString", "coordinates": [[114.22772, 22.305536], [114.273423, 22.29173]]}}, {"type": "Feature", "properties": {"id": "ghost_YK5072_20240612104052", "plate_no": "YK5072", "gap_start_time": "2024-06-12T10:40:52", "gap_end_time": "2024-06-12T12:45:02", "gap_duration_min": 124.17, "wasted_distance_km": 0.188, "prev_trip": "DA240612044011", "next_trip": "DA240612044111", "prev_O": [114.2702546, 22.2944817], "next_O": [114.1751471, 22.276022]}, "geometry": {"type": "LineString", "coordinates": [[114.174735, 22.279803], [114.174268, 22.278173]]}}, {"type": "Feature", "properties": {"id": "ghost_YK5072_20240612130534", "plate_no": "YK5072", "gap_start_time": "2024-06-12T13:05:34", "gap_end_time": "2024-06-12T15:01:02", "gap_duration_min": 115.47, "wasted_distance_km": 12.511, "prev_trip": "DA240612044111", "next_trip": "DA240612035701", "prev_O": [114.1751471, 22.276022], "next_O": [114.2183846, 22.3955654]}, "geometry": {"type": "LineString", "coordinates": [[114.27234, 22.294635], [114.218815, 22.395668]]}}, {"type": "Feature", "properties": {"id": "ghost_YK5072_20240612151202", "plate_no": "YK5072", "gap_start_time": "2024-06-12T15:12:02", "gap_end_time": "2024-06-12T18:30:03", "gap_duration_min": 198.02, "wasted_distance_km": 4.645, "prev_trip": "DA240612035701", "next_trip": "DA240612038702", "prev_O": [114.2183846, 22.3955654], "next_O": [114.1798555, 22.3398475]}, "geometry": {"type": "LineString", "coordinates": [[114.2048, 22.37901], [114.180555, 22.343768]]}}, {"type": "Feature", "properties": {"id": "ghost_YK7541_20240612081310", "plate_no": "YK7541", "gap_start_time": "2024-06-12T08:13:10", "gap_end_time": "2024-06-12T09:53:22", "gap_duration_min": 100.2, "wasted_distance_km": 13.369, "prev_trip": "DA240612043601", "next_trip": "DA240612004801", "prev_O": [114.1267882, 22.494909], "next_O": [114.0050533, 22.4499514]}, "geometry": {"type": "LineString", "coordinates": [[114.125981, 22.494836], [114.003831, 22.453416]]}}, {"type": "Feature", "properties": {"id": "ghost_YK7874_20240612082630", "plate_no": "YK7874", "gap_start_time": "2024-06-12T08:26:30", "gap_end_time": "2024-06-12T12:40:00", "gap_duration_min": 253.5, "wasted_distance_km": 4.343, "prev_trip": "DA240612003201", "next_trip": "DA240612032011", "prev_O": [114.17302, 22.2774003], "next_O": [114.1323065, 22.2661136]}, "geometry": {"type": "LineString", "coordinates": [[114.173151, 22.276061], [114.132198, 22.266625]]}}, {"type": "Feature", "properties": {"id": "ghost_YK7874_20240612125559", "plate_no": "YK7874", "gap_start_time": "2024-06-12T12:55:59", "gap_end_time": "2024-06-12T17:00:07", "gap_duration_min": 244.13, "wasted_distance_km": 2.416, "prev_trip": "DA240612032011", "next_trip": "DA240612019211", "prev_O": [114.1323065, 22.2661136], "next_O": [114.1394532, 22.2865441]}, "geometry": {"type": "LineString", "coordinates": [[114.162675, 22.284671], [114.139301, 22.286751]]}}, {"type": "Feature", "properties": {"id": "ghost_YK9198_20240612084516", "plate_no": "YK9198", "gap_start_time": "2024-06-12T08:45:16", "gap_end_time": "2024-06-12T14:15:07", "gap_duration_min": 329.85, "wasted_distance_km": 3.347, "prev_trip": "DA240612015411", "next_trip": "DA240612017101", "prev_O": [114.1488787, 22.3326254], "next_O": [114.177914, 22.313063]}, "geometry": {"type": "LineString", "coordinates": [[114.162866, 22.339938], [114.177775, 22.313185]]}}, {"type": "Feature", "properties": {"id": "ghost_YL1783_20240612132320", "plate_no": "YL1783", "gap_start_time": "2024-06-12T13:23:20", "gap_end_time": "2024-06-12T15:30:11", "gap_duration_min": 126.85, "wasted_distance_km": 3.619, "prev_trip": "DA240612029902", "next_trip": "DA240612032702", "prev_O": [114.1722412, 22.3144134], "next_O": [114.1812361, 22.3246886]}, "geometry": {"type": "LineString", "coordinates": [[114.2075, 22.33996], [114.178206, 22.32193]]}}, {"type": "Feature", "properties": {"id": "ghost_YL1821_20240612124828", "plate_no": "YL1821", "gap_start_time": "2024-06-12T12:48:28", "gap_end_time": "2024-06-12T17:00:49", "gap_duration_min": 252.35, "wasted_distance_km": 9.247, "prev_trip": "DA240612032201", "next_trip": "DA240612041911", "prev_O": [114.1900913, 22.3143602], "next_O": [114.1035242, 22.3486056]}, "geometry": {"type": "LineString", "coordinates": [[114.187101, 22.325456], [114.100956, 22.349245]]}}, {"type": "Feature", "properties": {"id": "ghost_YL6186_20240612155456", "plate_no": "YL6186", "gap_start_time": "2024-06-12T15:54:56", "gap_end_time": "2024-06-12T16:15:26", "gap_duration_min": 20.5, "wasted_distance_km": 1.678, "prev_trip": "DA240612007002", "next_trip": "DA240612022602", "prev_O": [114.2253505, 22.2821867], "next_O": [114.2362653, 22.2695993]}, "geometry": {"type": "LineString", "coordinates": [[114.225918, 22.282298], [114.23378, 22.269073]]}}, {"type": "Feature", "properties": {"id": "ghost_YL6186_20240612163126", "plate_no": "YL6186", "gap_start_time": "2024-06-12T16:31:26", "gap_end_time": "2024-06-12T17:15:56", "gap_duration_min": 44.5, "wasted_distance_km": 4.057, "prev_trip": "DA240612022602", "next_trip": "DA240612029402", "prev_O": [114.2362653, 22.2695993], "next_O": [114.2362653, 22.2695993]}, "geometry": {"type": "LineString", "coordinates": [[114.205226, 22.293118], [114.234775, 22.268963]]}}, {"type": "Feature", "properties": {"id": "ghost_YL714_20240612105009", "plate_no": "YL714", "gap_start_time": "2024-06-12T10:50:09", "gap_end_time": "2024-06-12T12:15:18", "gap_duration_min": 85.15, "wasted_distance_km": 0.54, "prev_trip": "DA240612018701", "next_trip": "DA240612018702", "prev_O": [114.2325252, 22.3070949], "next_O": [114.2003629, 22.3433523]}, "geometry": {"type": "LineString", "coordinates": [[114.19869, 22.34063], [114.200755, 22.345096]]}}, {"type": "Feature", "properties": {"id": "ghost_YL8061_20240612100924", "plate_no": "YL8061", "gap_start_time": "2024-06-12T10:09:24", "gap_end_time": "2024-06-12T13:30:23", "gap_duration_min": 200.98, "wasted_distance_km": 0.338, "prev_trip": "DA240612023611", "next_trip": "DA240612023711", "prev_O": [114.2216835, 22.3196755], "next_O": [114.23366, 22.26308]}, "geometry": {"type": "LineString", "coordinates": [[114.236666, 22.262261], [114.233616, 22.263378]]}}, {"type": "Feature", "properties": {"id": "ghost_YL8061_20240612142526", "plate_no": "YL8061", "gap_start_time": "2024-06-12T14:25:26", "gap_end_time": "2024-06-12T14:50:26", "gap_duration_min": 25.0, "wasted_distance_km": 3.652, "prev_trip": "DA240612023711", "next_trip": "DA240612006611", "prev_O": [114.23366, 22.26308], "next_O": [114.192478, 22.338538]}, "geometry": {"type": "LineString", "coordinates": [[114.223926, 22.32044], [114.193815, 22.337848]]}}, {"type": "Feature", "properties": {"id": "ghost_YY7621_20240612145624", "plate_no": "YY7621", "gap_start_time": "2024-06-12T14:56:24", "gap_end_time": "2024-06-12T16:16:24", "gap_duration_min": 80.0, "wasted_distance_km": 0.819, "prev_trip": "DA240612000302", "next_trip": "DA240612000402", "prev_O": [114.1283333, 22.3458333], "next_O": [114.1283333, 22.3458333]}, "geometry": {"type": "LineString", "coordinates": [[114.13188, 22.353025], [114.129325, 22.346045]]}}, {"type": "Feature", "properties": {"id": "ghost_YY7632_20240612101359", "plate_no": "YY7632", "gap_start_time": "2024-06-12T10:13:59", "gap_end_time": "2024-06-12T11:30:01", "gap_duration_min": 76.03, "wasted_distance_km": 0.428, "prev_trip": "DA240612039301", "next_trip": "DA240612039302", "prev_O": [114.109969, 22.342199], "next_O": [114.1608536, 22.3324787]}, "geometry": {"type": "LineString", "coordinates": [[114.160048, 22.330691], [114.15795, 22.33402]]}}, {"type": "Feature", "properties": {"id": "ghost_YY7632_20240612114532", "plate_no": "YY7632", "gap_start_time": "2024-06-12T11:45:32", "gap_end_time": "2024-06-12T14:00:06", "gap_duration_min": 134.57, "wasted_distance_km": 14.788, "prev_trip": "DA240612039302", "next_trip": "DA240612015601", "prev_O": [114.1608536, 22.3324787], "next_O": [114.2253605, 22.4230226]}, "geometry": {"type": "LineString", "coordinates": [[114.10929, 22.342458], [114.224925, 22.421546]]}}, {"type": "Feature", "properties": {"id": "ghost_YZ9431_20240612081303", "plate_no": "YZ9431", "gap_start_time": "2024-06-12T08:13:03", "gap_end_time": "2024-06-12T09:21:01", "gap_duration_min": 67.97, "wasted_distance_km": 4.879, "prev_trip": "DA240612004511", "next_trip": "DA240612027701", "prev_O": [114.192092, 22.281794], "next_O": [114.1587156, 22.2440322]}, "geometry": {"type": "LineString", "coordinates": [[114.122466, 22.272228], [114.158203, 22.243393]]}}, {"type": "Feature", "properties": {"id": "ghost_YZ9431_20240612093311", "plate_no": "YZ9431", "gap_start_time": "2024-06-12T09:33:11", "gap_end_time": "2024-06-12T11:15:24", "gap_duration_min": 102.22, "wasted_distance_km": 2.986, "prev_trip": "DA240612027701", "next_trip": "DA240612043302", "prev_O": [114.1587156, 22.2440322], "next_O": [114.1244169, 22.2698782]}, "geometry": {"type": "LineString", "coordinates": [[114.143676, 22.28909], [114.122305, 22.270916]]}}, {"type": "Feature", "properties": {"id": "ghost_ZA2376_20240612094032", "plate_no": "ZA2376", "gap_start_time": "2024-06-12T09:40:32", "gap_end_time": "2024-06-12T14:31:35", "gap_duration_min": 291.05, "wasted_distance_km": 8.099, "prev_trip": "DA240612011201", "next_trip": "DA240612037001", "prev_O": [114.1952678, 22.3395364], "next_O": [114.1215006, 22.3607344]}, "geometry": {"type": "LineString", "coordinates": [[114.198596, 22.343036], [114.122256, 22.360928]]}}, {"type": "Feature", "properties": {"id": "ghost_ZA3650_20240612120451", "plate_no": "ZA3650", "gap_start_time": "2024-06-12T12:04:51", "gap_end_time": "2024-06-12T13:00:15", "gap_duration_min": 55.4, "wasted_distance_km": 19.053, "prev_trip": "DA240612044501", "next_trip": "DA240612008511", "prev_O": [114.137108, 22.5004969], "next_O": [114.1889416, 22.3355079]}, "geometry": {"type": "LineString", "coordinates": [[114.124938, 22.496318], [114.188965, 22.335515]]}}, {"type": "Feature", "properties": {"id": "ghost_ZA394_20240612123904", "plate_no": "ZA394", "gap_start_time": "2024-06-12T12:39:04", "gap_end_time": "2024-06-12T16:35:11", "gap_duration_min": 236.12, "wasted_distance_km": 3.461, "prev_trip": "DA240612022702", "next_trip": "DA240612001502", "prev_O": [114.1551291, 22.2831406], "next_O": [114.1734816, 22.2725317]}, "geometry": {"type": "LineString", "coordinates": [[114.15108, 22.252661], [114.177781, 22.271585]]}}, {"type": "Feature", "properties": {"id": "ghost_ZA4388_20240612090747", "plate_no": "ZA4388", "gap_start_time": "2024-06-12T09:07:47", "gap_end_time": "2024-06-12T09:15:17", "gap_duration_min": 7.5, "wasted_distance_km": 0.014, "prev_trip": "DA240612032411", "next_trip": "DA240612009001", "prev_O": [114.159495, 22.2474854], "next_O": [114.1543615, 22.2411576]}, "geometry": {"type": "LineString", "coordinates": [[114.15491, 22.241085], [114.155045, 22.24109]]}}, {"type": "Feature", "properties": {"id": "ghost_ZA6585_20240612083807", "plate_no": "ZA6585", "gap_start_time": "2024-06-12T08:38:07", "gap_end_time": "2024-06-12T09:20:23", "gap_duration_min": 42.27, "wasted_distance_km": 2.517, "prev_trip": "DA240612031711", "next_trip": "DA240612033711", "prev_O": [114.154299, 22.2442015], "next_O": [114.2012365, 22.2911583]}, "geometry": {"type": "LineString", "coordinates": [[114.181366, 22.278501], [114.201343, 22.291561]]}}, {"type": "Feature", "properties": {"id": "ghost_ZA6941_20240612081440", "plate_no": "ZA6941", "gap_start_time": "2024-06-12T08:14:40", "gap_end_time": "2024-06-12T12:01:00", "gap_duration_min": 226.33, "wasted_distance_km": 5.664, "prev_trip": "DA240612004311", "next_trip": "DA240612021602", "prev_O": [114.2277794, 22.2808612], "next_O": [114.1753051, 22.2758454]}, "geometry": {"type": "LineString", "coordinates": [[114.122785, 22.272398], [114.177751, 22.275175]]}}, {"type": "Feature", "properties": {"id": "ghost_ZA7388_20240612083917", "plate_no": "ZA7388", "gap_start_time": "2024-06-12T08:39:17", "gap_end_time": "2024-06-12T11:45:55", "gap_duration_min": 186.63, "wasted_distance_km": 7.809, "prev_trip": "DA240612001201", "next_trip": "DA240612009002", "prev_O": [114.1645223, 22.2794233], "next_O": [114.1732155, 22.2510972]}, "geometry": {"type": "LineString", "coordinates": [[114.185826, 22.319903], [114.172286, 22.250801]]}}, {"type": "Feature", "properties": {"id": "ghost_ZA7388_20240612115754", "plate_no": "ZA7388", "gap_start_time": "2024-06-12T11:57:54", "gap_end_time": "2024-06-12T15:50:21", "gap_duration_min": 232.45, "wasted_distance_km": 4.55, "prev_trip": "DA240612009002", "next_trip": "DA240612004611", "prev_O": [114.1732155, 22.2510972], "next_O": [114.1245247, 22.2709886]}, "geometry": {"type": "LineString", "coordinates": [[114.157601, 22.24351], [114.124488, 22.270626]]}}, {"type": "Feature", "properties": {"id": "ghost_ZB1369_20240612100437", "plate_no": "ZB1369", "gap_start_time": "2024-06-12T10:04:37", "gap_end_time": "2024-06-12T11:38:28", "gap_duration_min": 93.85, "wasted_distance_km": 0.005, "prev_trip": "DA240612026711", "next_trip": "DA240612026811", "prev_O": [114.1776783, 22.3120049], "next_O": [114.205792, 22.474148]}, "geometry": {"type": "LineString", "coordinates": [[114.206581, 22.4728], [114.206601, 22.472845]]}}, {"type": "Feature", "properties": {"id": "ghost_ZB1369_20240612121458", "plate_no": "ZB1369", "gap_start_time": "2024-06-12T12:14:58", "gap_end_time": "2024-06-12T16:26:42", "gap_duration_min": 251.73, "wasted_distance_km": 17.725, "prev_trip": "DA240612026811", "next_trip": "DA240612003711", "prev_O": [114.205792, 22.474148], "next_O": [114.2336165, 22.2637098]}, "geometry": {"type": "LineString", "coordinates": [[114.211988, 22.425483], [114.235116, 22.26752]]}}]}