{"type": "FeatureCollection", "features": [{"type": "Feature", "properties": {"id": "ghost_RV3895_20240621094116", "plate_no": "RV3895", "gap_start_time": "2024-06-21T09:41:16", "gap_end_time": "2024-06-21T15:50:28", "gap_duration_min": 369.2, "wasted_distance_km": 5.488, "prev_trip": "DA240621020101", "next_trip": "DA240621005011", "prev_O": [114.1916345, 22.2878544], "next_O": [114.1245247, 22.2709886]}, "geometry": {"type": "LineString", "coordinates": [[114.175448, 22.274488], [114.122255, 22.270935]]}}, {"type": "Feature", "properties": {"id": "ghost_RV3951_20240621093916", "plate_no": "RV3951", "gap_start_time": "2024-06-21T09:39:16", "gap_end_time": "2024-06-21T14:25:08", "gap_duration_min": 285.87, "wasted_distance_km": 6.261, "prev_trip": "DA240621046601", "next_trip": "DA240621020902", "prev_O": [114.1064676, 22.3619809], "next_O": [114.1725229, 22.3019182]}, "geometry": {"type": "LineString", "coordinates": [[114.131093, 22.343565], [114.171953, 22.301826]]}}, {"type": "Feature", "properties": {"id": "ghost_RV4356_20240621135641", "plate_no": "RV4356", "gap_start_time": "2024-06-21T13:56:41", "gap_end_time": "2024-06-21T14:30:21", "gap_duration_min": 33.67, "wasted_distance_km": 5.879, "prev_trip": "DA240621029301", "next_trip": "DA240621040211", "prev_O": [114.2516341, 22.3048796], "next_O": [114.1736631, 22.3009048]}, "geometry": {"type": "LineString", "coordinates": [[114.227275, 22.319775], [114.173973, 22.300701]]}}, {"type": "Feature", "properties": {"id": "ghost_RV4356_20240621145524", "plate_no": "RV4356", "gap_start_time": "2024-06-21T14:55:24", "gap_end_time": "2024-06-21T16:21:24", "gap_duration_min": 86.0, "wasted_distance_km": 4.175, "prev_trip": "DA240621040211", "next_trip": "DA240621051302", "prev_O": [114.1736631, 22.3009048], "next_O": [114.182962, 22.269562]}, "geometry": {"type": "LineString", "coordinates": [[114.217448, 22.287636], [114.180813, 22.271503]]}}, {"type": "Feature", "properties": {"id": "ghost_RV7493_20240621083033", "plate_no": "RV7493", "gap_start_time": "2024-06-21T08:30:33", "gap_end_time": "2024-06-21T09:15:03", "gap_duration_min": 44.5, "wasted_distance_km": 1.74, "prev_trip": "DA240621010511", "next_trip": "DA240621036701", "prev_O": [114.166374, 22.3299671], "next_O": [114.1919131, 22.3063812]}, "geometry": {"type": "LineString", "coordinates": [[114.176486, 22.31176], [114.192191, 22.305948]]}}, {"type": "Feature", "properties": {"id": "ghost_RX3329_20240621093945", "plate_no": "RX3329", "gap_start_time": "2024-06-21T09:39:45", "gap_end_time": "2024-06-21T10:30:15", "gap_duration_min": 50.5, "wasted_distance_km": 2.215, "prev_trip": "DA240621011411", "next_trip": "DA240621034911", "prev_O": [114.2699115, 22.2968596], "next_O": [114.149351, 22.280507]}, "geometry": {"type": "LineString", "coordinates": [[114.130375, 22.270693], [114.149328, 22.280146]]}}, {"type": "Feature", "properties": {"id": "ghost_RX3329_20240621104742", "plate_no": "RX3329", "gap_start_time": "2024-06-21T10:47:42", "gap_end_time": "2024-06-21T13:45:14", "gap_duration_min": 177.53, "wasted_distance_km": 12.168, "prev_trip": "DA240621034911", "next_trip": "DA240621025701", "prev_O": [114.149351, 22.280507], "next_O": [114.1827676, 22.3819893]}, "geometry": {"type": "LineString", "coordinates": [[114.183355, 22.269238], [114.185873, 22.378641]]}}, {"type": "Feature", "properties": {"id": "ghost_RX5674_20240621120620", "plate_no": "RX5674", "gap_start_time": "2024-06-21T12:06:20", "gap_end_time": "2024-06-21T14:00:26", "gap_duration_min": 114.1, "wasted_distance_km": 4.587, "prev_trip": "DA240621050402", "next_trip": "DA240621037801", "prev_O": [114.1743747, 22.3091816], "next_O": [114.2003629, 22.3433523]}, "geometry": {"type": "LineString", "coordinates": [[114.235941, 22.319958], [114.200695, 22.345236]]}}, {"type": "Feature", "properties": {"id": "ghost_SL7802_20240621122942", "plate_no": "SL7802", "gap_start_time": "2024-06-21T12:29:42", "gap_end_time": "2024-06-21T13:20:24", "gap_duration_min": 50.7, "wasted_distance_km": 7.93, "prev_trip": "DA240621038602", "next_trip": "DA240621045601", "prev_O": [114.1750342, 22.3095921], "next_O": [114.2666792, 22.3063335]}, "geometry": {"type": "LineString", "coordinates": [[114.189483, 22.30499], [114.26655, 22.306463]]}}, {"type": "Feature", "properties": {"id": "ghost_SL9199_20240621152244", "plate_no": "SL9199", "gap_start_time": "2024-06-21T15:22:44", "gap_end_time": "2024-06-21T16:45:03", "gap_duration_min": 82.32, "wasted_distance_km": 1.004, "prev_trip": "DA240621007902", "next_trip": "DA240621012002", "prev_O": [114.1987643, 22.3804685], "next_O": [114.1700846, 22.3760056]}, "geometry": {"type": "LineString", "coordinates": [[114.175061, 22.368665], [114.16966, 22.376188]]}}, {"type": "Feature", "properties": {"id": "ghost_SM453_20240621093109", "plate_no": "SM453", "gap_start_time": "2024-06-21T09:31:09", "gap_end_time": "2024-06-21T10:31:39", "gap_duration_min": 60.5, "wasted_distance_km": 3.361, "prev_trip": "DA240621006111", "next_trip": "DA240621029101", "prev_O": [114.2755017, 22.2971806], "next_O": [114.2567421, 22.3113053]}, "geometry": {"type": "LineString", "coordinates": [[114.229556, 22.305198], [114.261511, 22.311496]]}}, {"type": "Feature", "properties": {"id": "ghost_TF1503_20240621083130", "plate_no": "TF1503", "gap_start_time": "2024-06-21T08:31:30", "gap_end_time": "2024-06-21T10:30:05", "gap_duration_min": 118.58, "wasted_distance_km": 6.562, "prev_trip": "DA240621034001", "next_trip": "DA240621050301", "prev_O": [114.2313931, 22.4253222], "next_O": [114.008025, 22.453425]}, "geometry": {"type": "LineString", "coordinates": [[113.972801, 22.403371], [114.006851, 22.453295]]}}, {"type": "Feature", "properties": {"id": "ghost_TF1503_20240621104731", "plate_no": "TF1503", "gap_start_time": "2024-06-21T10:47:31", "gap_end_time": "2024-06-21T13:00:00", "gap_duration_min": 132.48, "wasted_distance_km": 2.177, "prev_trip": "DA240621050301", "next_trip": "DA240621015011", "prev_O": [114.008025, 22.453425], "next_O": [113.9770187, 22.3878801]}, "geometry": {"type": "LineString", "coordinates": [[113.971558, 22.406676], [113.97739, 22.387851]]}}, {"type": "Feature", "properties": {"id": "ghost_TF2479_20240621065521", "plate_no": "TF2479", "gap_start_time": "2024-06-21T06:55:21", "gap_end_time": "2024-06-21T08:00:12", "gap_duration_min": 64.85, "wasted_distance_km": 10.819, "prev_trip": "DA240621017811", "next_trip": "DA240621008711", "prev_O": [114.179555, 22.276041], "next_O": [114.2365271, 22.2631632]}, "geometry": {"type": "LineString", "coordinates": [[114.131185, 22.27056], [114.236031, 22.263283]]}}, {"type": "Feature", "properties": {"id": "ghost_TF2479_20240621100359", "plate_no": "TF2479", "gap_start_time": "2024-06-21T10:03:59", "gap_end_time": "2024-06-21T20:45:13", "gap_duration_min": 641.23, "wasted_distance_km": 4.418, "prev_trip": "DA240621008711", "next_trip": "DA240621033002", "prev_O": [114.2365271, 22.2631632], "next_O": [114.1309546, 22.2711238]}, "geometry": {"type": "LineString", "coordinates": [[114.173846, 22.273623], [114.131011, 22.270893]]}}, {"type": "Feature", "properties": {"id": "ghost_TW274_20240621082739", "plate_no": "TW274", "gap_start_time": "2024-06-21T08:27:39", "gap_end_time": "2024-06-21T11:00:05", "gap_duration_min": 152.43, "wasted_distance_km": 15.188, "prev_trip": "DA240621007211", "next_trip": "DA240621042001", "prev_O": [114.2567421, 22.3113053], "next_O": [114.1111594, 22.3685094]}, "geometry": {"type": "LineString", "coordinates": [[114.251605, 22.326263], [114.111131, 22.368403]]}}, {"type": "Feature", "properties": {"id": "ghost_TW274_20240621111735", "plate_no": "TW274", "gap_start_time": "2024-06-21T11:17:35", "gap_end_time": "2024-06-21T14:05:48", "gap_duration_min": 168.22, "wasted_distance_km": 5.537, "prev_trip": "DA240621042001", "next_trip": "DA240621034201", "prev_O": [114.1111594, 22.3685094], "next_O": [114.1714779, 22.310214]}, "geometry": {"type": "LineString", "coordinates": [[114.134465, 22.34107], [114.174108, 22.30738]]}}, {"type": "Feature", "properties": {"id": "ghost_TW274_20240621141218", "plate_no": "TW274", "gap_start_time": "2024-06-21T14:12:18", "gap_end_time": "2024-06-21T16:18:50", "gap_duration_min": 126.53, "wasted_distance_km": 0.523, "prev_trip": "DA240621034201", "next_trip": "DA240621025402", "prev_O": [114.1714779, 22.310214], "next_O": [114.1743747, 22.3091816]}, "geometry": {"type": "LineString", "coordinates": [[114.175278, 22.309796], [114.170865, 22.312135]]}}, {"type": "Feature", "properties": {"id": "ghost_TY3130_20240621101604", "plate_no": "TY3130", "gap_start_time": "2024-06-21T10:16:04", "gap_end_time": "2024-06-21T11:30:26", "gap_duration_min": 74.37, "wasted_distance_km": 11.463, "prev_trip": "DA240621036801", "next_trip": "DA240621050101", "prev_O": [113.998435, 22.456333], "next_O": [114.274778, 22.2967206]}, "geometry": {"type": "LineString", "coordinates": [[114.170526, 22.332305], [114.274983, 22.296408]]}}, {"type": "Feature", "properties": {"id": "ghost_UL3556_20240621075620", "plate_no": "UL3556", "gap_start_time": "2024-06-21T07:56:20", "gap_end_time": "2024-06-21T09:00:05", "gap_duration_min": 63.75, "wasted_distance_km": 12.64, "prev_trip": "DA240621035611", "next_trip": "DA240621052901", "prev_O": [114.227845, 22.304483], "next_O": [114.2675392, 22.2938014]}, "geometry": {"type": "LineString", "coordinates": [[114.184386, 22.377451], [114.267896, 22.294051]]}}, {"type": "Feature", "properties": {"id": "ghost_UL3556_20240621093435", "plate_no": "UL3556", "gap_start_time": "2024-06-21T09:34:35", "gap_end_time": "2024-06-21T11:40:02", "gap_duration_min": 125.45, "wasted_distance_km": 13.571, "prev_trip": "DA240621052901", "next_trip": "DA240621014501", "prev_O": [114.2675392, 22.2938014], "next_O": [114.2419046, 22.42537]}, "geometry": {"type": "LineString", "coordinates": [[114.157843, 22.327078], [114.238198, 22.423893]]}}, {"type": "Feature", "properties": {"id": "ghost_UL4469_20240621095532", "plate_no": "UL4469", "gap_start_time": "2024-06-21T09:55:32", "gap_end_time": "2024-06-21T11:00:12", "gap_duration_min": 64.67, "wasted_distance_km": 26.365, "prev_trip": "DA240621006601", "next_trip": "DA240621038111", "prev_O": [114.0709216, 22.433251], "next_O": [114.2162716, 22.325616]}, "geometry": {"type": "LineString", "coordinates": [[113.965478, 22.373475], [114.216463, 22.325178]]}}, {"type": "Feature", "properties": {"id": "ghost_UL6685_20240621102341", "plate_no": "UL6685", "gap_start_time": "2024-06-21T10:23:41", "gap_end_time": "2024-06-21T12:30:12", "gap_duration_min": 126.52, "wasted_distance_km": 0.118, "prev_trip": "DA240621023601", "next_trip": "DA240621023602", "prev_O": [114.2094681, 22.3284564], "next_O": [114.1628717, 22.3221939]}, "geometry": {"type": "LineString", "coordinates": [[114.164116, 22.322188], [114.162995, 22.3224]]}}, {"type": "Feature", "properties": {"id": "ghost_UL6685_20240621125442", "plate_no": "UL6685", "gap_start_time": "2024-06-21T12:54:42", "gap_end_time": "2024-06-21T14:45:29", "gap_duration_min": 110.78, "wasted_distance_km": 6.421, "prev_trip": "DA240621023602", "next_trip": "DA240621026011", "prev_O": [114.1628717, 22.3221939], "next_O": [114.266679, 22.306334]}, "geometry": {"type": "LineString", "coordinates": [[114.20839, 22.327521], [114.266561, 22.306566]]}}, {"type": "Feature", "properties": {"id": "ghost_UM4207_20240621095134", "plate_no": "UM4207", "gap_start_time": "2024-06-21T09:51:34", "gap_end_time": "2024-06-21T13:15:36", "gap_duration_min": 204.03, "wasted_distance_km": 5.122, "prev_trip": "DA240621031401", "next_trip": "DA240621012701", "prev_O": [114.2642247, 22.3155765], "next_O": [114.192605, 22.338409]}, "geometry": {"type": "LineString", "coordinates": [[114.230596, 22.308128], [114.193206, 22.338546]]}}, {"type": "Feature", "properties": {"id": "ghost_UM5134_20240621101922", "plate_no": "UM5134", "gap_start_time": "2024-06-21T10:19:22", "gap_end_time": "2024-06-21T12:30:14", "gap_duration_min": 130.87, "wasted_distance_km": 1.004, "prev_trip": "DA240621016311", "next_trip": "DA240621017311", "prev_O": [114.2518906, 22.3049429], "next_O": [114.2633591, 22.3175133]}, "geometry": {"type": "LineString", "coordinates": [[114.25799, 22.310476], [114.263721, 22.317786]]}}, {"type": "Feature", "properties": {"id": "ghost_UM5134_20240621123514", "plate_no": "UM5134", "gap_start_time": "2024-06-21T12:35:14", "gap_end_time": "2024-06-21T14:15:24", "gap_duration_min": 100.17, "wasted_distance_km": 5.117, "prev_trip": "DA240621017311", "next_trip": "DA240621039901", "prev_O": [114.2633591, 22.3175133], "next_O": [114.2204976, 22.323161]}, "geometry": {"type": "LineString", "coordinates": [[114.269681, 22.318136], [114.220188, 22.322748]]}}, {"type": "Feature", "properties": {"id": "ghost_UN9790_20240621082344", "plate_no": "UN9790", "gap_start_time": "2024-06-21T08:23:44", "gap_end_time": "2024-06-21T12:00:24", "gap_duration_min": 216.67, "wasted_distance_km": 14.871, "prev_trip": "DA240621031701", "next_trip": "DA240621006711", "prev_O": [114.113115, 22.369607], "next_O": [114.2503388, 22.4318668]}, "geometry": {"type": "LineString", "coordinates": [[114.122246, 22.370223], [114.250481, 22.432106]]}}, {"type": "Feature", "properties": {"id": "ghost_UP4016_20240621084522", "plate_no": "UP4016", "gap_start_time": "2024-06-21T08:45:22", "gap_end_time": "2024-06-21T12:00:22", "gap_duration_min": 195.0, "wasted_distance_km": 2.083, "prev_trip": "DA240621000911", "next_trip": "DA240621010102", "prev_O": [114.217242, 22.322492], "next_O": [114.1743747, 22.3091816]}, "geometry": {"type": "LineString", "coordinates": [[114.185986, 22.325143], [114.174833, 22.309511]]}}, {"type": "Feature", "properties": {"id": "ghost_UP6949_20240621105401", "plate_no": "UP6949", "gap_start_time": "2024-06-21T10:54:01", "gap_end_time": "2024-06-21T12:34:04", "gap_duration_min": 100.05, "wasted_distance_km": 0.026, "prev_trip": "DA240621008501", "next_trip": "DA240621008502", "prev_O": [114.216695, 22.39905], "next_O": [114.1886372, 22.3817578]}, "geometry": {"type": "LineString", "coordinates": [[114.192081, 22.38261], [114.192263, 22.38245]]}}, {"type": "Feature", "properties": {"id": "ghost_UR468_20240621104438", "plate_no": "UR468", "gap_start_time": "2024-06-21T10:44:38", "gap_end_time": "2024-06-21T12:30:12", "gap_duration_min": 105.57, "wasted_distance_km": 0.446, "prev_trip": "DA240621018901", "next_trip": "DA240621018902", "prev_O": [114.1679269, 22.3385508], "next_O": [114.1533525, 22.3368672]}, "geometry": {"type": "LineString", "coordinates": [[114.15594, 22.339936], [114.158175, 22.336498]]}}, {"type": "Feature", "properties": {"id": "ghost_UR468_20240621125340", "plate_no": "UR468", "gap_start_time": "2024-06-21T12:53:40", "gap_end_time": "2024-06-21T17:50:11", "gap_duration_min": 296.52, "wasted_distance_km": 7.708, "prev_trip": "DA240621018902", "next_trip": "DA240621030811", "prev_O": [114.1533525, 22.3368672], "next_O": [114.2303424, 22.3079333]}, "geometry": {"type": "LineString", "coordinates": [[114.16365, 22.339125], [114.230628, 22.308041]]}}, {"type": "Feature", "properties": {"id": "ghost_VA7459_20240621143436", "plate_no": "VA7459", "gap_start_time": "2024-06-21T14:34:36", "gap_end_time": "2024-06-21T15:40:05", "gap_duration_min": 65.48, "wasted_distance_km": 5.328, "prev_trip": "DA240621028902", "next_trip": "DA240621003202", "prev_O": [114.1678015, 22.3005315], "next_O": [114.212997, 22.3358478]}, "geometry": {"type": "LineString", "coordinates": [[114.257426, 22.310883], [114.21309, 22.335655]]}}, {"type": "Feature", "properties": {"id": "ghost_VD6128_20240621110841", "plate_no": "VD6128", "gap_start_time": "2024-06-21T11:08:41", "gap_end_time": "2024-06-21T14:00:07", "gap_duration_min": 171.43, "wasted_distance_km": 15.367, "prev_trip": "DA240621028801", "next_trip": "DA240621011301", "prev_O": [114.2567421, 22.3113053], "next_O": [114.2297222, 22.4252778]}, "geometry": {"type": "LineString", "coordinates": [[114.16843, 22.29942], [114.229726, 22.425458]]}}, {"type": "Feature", "properties": {"id": "ghost_VD768_20240621091839", "plate_no": "VD768", "gap_start_time": "2024-06-21T09:18:39", "gap_end_time": "2024-06-21T11:01:06", "gap_duration_min": 102.45, "wasted_distance_km": 10.319, "prev_trip": "DA240621024711", "next_trip": "DA240621033701", "prev_O": [114.1501361, 22.244705], "next_O": [114.140359, 22.36439]}, "geometry": {"type": "LineString", "coordinates": [[114.221021, 22.31015], [114.139643, 22.364435]]}}, {"type": "Feature", "properties": {"id": "ghost_VE7344_20240621130809", "plate_no": "VE7344", "gap_start_time": "2024-06-21T13:08:09", "gap_end_time": "2024-06-21T14:45:14", "gap_duration_min": 97.08, "wasted_distance_km": 12.329, "prev_trip": "DA240621034402", "next_trip": "DA240621004311", "prev_O": [114.2077498, 22.3227562], "next_O": [114.1200839, 22.3703121]}, "geometry": {"type": "LineString", "coordinates": [[114.223998, 22.31462], [114.120753, 22.370971]]}}, {"type": "Feature", "properties": {"id": "ghost_VE8500_20240621101930", "plate_no": "VE8500", "gap_start_time": "2024-06-21T10:19:30", "gap_end_time": "2024-06-21T17:30:54", "gap_duration_min": 431.4, "wasted_distance_km": 12.085, "prev_trip": "DA240621038401", "next_trip": "DA240621046311", "prev_O": [114.2363451, 22.3060767], "next_O": [114.2655483, 22.3139687]}, "geometry": {"type": "LineString", "coordinates": [[114.150563, 22.336071], [114.265615, 22.314056]]}}, {"type": "Feature", "properties": {"id": "ghost_VG427_20240621105459", "plate_no": "VG427", "gap_start_time": "2024-06-21T10:54:59", "gap_end_time": "2024-06-21T17:01:31", "gap_duration_min": 366.53, "wasted_distance_km": 5.485, "prev_trip": "DA240621029001", "next_trip": "DA240621036202", "prev_O": [114.2567421, 22.3113053], "next_O": [114.13489, 22.341561]}, "geometry": {"type": "LineString", "coordinates": [[114.168418, 22.302951], [114.134521, 22.341025]]}}, {"type": "Feature", "properties": {"id": "ghost_VV6972_20240621103149", "plate_no": "VV6972", "gap_start_time": "2024-06-21T10:31:49", "gap_end_time": "2024-06-21T14:50:35", "gap_duration_min": 258.77, "wasted_distance_km": 25.781, "prev_trip": "DA240621026601", "next_trip": "DA240621007011", "prev_O": [114.2396535, 22.2933512], "next_O": [114.192478, 22.338538]}, "geometry": {"type": "LineString", "coordinates": [[113.944156, 22.320721], [114.194048, 22.338701]]}}, {"type": "Feature", "properties": {"id": "ghost_VV7298_20240621132319", "plate_no": "VV7298", "gap_start_time": "2024-06-21T13:23:19", "gap_end_time": "2024-06-21T14:55:22", "gap_duration_min": 92.05, "wasted_distance_km": 0.064, "prev_trip": "DA240621019611", "next_trip": "DA240621019711", "prev_O": [114.1777194, 22.2755944], "next_O": [114.1306512, 22.2705502]}, "geometry": {"type": "LineString", "coordinates": [[114.13029, 22.270525], [114.130906, 22.270423]]}}, {"type": "Feature", "properties": {"id": "ghost_VW3473_20240621105856", "plate_no": "VW3473", "gap_start_time": "2024-06-21T10:58:56", "gap_end_time": "2024-06-21T13:00:18", "gap_duration_min": 121.37, "wasted_distance_km": 9.884, "prev_trip": "DA240621030701", "next_trip": "DA240621038901", "prev_O": [114.1203858, 22.3670155], "next_O": [114.1201768, 22.3741788]}, "geometry": {"type": "LineString", "coordinates": [[114.168181, 22.451016], [114.12028, 22.373941]]}}, {"type": "Feature", "properties": {"id": "ghost_VY5967_20240621081303", "plate_no": "VY5967", "gap_start_time": "2024-06-21T08:13:03", "gap_end_time": "2024-06-21T09:20:36", "gap_duration_min": 67.55, "wasted_distance_km": 0.583, "prev_trip": "DA240621011601", "next_trip": "DA240621002011", "prev_O": [114.1414736, 22.3728484], "next_O": [114.1236864, 22.362922]}, "geometry": {"type": "LineString", "coordinates": [[114.122735, 22.368898], [114.127213, 22.365675]]}}, {"type": "Feature", "properties": {"id": "ghost_VY5967_20240621093736", "plate_no": "VY5967", "gap_start_time": "2024-06-21T09:37:36", "gap_end_time": "2024-06-21T12:30:03", "gap_duration_min": 172.45, "wasted_distance_km": 16.651, "prev_trip": "DA240621002011", "next_trip": "DA240621039202", "prev_O": [114.1236864, 22.362922], "next_O": [114.2667855, 22.3075063]}, "geometry": {"type": "LineString", "coordinates": [[114.121896, 22.373706], [114.266598, 22.30654]]}}, {"type": "Feature", "properties": {"id": "ghost_VY5967_20240621124108", "plate_no": "VY5967", "gap_start_time": "2024-06-21T12:41:08", "gap_end_time": "2024-06-21T15:30:02", "gap_duration_min": 168.9, "wasted_distance_km": 15.406, "prev_trip": "DA240621039202", "next_trip": "DA240621011602", "prev_O": [114.2667855, 22.3075063], "next_O": [114.1219651, 22.3714765]}, "geometry": {"type": "LineString", "coordinates": [[114.261606, 22.321481], [114.121888, 22.371455]]}}, {"type": "Feature", "properties": {"id": "ghost_WN8723_20240621114933", "plate_no": "WN8723", "gap_start_time": "2024-06-21T11:49:33", "gap_end_time": "2024-06-21T12:50:33", "gap_duration_min": 61.0, "wasted_distance_km": 24.251, "prev_trip": "DA240621011711", "next_trip": "DA240621035201", "prev_O": [114.2559517, 22.3219898], "next_O": [114.186736, 22.30968]}, "geometry": {"type": "LineString", "coordinates": [[113.961921, 22.378085], [114.186816, 22.312521]]}}, {"type": "Feature", "properties": {"id": "ghost_WN9331_20240621090215", "plate_no": "WN9331", "gap_start_time": "2024-06-21T09:02:15", "gap_end_time": "2024-06-21T13:00:16", "gap_duration_min": 238.02, "wasted_distance_km": 22.319, "prev_trip": "DA240621011901", "next_trip": "DA240621038301", "prev_O": [114.137108, 22.5004969], "next_O": [114.2378009, 22.3051463]}, "geometry": {"type": "LineString", "coordinates": [[114.139266, 22.483668], [114.237975, 22.3049]]}}, {"type": "Feature", "properties": {"id": "ghost_WN9331_20240621131013", "plate_no": "WN9331", "gap_start_time": "2024-06-21T13:10:13", "gap_end_time": "2024-06-21T15:30:15", "gap_duration_min": 140.03, "wasted_distance_km": 11.302, "prev_trip": "DA240621038301", "next_trip": "DA240621002911", "prev_O": [114.2378009, 22.3051463], "next_O": [114.1323065, 22.2661136]}, "geometry": {"type": "LineString", "coordinates": [[114.233393, 22.306065], [114.132171, 22.266595]]}}, {"type": "Feature", "properties": {"id": "ghost_WP3895_20240621062318", "plate_no": "WP3895", "gap_start_time": "2024-06-21T06:23:18", "gap_end_time": "2024-06-21T07:15:18", "gap_duration_min": 52.0, "wasted_distance_km": 3.205, "prev_trip": "DA240621017701", "next_trip": "DA240621000801", "prev_O": [114.227417, 22.3259462], "next_O": [114.2004947, 22.2912707]}, "geometry": {"type": "LineString", "coordinates": [[114.17445, 22.306983], [114.200543, 22.29123]]}}, {"type": "Feature", "properties": {"id": "ghost_XE1886_20240621100836", "plate_no": "XE1886", "gap_start_time": "2024-06-21T10:08:36", "gap_end_time": "2024-06-21T15:00:05", "gap_duration_min": 291.48, "wasted_distance_km": 0.202, "prev_trip": "DA240621024211", "next_trip": "DA240621017402", "prev_O": [114.178114, 22.314217], "next_O": [114.2076001, 22.3229979]}, "geometry": {"type": "LineString", "coordinates": [[114.209203, 22.323021], [114.207241, 22.323116]]}}, {"type": "Feature", "properties": {"id": "ghost_XE1886_20240621151805", "plate_no": "XE1886", "gap_start_time": "2024-06-21T15:18:05", "gap_end_time": "2024-06-21T16:00:05", "gap_duration_min": 42.0, "wasted_distance_km": 7.068, "prev_trip": "DA240621017402", "next_trip": "DA240621027111", "prev_O": [114.2076001, 22.3229979], "next_O": [114.2566511, 22.3110934]}, "geometry": {"type": "LineString", "coordinates": [[114.1929, 22.33336], [114.257318, 22.311238]]}}, {"type": "Feature", "properties": {"id": "ghost_XE2198_20240621091838", "plate_no": "XE2198", "gap_start_time": "2024-06-21T09:18:38", "gap_end_time": "2024-06-21T12:45:09", "gap_duration_min": 206.52, "wasted_distance_km": 12.843, "prev_trip": "DA240621043301", "next_trip": "DA240621008211", "prev_O": [114.1344601, 22.3683854], "next_O": [114.2286722, 22.3119194]}, "geometry": {"type": "LineString", "coordinates": [[114.12225, 22.370226], [114.229666, 22.311328]]}}, {"type": "Feature", "properties": {"id": "ghost_XE612_20240621134148", "plate_no": "XE612", "gap_start_time": "2024-06-21T13:41:48", "gap_end_time": "2024-06-21T16:15:15", "gap_duration_min": 153.45, "wasted_distance_km": 28.411, "prev_trip": "DA240621025502", "next_trip": "DA240621042402", "prev_O": [114.1306512, 22.2705502], "next_O": [114.2287139, 22.3081321]}, "geometry": {"type": "LineString", "coordinates": [[113.952818, 22.296638], [114.228736, 22.307533]]}}, {"type": "Feature", "properties": {"id": "ghost_XE7053_20240621093258", "plate_no": "XE7053", "gap_start_time": "2024-06-21T09:32:58", "gap_end_time": "2024-06-21T14:30:30", "gap_duration_min": 297.53, "wasted_distance_km": 5.748, "prev_trip": "DA240621032301", "next_trip": "DA240621020802", "prev_O": [114.2204976, 22.323161], "next_O": [114.1725229, 22.3019182]}, "geometry": {"type": "LineString", "coordinates": [[114.132593, 22.266736], [114.1716, 22.303745]]}}, {"type": "Feature", "properties": {"id": "ghost_XE7168_20240621094550", "plate_no": "XE7168", "gap_start_time": "2024-06-21T09:45:50", "gap_end_time": "2024-06-21T14:00:23", "gap_duration_min": 254.55, "wasted_distance_km": 5.812, "prev_trip": "DA240621047502", "next_trip": "DA240621029002", "prev_O": [114.1966145, 22.3456548], "next_O": [114.1678015, 22.3005315]}, "geometry": {"type": "LineString", "coordinates": [[114.198233, 22.343433], [114.168256, 22.29913]]}}, {"type": "Feature", "properties": {"id": "ghost_XE7168_20240621143823", "plate_no": "XE7168", "gap_start_time": "2024-06-21T14:38:23", "gap_end_time": "2024-06-21T15:40:23", "gap_duration_min": 62.0, "wasted_distance_km": 5.246, "prev_trip": "DA240621029002", "next_trip": "DA240621003102", "prev_O": [114.1678015, 22.3005315], "next_O": [114.212997, 22.3358478]}, "geometry": {"type": "LineString", "coordinates": [[114.257408, 22.311126], [114.213851, 22.335668]]}}, {"type": "Feature", "properties": {"id": "ghost_XE7595_20240621124809", "plate_no": "XE7595", "gap_start_time": "2024-06-21T12:48:09", "gap_end_time": "2024-06-21T17:20:14", "gap_duration_min": 272.08, "wasted_distance_km": 3.869, "prev_trip": "DA240621033702", "next_trip": "DA240621030211", "prev_O": [114.1266854, 22.3621829], "next_O": [114.1571495, 22.3328992]}, "geometry": {"type": "LineString", "coordinates": [[114.141181, 22.364376], [114.157251, 22.332911]]}}, {"type": "Feature", "properties": {"id": "ghost_XE7898_20240621104224", "plate_no": "XE7898", "gap_start_time": "2024-06-21T10:42:24", "gap_end_time": "2024-06-21T12:15:54", "gap_duration_min": 93.5, "wasted_distance_km": 0.288, "prev_trip": "DA240621021401", "next_trip": "DA240621021402", "prev_O": [114.140001, 22.37024], "next_O": [114.1279235, 22.3521212]}, "geometry": {"type": "LineString", "coordinates": [[114.128681, 22.352776], [114.127411, 22.355086]]}}, {"type": "Feature", "properties": {"id": "ghost_XE8451_20240621145904", "plate_no": "XE8451", "gap_start_time": "2024-06-21T14:59:04", "gap_end_time": "2024-06-21T16:15:04", "gap_duration_min": 76.0, "wasted_distance_km": 0.91, "prev_trip": "DA240621000402", "next_trip": "DA240621000502", "prev_O": [114.1283333, 22.3458333], "next_O": [114.1283333, 22.3458333]}, "geometry": {"type": "LineString", "coordinates": [[114.13049, 22.353465], [114.1266, 22.346111]]}}, {"type": "Feature", "properties": {"id": "ghost_XN7430_20240621122058", "plate_no": "XN7430", "gap_start_time": "2024-06-21T12:20:58", "gap_end_time": "2024-06-21T14:16:05", "gap_duration_min": 115.12, "wasted_distance_km": 4.475, "prev_trip": "DA240621033302", "next_trip": "DA240621025201", "prev_O": [114.228737, 22.311857], "next_O": [114.1885977, 22.3066191]}, "geometry": {"type": "LineString", "coordinates": [[114.209898, 22.340978], [114.187973, 22.306218]]}}, {"type": "Feature", "properties": {"id": "ghost_XN7430_20240621142635", "plate_no": "XN7430", "gap_start_time": "2024-06-21T14:26:35", "gap_end_time": "2024-06-21T15:15:16", "gap_duration_min": 48.68, "wasted_distance_km": 3.756, "prev_trip": "DA240621025201", "next_trip": "DA240621007611", "prev_O": [114.1885977, 22.3066191], "next_O": [114.222657, 22.3205314]}, "geometry": {"type": "LineString", "coordinates": [[114.187071, 22.32536], [114.223125, 22.320006]]}}, {"type": "Feature", "properties": {"id": "ghost_XU8126_20240621104704", "plate_no": "XU8126", "gap_start_time": "2024-06-21T10:47:04", "gap_end_time": "2024-06-21T15:00:54", "gap_duration_min": 253.83, "wasted_distance_km": 9.244, "prev_trip": "DA240621039201", "next_trip": "DA240621042301", "prev_O": [114.260083, 22.3209665], "next_O": [114.1843694, 22.3404435]}, "geometry": {"type": "LineString", "coordinates": [[114.267153, 22.307501], [114.184733, 22.340648]]}}, {"type": "Feature", "properties": {"id": "ghost_XU8126_20240621152254", "plate_no": "XU8126", "gap_start_time": "2024-06-21T15:22:54", "gap_end_time": "2024-06-21T16:00:16", "gap_duration_min": 37.37, "wasted_distance_km": 5.593, "prev_trip": "DA240621042301", "next_trip": "DA240621029902", "prev_O": [114.1843694, 22.3404435], "next_O": [114.230235, 22.3080329]}, "geometry": {"type": "LineString", "coordinates": [[114.176418, 22.312131], [114.230606, 22.308033]]}}, {"type": "Feature", "properties": {"id": "ghost_XU8126_20240621161917", "plate_no": "XU8126", "gap_start_time": "2024-06-21T16:19:17", "gap_end_time": "2024-06-21T17:02:17", "gap_duration_min": 43.0, "wasted_distance_km": 2.941, "prev_trip": "DA240621029902", "next_trip": "DA240621006311", "prev_O": [114.230235, 22.3080329], "next_O": [114.2303424, 22.3079333]}, "geometry": {"type": "LineString", "coordinates": [[114.251478, 22.326246], [114.230788, 22.307993]]}}, {"type": "Feature", "properties": {"id": "ghost_XV3002_20240621100226", "plate_no": "XV3002", "gap_start_time": "2024-06-21T10:02:26", "gap_end_time": "2024-06-21T13:30:57", "gap_duration_min": 208.52, "wasted_distance_km": 10.785, "prev_trip": "DA240621020611", "next_trip": "DA240621026811", "prev_O": [114.1430877, 22.2850022], "next_O": [114.1321573, 22.2669059]}, "geometry": {"type": "LineString", "coordinates": [[114.237375, 22.271596], [114.132708, 22.266541]]}}, {"type": "Feature", "properties": {"id": "ghost_XV3002_20240621134557", "plate_no": "XV3002", "gap_start_time": "2024-06-21T13:45:57", "gap_end_time": "2024-06-21T17:00:27", "gap_duration_min": 194.5, "wasted_distance_km": 3.104, "prev_trip": "DA240621026811", "next_trip": "DA240621011011", "prev_O": [114.1321573, 22.2669059], "next_O": [114.1777194, 22.2755944]}, "geometry": {"type": "LineString", "coordinates": [[114.180425, 22.30294], [114.177573, 22.275153]]}}, {"type": "Feature", "properties": {"id": "ghost_XV7200_20240621103839", "plate_no": "XV7200", "gap_start_time": "2024-06-21T10:38:39", "gap_end_time": "2024-06-21T19:31:52", "gap_duration_min": 533.22, "wasted_distance_km": 3.122, "prev_trip": "DA240621039711", "next_trip": "DA240621031011", "prev_O": [114.189362, 22.32288], "next_O": [114.1760631, 22.3084122]}, "geometry": {"type": "LineString", "coordinates": [[114.190133, 22.337168], [114.176403, 22.312125]]}}, {"type": "Feature", "properties": {"id": "ghost_XV7200_20240621194722", "plate_no": "XV7200", "gap_start_time": "2024-06-21T19:47:22", "gap_end_time": "2024-06-21T20:35:22", "gap_duration_min": 48.0, "wasted_distance_km": 0.864, "prev_trip": "DA240621031011", "next_trip": "DA240621028702", "prev_O": [114.1760631, 22.3084122], "next_O": [114.1771323, 22.3151833]}, "geometry": {"type": "LineString", "coordinates": [[114.18184, 22.313755], [114.175736, 22.319088]]}}, {"type": "Feature", "properties": {"id": "ghost_YK4683_20240621065541", "plate_no": "YK4683", "gap_start_time": "2024-06-21T06:55:41", "gap_end_time": "2024-06-21T12:15:08", "gap_duration_min": 319.45, "wasted_distance_km": 0.065, "prev_trip": "DA240621016201", "next_trip": "DA240621015801", "prev_O": [114.1334613, 22.4948376], "next_O": [114.195234, 22.387932]}, "geometry": {"type": "LineString", "coordinates": [[114.194985, 22.387425], [114.195446, 22.387026]]}}, {"type": "Feature", "properties": {"id": "ghost_YK4683_20240621123208", "plate_no": "YK4683", "gap_start_time": "2024-06-21T12:32:08", "gap_end_time": "2024-06-21T14:00:08", "gap_duration_min": 88.0, "wasted_distance_km": 0.225, "prev_trip": "DA240621015801", "next_trip": "DA240621015802", "prev_O": [114.195234, 22.387932], "next_O": [114.1676132, 22.3073911]}, "geometry": {"type": "LineString", "coordinates": [[114.167175, 22.309305], [114.167115, 22.30728]]}}, {"type": "Feature", "properties": {"id": "ghost_YK5072_20240621121638", "plate_no": "YK5072", "gap_start_time": "2024-06-21T12:16:38", "gap_end_time": "2024-06-21T13:21:33", "gap_duration_min": 64.92, "wasted_distance_km": 7.635, "prev_trip": "DA240621018401", "next_trip": "DA240621037501", "prev_O": [114.1902412, 22.287115], "next_O": [114.2085326, 22.3866051]}, "geometry": {"type": "LineString", "coordinates": [[114.160696, 22.331608], [114.209876, 22.383041]]}}, {"type": "Feature", "properties": {"id": "ghost_YK5072_20240621133630", "plate_no": "YK5072", "gap_start_time": "2024-06-21T13:36:30", "gap_end_time": "2024-06-21T15:30:16", "gap_duration_min": 113.77, "wasted_distance_km": 0.892, "prev_trip": "DA240621037501", "next_trip": "DA240621037211", "prev_O": [114.2085326, 22.3866051], "next_O": [114.18052, 22.32278]}, "geometry": {"type": "LineString", "coordinates": [[114.172295, 22.326586], [114.179976, 22.322865]]}}, {"type": "Feature", "properties": {"id": "ghost_YK5072_20240621155046", "plate_no": "YK5072", "gap_start_time": "2024-06-21T15:50:46", "gap_end_time": "2024-06-21T16:30:16", "gap_duration_min": 39.5, "wasted_distance_km": 3.358, "prev_trip": "DA240621037211", "next_trip": "DA240621032202", "prev_O": [114.18052, 22.32278], "next_O": [114.1692768, 22.3095125]}, "geometry": {"type": "LineString", "coordinates": [[114.165915, 22.33959], [114.169218, 22.309545]]}}, {"type": "Feature", "properties": {"id": "ghost_YK7398_20240621094837", "plate_no": "YK7398", "gap_start_time": "2024-06-21T09:48:37", "gap_end_time": "2024-06-21T13:01:07", "gap_duration_min": 192.5, "wasted_distance_km": 9.583, "prev_trip": "DA240621041201", "next_trip": "DA240621014011", "prev_O": [114.190706, 22.342478], "next_O": [114.1721282, 22.4629649]}, "geometry": {"type": "LineString", "coordinates": [[114.184316, 22.377501], [114.173671, 22.463116]]}}, {"type": "Feature", "properties": {"id": "ghost_YK7874_20240621070921", "plate_no": "YK7874", "gap_start_time": "2024-06-21T07:09:21", "gap_end_time": "2024-06-21T09:45:21", "gap_duration_min": 156.0, "wasted_distance_km": 4.444, "prev_trip": "DA240621028101", "next_trip": "DA240621039401", "prev_O": [114.2009294, 22.2910792], "next_O": [114.22004, 22.283011]}, "geometry": {"type": "LineString", "coordinates": [[114.17672, 22.279051], [114.219693, 22.283085]]}}, {"type": "Feature", "properties": {"id": "ghost_YK7874_20240621100451", "plate_no": "YK7874", "gap_start_time": "2024-06-21T10:04:51", "gap_end_time": "2024-06-21T14:00:20", "gap_duration_min": 235.48, "wasted_distance_km": 0.792, "prev_trip": "DA240621039401", "next_trip": "DA240621040801", "prev_O": [114.22004, 22.283011], "next_O": [114.191186, 22.284962]}, "geometry": {"type": "LineString", "coordinates": [[114.188315, 22.27863], [114.190846, 22.285355]]}}, {"type": "Feature", "properties": {"id": "ghost_YK7874_20240621141254", "plate_no": "YK7874", "gap_start_time": "2024-06-21T14:12:54", "gap_end_time": "2024-06-21T17:00:04", "gap_duration_min": 167.17, "wasted_distance_km": 2.108, "prev_trip": "DA240621040801", "next_trip": "DA240621020311", "prev_O": [114.191186, 22.284962], "next_O": [114.1394532, 22.2865441]}, "geometry": {"type": "LineString", "coordinates": [[114.158833, 22.279973], [114.139696, 22.28673]]}}, {"type": "Feature", "properties": {"id": "ghost_YK8969_20240621094558", "plate_no": "YK8969", "gap_start_time": "2024-06-21T09:45:58", "gap_end_time": "2024-06-21T12:00:28", "gap_duration_min": 134.5, "wasted_distance_km": 7.007, "prev_trip": "DA240621018701", "next_trip": "DA240621023302", "prev_O": [114.13282, 22.253092], "next_O": [114.1908047, 22.2754598]}, "geometry": {"type": "LineString", "coordinates": [[114.122223, 22.270893], [114.190178, 22.274923]]}}, {"type": "Feature", "properties": {"id": "ghost_YK905_20240621083038", "plate_no": "YK905", "gap_start_time": "2024-06-21T08:30:38", "gap_end_time": "2024-06-21T09:10:08", "gap_duration_min": 39.5, "wasted_distance_km": 9.201, "prev_trip": "DA240621043411", "next_trip": "DA240621049711", "prev_O": [114.1870994, 22.3169], "next_O": [114.1242536, 22.3695896]}, "geometry": {"type": "LineString", "coordinates": [[114.171918, 22.298455], [114.124206, 22.368451]]}}, {"type": "Feature", "properties": {"id": "ghost_YK905_20240621092838", "plate_no": "YK905", "gap_start_time": "2024-06-21T09:28:38", "gap_end_time": "2024-06-21T12:00:05", "gap_duration_min": 151.45, "wasted_distance_km": 7.99, "prev_trip": "DA240621049711", "next_trip": "DA240621016901", "prev_O": [114.1242536, 22.3695896], "next_O": [114.2025948, 22.3300654]}, "geometry": {"type": "LineString", "coordinates": [[114.128313, 22.352411], [114.202198, 22.330198]]}}, {"type": "Feature", "properties": {"id": "ghost_YK905_20240621122235", "plate_no": "YK905", "gap_start_time": "2024-06-21T12:22:35", "gap_end_time": "2024-06-21T14:00:02", "gap_duration_min": 97.45, "wasted_distance_km": 3.988, "prev_trip": "DA240621016901", "next_trip": "DA240621028802", "prev_O": [114.2025948, 22.3300654], "next_O": [114.1678015, 22.3005315]}, "geometry": {"type": "LineString", "coordinates": [[114.160848, 22.334005], [114.168651, 22.298876]]}}, {"type": "Feature", "properties": {"id": "ghost_YK905_20240621142606", "plate_no": "YK905", "gap_start_time": "2024-06-21T14:26:06", "gap_end_time": "2024-06-21T15:40:06", "gap_duration_min": 74.0, "wasted_distance_km": 5.301, "prev_trip": "DA240621028802", "next_trip": "DA240621003002", "prev_O": [114.1678015, 22.3005315], "next_O": [114.212997, 22.3358478]}, "geometry": {"type": "LineString", "coordinates": [[114.257843, 22.311085], [114.21369, 22.335663]]}}, {"type": "Feature", "properties": {"id": "ghost_YK9198_20240621094704", "plate_no": "YK9198", "gap_start_time": "2024-06-21T09:47:04", "gap_end_time": "2024-06-21T13:15:27", "gap_duration_min": 208.38, "wasted_distance_km": 2.582, "prev_trip": "DA240621020801", "next_trip": "DA240621025401", "prev_O": [114.1430877, 22.2850022], "next_O": [114.1609022, 22.3245534]}, "geometry": {"type": "LineString", "coordinates": [[114.17062, 22.302915], [114.160455, 22.324146]]}}, {"type": "Feature", "properties": {"id": "ghost_YL1783_20240621134236", "plate_no": "YL1783", "gap_start_time": "2024-06-21T13:42:36", "gap_end_time": "2024-06-21T16:45:08", "gap_duration_min": 182.53, "wasted_distance_km": 23.242, "prev_trip": "DA240621036802", "next_trip": "DA240621028302", "prev_O": [114.1716857, 22.3301776], "next_O": [114.1710499, 22.3302949]}, "geometry": {"type": "LineString", "coordinates": [[113.997853, 22.459506], [114.172381, 22.326658]]}}, {"type": "Feature", "properties": {"id": "ghost_YL1792_20240621152117", "plate_no": "YL1792", "gap_start_time": "2024-06-21T15:21:17", "gap_end_time": "2024-06-21T16:35:17", "gap_duration_min": 74.0, "wasted_distance_km": 0.592, "prev_trip": "DA240621001511", "next_trip": "DA240621001602", "prev_O": [114.1734816, 22.2725317], "next_O": [114.1734816, 22.2725317]}, "geometry": {"type": "LineString", "coordinates": [[114.178086, 22.277793], [114.177618, 22.27249]]}}, {"type": "Feature", "properties": {"id": "ghost_YL6700_20240621102217", "plate_no": "YL6700", "gap_start_time": "2024-06-21T10:22:17", "gap_end_time": "2024-06-21T15:30:13", "gap_duration_min": 307.93, "wasted_distance_km": 7.144, "prev_trip": "DA240621021211", "next_trip": "DA240621031702", "prev_O": [114.2028038, 22.4017167], "next_O": [114.118883, 22.369655]}, "geometry": {"type": "LineString", "coordinates": [[114.172408, 22.326576], [114.118933, 22.367586]]}}, {"type": "Feature", "properties": {"id": "ghost_YL6700_20240621160143", "plate_no": "YL6700", "gap_start_time": "2024-06-21T16:01:43", "gap_end_time": "2024-06-21T16:46:13", "gap_duration_min": 44.5, "wasted_distance_km": 1.219, "prev_trip": "DA240621031702", "next_trip": "DA240621022802", "prev_O": [114.118883, 22.369655], "next_O": [114.1078444, 22.3781035]}, "geometry": {"type": "LineString", "coordinates": [[114.113061, 22.369353], [114.107271, 22.378918]]}}, {"type": "Feature", "properties": {"id": "ghost_YL6936_20240621093602", "plate_no": "YL6936", "gap_start_time": "2024-06-21T09:36:02", "gap_end_time": "2024-06-21T11:47:52", "gap_duration_min": 131.83, "wasted_distance_km": 24.412, "prev_trip": "DA240621008901", "next_trip": "DA240621036101", "prev_O": [114.0010634, 22.4693172], "next_O": [114.1877826, 22.3102544]}, "geometry": {"type": "LineString", "coordinates": [[113.960558, 22.375671], [114.18621, 22.30758]]}}, {"type": "Feature", "properties": {"id": "ghost_YL8061_20240621112308", "plate_no": "YL8061", "gap_start_time": "2024-06-21T11:23:08", "gap_end_time": "2024-06-21T14:00:22", "gap_duration_min": 157.23, "wasted_distance_km": 12.075, "prev_trip": "DA240621041411", "next_trip": "DA240621019901", "prev_O": [114.2726925, 22.2937258], "next_O": [114.2251284, 22.4189585]}, "geometry": {"type": "LineString", "coordinates": [[114.188445, 22.31566], [114.225188, 22.418803]]}}, {"type": "Feature", "properties": {"id": "ghost_YL8061_20240621141956", "plate_no": "YL8061", "gap_start_time": "2024-06-21T14:19:56", "gap_end_time": "2024-06-21T15:00:27", "gap_duration_min": 40.52, "wasted_distance_km": 0.357, "prev_trip": "DA240621019901", "next_trip": "DA240621019902", "prev_O": [114.2251284, 22.4189585], "next_O": [114.201222, 22.378404]}, "geometry": {"type": "LineString", "coordinates": [[114.20499, 22.379065], [114.201581, 22.378436]]}}, {"type": "Feature", "properties": {"id": "ghost_YL8061_20240621151927", "plate_no": "YL8061", "gap_start_time": "2024-06-21T15:19:27", "gap_end_time": "2024-06-21T17:25:12", "gap_duration_min": 125.75, "wasted_distance_km": 12.371, "prev_trip": "DA240621019902", "next_trip": "DA240621018311", "prev_O": [114.201222, 22.378404], "next_O": [114.2305221, 22.3074016]}, "geometry": {"type": "LineString", "coordinates": [[114.225206, 22.41874], [114.230675, 22.307596]]}}, {"type": "Feature", "properties": {"id": "ghost_YM145_20240621084940", "plate_no": "YM145", "gap_start_time": "2024-06-21T08:49:40", "gap_end_time": "2024-06-21T14:30:19", "gap_duration_min": 340.65, "wasted_distance_km": 8.954, "prev_trip": "DA240621047501", "next_trip": "DA240621016701", "prev_O": [114.2007314, 22.345522], "next_O": [114.2253605, 22.4230226]}, "geometry": {"type": "LineString", "coordinates": [[114.199848, 22.345288], [114.225175, 22.42233]]}}, {"type": "Feature", "properties": {"id": "ghost_YY7632_20240621101003", "plate_no": "YY7632", "gap_start_time": "2024-06-21T10:10:03", "gap_end_time": "2024-06-21T13:40:07", "gap_duration_min": 210.07, "wasted_distance_km": 4.392, "prev_trip": "DA240621038601", "next_trip": "DA240621021601", "prev_O": [114.188853, 22.303809], "next_O": [114.2132694, 22.3315784]}, "geometry": {"type": "LineString", "coordinates": [[114.176496, 22.311605], [114.213498, 22.331316]]}}, {"type": "Feature", "properties": {"id": "ghost_YY8058_20240621103432", "plate_no": "YY8058", "gap_start_time": "2024-06-21T10:34:32", "gap_end_time": "2024-06-21T13:00:27", "gap_duration_min": 145.92, "wasted_distance_km": 4.486, "prev_trip": "DA240621049311", "next_trip": "DA240621037411", "prev_O": [114.128119, 22.35256], "next_O": [114.1808597, 22.3802319]}, "geometry": {"type": "LineString", "coordinates": [[114.189401, 22.34072], [114.180786, 22.380273]]}}, {"type": "Feature", "properties": {"id": "ghost_YZ2545_20240621122333", "plate_no": "YZ2545", "gap_start_time": "2024-06-21T12:23:33", "gap_end_time": "2024-06-21T14:25:15", "gap_duration_min": 121.7, "wasted_distance_km": 5.83, "prev_trip": "DA240621016202", "next_trip": "DA240621005902", "prev_O": [114.1945989, 22.3874752], "next_O": [114.173077, 22.4611085]}, "geometry": {"type": "LineString", "coordinates": [[114.1301, 22.49599], [114.172928, 22.461601]]}}, {"type": "Feature", "properties": {"id": "ghost_ZA2376_20240621082913", "plate_no": "ZA2376", "gap_start_time": "2024-06-21T08:29:13", "gap_end_time": "2024-06-21T14:00:24", "gap_duration_min": 331.18, "wasted_distance_km": 13.826, "prev_trip": "DA240621003101", "next_trip": "DA240621014311", "prev_O": [114.1890105, 22.3079943], "next_O": [114.1697459, 22.4560166]}, "geometry": {"type": "LineString", "coordinates": [[114.213128, 22.335921], [114.171966, 22.454291]]}}, {"type": "Feature", "properties": {"id": "ghost_ZA2376_20240621142659", "plate_no": "ZA2376", "gap_start_time": "2024-06-21T14:26:59", "gap_end_time": "2024-06-21T18:15:25", "gap_duration_min": 228.43, "wasted_distance_km": 6.331, "prev_trip": "DA240621014311", "next_trip": "DA240621016902", "prev_O": [114.1697459, 22.4560166], "next_O": [114.161175, 22.334132]}, "geometry": {"type": "LineString", "coordinates": [[114.220243, 22.31898], [114.160878, 22.334005]]}}, {"type": "Feature", "properties": {"id": "ghost_ZA3406_20240621083523", "plate_no": "ZA3406", "gap_start_time": "2024-06-21T08:35:23", "gap_end_time": "2024-06-21T14:30:05", "gap_duration_min": 354.7, "wasted_distance_km": 8.043, "prev_trip": "DA240621000611", "next_trip": "DA240621020711", "prev_O": [114.1561, 22.24194], "next_O": [114.2362653, 22.2695993]}, "geometry": {"type": "LineString", "coordinates": [[114.183646, 22.324111], [114.237338, 22.271535]]}}, {"type": "Feature", "properties": {"id": "ghost_ZA6941_20240621064123", "plate_no": "ZA6941", "gap_start_time": "2024-06-21T06:41:23", "gap_end_time": "2024-06-21T07:10:23", "gap_duration_min": 29.0, "wasted_distance_km": 3.719, "prev_trip": "DA240621013801", "next_trip": "DA240621005111", "prev_O": [114.154299, 22.2442015], "next_O": [114.192092, 22.281794]}, "geometry": {"type": "LineString", "coordinates": [[114.176128, 22.251495], [114.19209, 22.281503]]}}, {"type": "Feature", "properties": {"id": "ghost_ZA6941_20240621082323", "plate_no": "ZA6941", "gap_start_time": "2024-06-21T08:23:23", "gap_end_time": "2024-06-21T09:20:28", "gap_duration_min": 57.08, "wasted_distance_km": 8.298, "prev_trip": "DA240621005111", "next_trip": "DA240621034711", "prev_O": [114.192092, 22.281794], "next_O": [114.2012365, 22.2911583]}, "geometry": {"type": "LineString", "coordinates": [[114.124333, 22.271193], [114.201875, 22.291715]]}}, {"type": "Feature", "properties": {"id": "ghost_ZB3917_20240621154223", "plate_no": "ZB3917", "gap_start_time": "2024-06-21T15:42:23", "gap_end_time": "2024-06-21T16:36:03", "gap_duration_min": 53.67, "wasted_distance_km": 13.219, "prev_trip": "DA240621034802", "next_trip": "DA240621013502", "prev_O": [114.1795767, 22.3045633], "next_O": [114.164656, 22.2466407]}, "geometry": {"type": "LineString", "coordinates": [[114.109383, 22.353951], [114.163545, 22.246151]]}}]}