{"type": "FeatureCollection", "features": [{"type": "Feature", "properties": {"id": "ghost_RH3326_20240619080337", "plate_no": "RH3326", "gap_start_time": "2024-06-19T08:03:37", "gap_end_time": "2024-06-19T12:45:32", "gap_duration_min": 281.92, "wasted_distance_km": 4.445, "prev_trip": "DA240619001311", "next_trip": "DA240619037911", "prev_O": [114.1728298, 22.2766709], "next_O": [114.1306512, 22.2705502]}, "geometry": {"type": "LineString", "coordinates": [[114.173003, 22.276591], [114.130323, 22.270435]]}}, {"type": "Feature", "properties": {"id": "ghost_RV3895_20240619104843", "plate_no": "RV3895", "gap_start_time": "2024-06-19T10:48:43", "gap_end_time": "2024-06-19T12:45:01", "gap_duration_min": 116.3, "wasted_distance_km": 0.023, "prev_trip": "DA240619048811", "next_trip": "DA240619048911", "prev_O": [114.2702546, 22.2944817], "next_O": [114.1744736, 22.2785041]}, "geometry": {"type": "LineString", "coordinates": [[114.174266, 22.278171], [114.174081, 22.278281]]}}, {"type": "Feature", "properties": {"id": "ghost_RV3895_20240619130429", "plate_no": "RV3895", "gap_start_time": "2024-06-19T13:04:29", "gap_end_time": "2024-06-19T16:00:02", "gap_duration_min": 175.55, "wasted_distance_km": 9.427, "prev_trip": "DA240619048911", "next_trip": "DA240619025911", "prev_O": [114.1744736, 22.2785041], "next_O": [114.177655, 22.3010111]}, "geometry": {"type": "LineString", "coordinates": [[114.26837, 22.292236], [114.17717, 22.300425]]}}, {"type": "Feature", "properties": {"id": "ghost_RV3895_20240619162410", "plate_no": "RV3895", "gap_start_time": "2024-06-19T16:24:10", "gap_end_time": "2024-06-19T17:30:22", "gap_duration_min": 66.2, "wasted_distance_km": 3.496, "prev_trip": "DA240619025911", "next_trip": "DA240619009902", "prev_O": [114.177655, 22.3010111], "next_O": [114.1234441, 22.2711318]}, "geometry": {"type": "LineString", "coordinates": [[114.14723, 22.249378], [114.12249, 22.270923]]}}, {"type": "Feature", "properties": {"id": "ghost_RV4356_20240619114242", "plate_no": "RV4356", "gap_start_time": "2024-06-19T11:42:42", "gap_end_time": "2024-06-19T16:30:02", "gap_duration_min": 287.33, "wasted_distance_km": 6.989, "prev_trip": "DA240619036002", "next_trip": "DA240619029211", "prev_O": [114.2440086, 22.3214412], "next_O": [114.1628422, 22.2853917]}, "geometry": {"type": "LineString", "coordinates": [[114.226563, 22.304151], [114.161603, 22.285765]]}}, {"type": "Feature", "properties": {"id": "ghost_RX3329_20240619060901", "plate_no": "RX3329", "gap_start_time": "2024-06-19T06:09:01", "gap_end_time": "2024-06-19T11:46:00", "gap_duration_min": 336.98, "wasted_distance_km": 0.376, "prev_trip": "DA240619022601", "next_trip": "DA240619022602", "prev_O": [114.2165038, 22.324664], "next_O": [114.1611671, 22.3341624]}, "geometry": {"type": "LineString", "coordinates": [[114.16273, 22.33348], [114.163101, 22.330113]]}}, {"type": "Feature", "properties": {"id": "ghost_SL9199_20240619105517", "plate_no": "SL9199", "gap_start_time": "2024-06-19T10:55:17", "gap_end_time": "2024-06-19T12:30:02", "gap_duration_min": 94.75, "wasted_distance_km": 7.805, "prev_trip": "DA240619026401", "next_trip": "DA240619021611", "prev_O": [114.1538518, 22.4543277], "next_O": [114.1716857, 22.3301776]}, "geometry": {"type": "LineString", "coordinates": [[114.130495, 22.271106], [114.17195, 22.329891]]}}, {"type": "Feature", "properties": {"id": "ghost_SL9199_20240619130036", "plate_no": "SL9199", "gap_start_time": "2024-06-19T13:00:36", "gap_end_time": "2024-06-19T15:10:01", "gap_duration_min": 129.42, "wasted_distance_km": 2.528, "prev_trip": "DA240619021611", "next_trip": "DA240619007402", "prev_O": [114.1716857, 22.3301776], "next_O": [114.1987643, 22.3804685]}, "geometry": {"type": "LineString", "coordinates": [[114.204181, 22.402516], [114.1989, 22.380315]]}}, {"type": "Feature", "properties": {"id": "ghost_SL9199_20240619153008", "plate_no": "SL9199", "gap_start_time": "2024-06-19T15:30:08", "gap_end_time": "2024-06-19T16:45:03", "gap_duration_min": 74.92, "wasted_distance_km": 0.984, "prev_trip": "DA240619007402", "next_trip": "DA240619011802", "prev_O": [114.1987643, 22.3804685], "next_O": [114.1700846, 22.3760056]}, "geometry": {"type": "LineString", "coordinates": [[114.175416, 22.369023], [114.169721, 22.37614]]}}, {"type": "Feature", "properties": {"id": "ghost_SM453_20240619121647", "plate_no": "SM453", "gap_start_time": "2024-06-19T12:16:47", "gap_end_time": "2024-06-19T14:00:51", "gap_duration_min": 104.07, "wasted_distance_km": 1.27, "prev_trip": "DA240619038211", "next_trip": "DA240619033901", "prev_O": [114.19909, 22.347143], "next_O": [114.1769402, 22.3199573]}, "geometry": {"type": "LineString", "coordinates": [[114.17025, 22.308731], [114.177611, 22.317896]]}}, {"type": "Feature", "properties": {"id": "ghost_TB7382_20240619123710", "plate_no": "TB7382", "gap_start_time": "2024-06-19T12:37:10", "gap_end_time": "2024-06-19T14:15:03", "gap_duration_min": 97.88, "wasted_distance_km": 10.306, "prev_trip": "DA240619025002", "next_trip": "DA240619011201", "prev_O": [114.1257917, 22.2819969], "next_O": [114.2518599, 22.2626752]}, "geometry": {"type": "LineString", "coordinates": [[114.152755, 22.248756], [114.25191, 22.26172]]}}, {"type": "Feature", "properties": {"id": "ghost_TC5012_20240619124108", "plate_no": "TC5012", "gap_start_time": "2024-06-19T12:41:08", "gap_end_time": "2024-06-19T14:05:35", "gap_duration_min": 84.45, "wasted_distance_km": 6.147, "prev_trip": "DA240619038802", "next_trip": "DA240619022001", "prev_O": [114.1743747, 22.3091816], "next_O": [114.2536398, 22.3258021]}, "geometry": {"type": "LineString", "coordinates": [[114.197838, 22.339445], [114.254691, 22.322411]]}}, {"type": "Feature", "properties": {"id": "ghost_TD7860_20240619082958", "plate_no": "TD7860", "gap_start_time": "2024-06-19T08:29:58", "gap_end_time": "2024-06-19T18:00:17", "gap_duration_min": 570.32, "wasted_distance_km": 1.284, "prev_trip": "DA240619012301", "next_trip": "DA240619013902", "prev_O": [114.1819743, 22.3714238], "next_O": [114.1947109, 22.3873746]}, "geometry": {"type": "LineString", "coordinates": [[114.193458, 22.398878], [114.194943, 22.387411]]}}, {"type": "Feature", "properties": {"id": "ghost_TE7832_20240619131719", "plate_no": "TE7832", "gap_start_time": "2024-06-19T13:17:19", "gap_end_time": "2024-06-19T14:30:26", "gap_duration_min": 73.12, "wasted_distance_km": 6.535, "prev_trip": "DA240619021001", "next_trip": "DA240619017102", "prev_O": [114.158056, 22.284377], "next_O": [114.1883778, 22.2783442]}, "geometry": {"type": "LineString", "coordinates": [[114.123663, 22.271001], [114.186615, 22.27875]]}}, {"type": "Feature", "properties": {"id": "ghost_TE7832_20240619144856", "plate_no": "TE7832", "gap_start_time": "2024-06-19T14:48:56", "gap_end_time": "2024-06-19T17:55:58", "gap_duration_min": 187.03, "wasted_distance_km": 10.02, "prev_trip": "DA240619017102", "next_trip": "DA240619012602", "prev_O": [114.1883778, 22.2783442], "next_O": [114.2435956, 22.2730305]}, "geometry": {"type": "LineString", "coordinates": [[114.144681, 22.282691], [114.241606, 22.273941]]}}, {"type": "Feature", "properties": {"id": "ghost_TF2479_20240619064612", "plate_no": "TF2479", "gap_start_time": "2024-06-19T06:46:12", "gap_end_time": "2024-06-19T08:00:22", "gap_duration_min": 74.17, "wasted_distance_km": 9.535, "prev_trip": "DA240619035201", "next_trip": "DA240619003111", "prev_O": [114.2395037, 22.2679627], "next_O": [114.2365271, 22.2631632]}, "geometry": {"type": "LineString", "coordinates": [[114.147791, 22.288011], [114.236555, 22.263396]]}}, {"type": "Feature", "properties": {"id": "ghost_TV9732_20240619101452", "plate_no": "TV9732", "gap_start_time": "2024-06-19T10:14:52", "gap_end_time": "2024-06-19T11:30:14", "gap_duration_min": 75.37, "wasted_distance_km": 0.006, "prev_trip": "DA240619008701", "next_trip": "DA240619008702", "prev_O": [114.1671831, 22.3332506], "next_O": [114.1853645, 22.377122]}, "geometry": {"type": "LineString", "coordinates": [[114.185791, 22.377511], [114.185806, 22.377456]]}}, {"type": "Feature", "properties": {"id": "ghost_TW274_20240619094937", "plate_no": "TW274", "gap_start_time": "2024-06-19T09:49:37", "gap_end_time": "2024-06-19T11:20:12", "gap_duration_min": 90.58, "wasted_distance_km": 8.786, "prev_trip": "DA240619020801", "next_trip": "DA240619049401", "prev_O": [114.1430877, 22.2850022], "next_O": [114.254441, 22.3015685]}, "geometry": {"type": "LineString", "coordinates": [[114.168815, 22.302965], [114.254181, 22.301135], [114.25417, 22.30113]]}}, {"type": "Feature", "properties": {"id": "ghost_TW274_20240619114212", "plate_no": "TW274", "gap_start_time": "2024-06-19T11:42:12", "gap_end_time": "2024-06-19T14:00:54", "gap_duration_min": 138.7, "wasted_distance_km": 1.331, "prev_trip": "DA240619049401", "next_trip": "DA240619024201", "prev_O": [114.254441, 22.3015685], "next_O": [114.1866201, 22.3146669]}, "geometry": {"type": "LineString", "coordinates": [[114.177863, 22.305973], [114.186708, 22.314711]]}}, {"type": "Feature", "properties": {"id": "ghost_TW6581_20240619101302", "plate_no": "TW6581", "gap_start_time": "2024-06-19T10:13:02", "gap_end_time": "2024-06-19T12:30:10", "gap_duration_min": 137.13, "wasted_distance_km": 5.882, "prev_trip": "DA240619020901", "next_trip": "DA240619032911", "prev_O": [114.1405447, 22.3380233], "next_O": [114.21284, 22.335789]}, "geometry": {"type": "LineString", "coordinates": [[114.158966, 22.329838], [114.21594, 22.334366]]}}, {"type": "Feature", "properties": {"id": "ghost_TW6581_20240619124240", "plate_no": "TW6581", "gap_start_time": "2024-06-19T12:42:40", "gap_end_time": "2024-06-19T14:21:06", "gap_duration_min": 98.43, "wasted_distance_km": 0.626, "prev_trip": "DA240619032911", "next_trip": "DA240619033011", "prev_O": [114.21284, 22.335789], "next_O": [114.1460719, 22.3374482]}, "geometry": {"type": "LineString", "coordinates": [[114.144433, 22.338275], [114.14998, 22.335961]]}}, {"type": "Feature", "properties": {"id": "ghost_TW7410_20240619122300", "plate_no": "TW7410", "gap_start_time": "2024-06-19T12:23:00", "gap_end_time": "2024-06-19T13:00:23", "gap_duration_min": 37.38, "wasted_distance_km": 0.689, "prev_trip": "DA240619041601", "next_trip": "DA240619007211", "prev_O": [114.1555007, 22.3388928], "next_O": [114.2268133, 22.3191117]}, "geometry": {"type": "LineString", "coordinates": [[114.229251, 22.312375], [114.22722, 22.318278]]}}, {"type": "Feature", "properties": {"id": "ghost_TW7410_20240619133323", "plate_no": "TW7410", "gap_start_time": "2024-06-19T13:33:23", "gap_end_time": "2024-06-19T16:45:29", "gap_duration_min": 192.1, "wasted_distance_km": 0.116, "prev_trip": "DA240619007211", "next_trip": "DA240619007311", "prev_O": [114.2268133, 22.3191117], "next_O": [114.2182917, 22.3260159]}, "geometry": {"type": "LineString", "coordinates": [[114.216498, 22.322563], [114.216898, 22.32354]]}}, {"type": "Feature", "properties": {"id": "ghost_TX9739_20240619112630", "plate_no": "TX9739", "gap_start_time": "2024-06-19T11:26:30", "gap_end_time": "2024-06-19T14:00:04", "gap_duration_min": 153.57, "wasted_distance_km": 33.244, "prev_trip": "DA240619052001", "next_trip": "DA240619015601", "prev_O": [114.1026843, 22.356017], "next_O": [114.2253605, 22.4230226]}, "geometry": {"type": "LineString", "coordinates": [[113.940605, 22.281496], [114.225701, 22.422426]]}}, {"type": "Feature", "properties": {"id": "ghost_TX9739_20240619142010", "plate_no": "TX9739", "gap_start_time": "2024-06-19T14:20:10", "gap_end_time": "2024-06-19T15:00:21", "gap_duration_min": 40.18, "wasted_distance_km": 0.644, "prev_trip": "DA240619015601", "next_trip": "DA240619007502", "prev_O": [114.2253605, 22.4230226], "next_O": [114.1987643, 22.3804685]}, "geometry": {"type": "LineString", "coordinates": [[114.205101, 22.379146], [114.198976, 22.380341]]}}, {"type": "Feature", "properties": {"id": "ghost_TX9769_20240619124925", "plate_no": "TX9769", "gap_start_time": "2024-06-19T12:49:25", "gap_end_time": "2024-06-19T14:10:12", "gap_duration_min": 80.78, "wasted_distance_km": 8.075, "prev_trip": "DA240619013301", "next_trip": "DA240619045501", "prev_O": [114.186342, 22.317778], "next_O": [114.26277, 22.308295]}, "geometry": {"type": "LineString", "coordinates": [[114.184985, 22.324765], [114.261495, 22.308528]]}}, {"type": "Feature", "properties": {"id": "ghost_TY3130_20240619114554", "plate_no": "TY3130", "gap_start_time": "2024-06-19T11:45:54", "gap_end_time": "2024-06-19T15:32:17", "gap_duration_min": 226.38, "wasted_distance_km": 5.523, "prev_trip": "DA240619007702", "next_trip": "DA240619045701", "prev_O": [114.1237538, 22.2702094], "next_O": [114.1936083, 22.2740512]}, "geometry": {"type": "LineString", "coordinates": [[114.146318, 22.243418], [114.19132, 22.270473]]}}, {"type": "Feature", "properties": {"id": "ghost_TY3130_20240619154117", "plate_no": "TY3130", "gap_start_time": "2024-06-19T15:41:17", "gap_end_time": "2024-06-19T16:15:08", "gap_duration_min": 33.85, "wasted_distance_km": 3.558, "prev_trip": "DA240619045701", "next_trip": "DA240619028002", "prev_O": [114.1936083, 22.2740512], "next_O": [114.1466568, 22.2850671]}, "geometry": {"type": "LineString", "coordinates": [[114.179923, 22.274755], [114.147268, 22.285271]]}}, {"type": "Feature", "properties": {"id": "ghost_UL3556_20240619091800", "plate_no": "UL3556", "gap_start_time": "2024-06-19T09:18:00", "gap_end_time": "2024-06-19T10:00:13", "gap_duration_min": 42.22, "wasted_distance_km": 3.678, "prev_trip": "DA240619024111", "next_trip": "DA240619052501", "prev_O": [114.1501361, 22.244705], "next_O": [114.2541271, 22.3241653]}, "geometry": {"type": "LineString", "coordinates": [[114.224111, 22.306406], [114.254123, 22.324386]]}}, {"type": "Feature", "properties": {"id": "ghost_UL3556_20240619103743", "plate_no": "UL3556", "gap_start_time": "2024-06-19T10:37:43", "gap_end_time": "2024-06-19T12:15:26", "gap_duration_min": 97.72, "wasted_distance_km": 5.768, "prev_trip": "DA240619052501", "next_trip": "DA240619029511", "prev_O": [114.2541271, 22.3241653], "next_O": [114.2301021, 22.3077205]}, "geometry": {"type": "LineString", "coordinates": [[114.17452, 22.30697], [114.230575, 22.30819]]}}, {"type": "Feature", "properties": {"id": "ghost_UL4469_20240619082049", "plate_no": "UL4469", "gap_start_time": "2024-06-19T08:20:49", "gap_end_time": "2024-06-19T08:45:17", "gap_duration_min": 24.47, "wasted_distance_km": 1.235, "prev_trip": "DA240619043001", "next_trip": "DA240619011701", "prev_O": [114.1267882, 22.494909], "next_O": [114.137108, 22.5004969]}, "geometry": {"type": "LineString", "coordinates": [[114.125143, 22.496636], [114.136846, 22.499166]]}}, {"type": "Feature", "properties": {"id": "ghost_UL6685_20240619101334", "plate_no": "UL6685", "gap_start_time": "2024-06-19T10:13:34", "gap_end_time": "2024-06-19T16:45:34", "gap_duration_min": 392.0, "wasted_distance_km": 3.397, "prev_trip": "DA240619010901", "next_trip": "DA240619022002", "prev_O": [114.2066781, 22.3301172], "next_O": [114.2009991, 22.289963]}, "geometry": {"type": "LineString", "coordinates": [[114.176316, 22.311351], [114.201598, 22.291698]]}}, {"type": "Feature", "properties": {"id": "ghost_UL7804_20240619105433", "plate_no": "UL7804", "gap_start_time": "2024-06-19T10:54:33", "gap_end_time": "2024-06-19T16:30:03", "gap_duration_min": 335.5, "wasted_distance_km": 24.735, "prev_trip": "DA240619028601", "next_trip": "DA240619013402", "prev_O": [114.1675766, 22.3389067], "next_O": [113.9730133, 22.4090091]}, "geometry": {"type": "LineString", "coordinates": [[114.203463, 22.340313], [113.974318, 22.408026]]}}, {"type": "Feature", "properties": {"id": "ghost_UM4207_20240619121103", "plate_no": "UM4207", "gap_start_time": "2024-06-19T12:11:03", "gap_end_time": "2024-06-19T13:45:02", "gap_duration_min": 93.98, "wasted_distance_km": 10.914, "prev_trip": "DA240619017802", "next_trip": "DA240619038002", "prev_O": [114.1722412, 22.3144134], "next_O": [114.2262136, 22.3109722]}, "geometry": {"type": "LineString", "coordinates": [[114.136105, 22.362251], [114.226233, 22.310448]]}}, {"type": "Feature", "properties": {"id": "ghost_UM5134_20240619112743", "plate_no": "UM5134", "gap_start_time": "2024-06-19T11:27:43", "gap_end_time": "2024-06-19T13:00:20", "gap_duration_min": 92.62, "wasted_distance_km": 0.43, "prev_trip": "DA240619039011", "next_trip": "DA240619052311", "prev_O": [114.2162716, 22.325616], "next_O": [114.1681204, 22.4501205]}, "geometry": {"type": "LineString", "coordinates": [[114.171776, 22.44828], [114.167751, 22.44933]]}}, {"type": "Feature", "properties": {"id": "ghost_UN9790_20240619084012", "plate_no": "UN9790", "gap_start_time": "2024-06-19T08:40:12", "gap_end_time": "2024-06-19T09:30:46", "gap_duration_min": 50.57, "wasted_distance_km": 15.052, "prev_trip": "DA240619043711", "next_trip": "DA240619046402", "prev_O": [114.0954879, 22.3558453], "next_O": [114.0418049, 22.4452337]}, "geometry": {"type": "LineString", "coordinates": [[114.134655, 22.340805], [114.041411, 22.445165]]}}, {"type": "Feature", "properties": {"id": "ghost_UN9790_20240619094617", "plate_no": "UN9790", "gap_start_time": "2024-06-19T09:46:17", "gap_end_time": "2024-06-19T13:30:18", "gap_duration_min": 224.02, "wasted_distance_km": 14.971, "prev_trip": "DA240619046402", "next_trip": "DA240619025401", "prev_O": [114.0418049, 22.4452337], "next_O": [114.1241903, 22.3753206]}, "geometry": {"type": "LineString", "coordinates": [[114.005698, 22.45368], [114.123861, 22.374976]]}}, {"type": "Feature", "properties": {"id": "ghost_UP3870_20240619081113", "plate_no": "UP3870", "gap_start_time": "2024-06-19T08:11:13", "gap_end_time": "2024-06-19T16:45:18", "gap_duration_min": 514.08, "wasted_distance_km": 6.412, "prev_trip": "DA240619009201", "next_trip": "DA240619042602", "prev_O": [114.1774824, 22.3777672], "next_O": [114.171656, 22.33014]}, "geometry": {"type": "LineString", "coordinates": [[114.193741, 22.384981], [114.171403, 22.33114]]}}, {"type": "Feature", "properties": {"id": "ghost_UP4016_20240619084504", "plate_no": "UP4016", "gap_start_time": "2024-06-19T08:45:04", "gap_end_time": "2024-06-19T09:20:12", "gap_duration_min": 35.13, "wasted_distance_km": 2.833, "prev_trip": "DA240619000811", "next_trip": "DA240619019901", "prev_O": [114.217242, 22.322492], "next_O": [114.1572889, 22.3192735]}, "geometry": {"type": "LineString", "coordinates": [[114.184168, 22.324121], [114.157105, 22.319393]]}}, {"type": "Feature", "properties": {"id": "ghost_UP6949_20240619104249", "plate_no": "UP6949", "gap_start_time": "2024-06-19T10:42:49", "gap_end_time": "2024-06-19T13:15:10", "gap_duration_min": 152.35, "wasted_distance_km": 0.003, "prev_trip": "DA240619032701", "next_trip": "DA240619032702", "prev_O": [114.1917274, 22.3748517], "next_O": [114.171686, 22.330178]}, "geometry": {"type": "LineString", "coordinates": [[114.171888, 22.330415], [114.171861, 22.330406]]}}, {"type": "Feature", "properties": {"id": "ghost_UP7636_20240619111206", "plate_no": "UP7636", "gap_start_time": "2024-06-19T11:12:06", "gap_end_time": "2024-06-19T16:00:44", "gap_duration_min": 288.63, "wasted_distance_km": 6.25, "prev_trip": "DA240619039301", "next_trip": "DA240619031202", "prev_O": [114.1943978, 22.401522], "next_O": [114.2303424, 22.3079333]}, "geometry": {"type": "LineString", "coordinates": [[114.18021, 22.339531], [114.230581, 22.308096]]}}, {"type": "Feature", "properties": {"id": "ghost_UP7636_20240619162118", "plate_no": "UP7636", "gap_start_time": "2024-06-19T16:21:18", "gap_end_time": "2024-06-19T17:16:48", "gap_duration_min": 55.5, "wasted_distance_km": 8.403, "prev_trip": "DA240619031202", "next_trip": "DA240619047501", "prev_O": [114.2303424, 22.3079333], "next_O": [114.1840341, 22.3143041]}, "geometry": {"type": "LineString", "coordinates": [[114.263891, 22.316088], [114.182248, 22.313646]]}}, {"type": "Feature", "properties": {"id": "ghost_UR468_20240619123649", "plate_no": "UR468", "gap_start_time": "2024-06-19T12:36:49", "gap_end_time": "2024-06-19T13:50:19", "gap_duration_min": 73.5, "wasted_distance_km": 0.131, "prev_trip": "DA240619033311", "next_trip": "DA240619033411", "prev_O": [114.1613761, 22.3200828], "next_O": [114.2009229, 22.2896155]}, "geometry": {"type": "LineString", "coordinates": [[114.199225, 22.292093], [114.199491, 22.290938]]}}, {"type": "Feature", "properties": {"id": "ghost_UR468_20240619140448", "plate_no": "UR468", "gap_start_time": "2024-06-19T14:04:48", "gap_end_time": "2024-06-19T15:25:24", "gap_duration_min": 80.6, "wasted_distance_km": 2.476, "prev_trip": "DA240619033411", "next_trip": "DA240619013302", "prev_O": [114.2009229, 22.2896155], "next_O": [114.1832816, 22.3250389]}, "geometry": {"type": "LineString", "coordinates": [[114.159008, 22.322928], [114.18301, 22.324656]]}}, {"type": "Feature", "properties": {"id": "ghost_UR468_20240619153354", "plate_no": "UR468", "gap_start_time": "2024-06-19T15:33:54", "gap_end_time": "2024-06-19T17:00:17", "gap_duration_min": 86.38, "wasted_distance_km": 4.909, "prev_trip": "DA240619013302", "next_trip": "DA240619006011", "prev_O": [114.1832816, 22.3250389], "next_O": [114.2303424, 22.3079333]}, "geometry": {"type": "LineString", "coordinates": [[114.185083, 22.321261], [114.230645, 22.308136]]}}, {"type": "Feature", "properties": {"id": "ghost_VA7986_20240619121851", "plate_no": "VA7986", "gap_start_time": "2024-06-19T12:18:51", "gap_end_time": "2024-06-19T13:33:55", "gap_duration_min": 75.07, "wasted_distance_km": 2.96, "prev_trip": "DA240619050201", "next_trip": "DA240619030502", "prev_O": [114.2025948, 22.3300654], "next_O": [114.1743747, 22.3091816]}, "geometry": {"type": "LineString", "coordinates": [[114.163101, 22.333183], [114.175275, 22.309061]]}}, {"type": "Feature", "properties": {"id": "ghost_VD1562_20240619080618", "plate_no": "VD1562", "gap_start_time": "2024-06-19T08:06:18", "gap_end_time": "2024-06-19T13:00:09", "gap_duration_min": 293.85, "wasted_distance_km": 11.01, "prev_trip": "DA240619031801", "next_trip": "DA240619026701", "prev_O": [114.113115, 22.369607], "next_O": [114.2159, 22.3330845]}, "geometry": {"type": "LineString", "coordinates": [[114.11546, 22.367828], [114.215548, 22.332675]]}}, {"type": "Feature", "properties": {"id": "ghost_VD1562_20240619131441", "plate_no": "VD1562", "gap_start_time": "2024-06-19T13:14:41", "gap_end_time": "2024-06-19T17:15:11", "gap_duration_min": 240.5, "wasted_distance_km": 3.241, "prev_trip": "DA240619026701", "next_trip": "DA240619027802", "prev_O": [114.2159, 22.3330845], "next_O": [114.1762153, 22.3188841]}, "geometry": {"type": "LineString", "coordinates": [[114.208493, 22.320208], [114.176998, 22.319366]]}}, {"type": "Feature", "properties": {"id": "ghost_VD1562_20240619172841", "plate_no": "VD1562", "gap_start_time": "2024-06-19T17:28:41", "gap_end_time": "2024-06-19T18:30:29", "gap_duration_min": 61.8, "wasted_distance_km": 4.454, "prev_trip": "DA240619027802", "next_trip": "DA240619011111", "prev_O": [114.1762153, 22.3188841], "next_O": [114.184829, 22.3262591]}, "geometry": {"type": "LineString", "coordinates": [[114.14269, 22.336538], [114.18435, 22.325623]]}}, {"type": "Feature", "properties": {"id": "ghost_VD1810_20240619094712", "plate_no": "VD1810", "gap_start_time": "2024-06-19T09:47:12", "gap_end_time": "2024-06-19T12:30:18", "gap_duration_min": 163.1, "wasted_distance_km": 5.263, "prev_trip": "DA240619031201", "next_trip": "DA240619037301", "prev_O": [114.2642247, 22.3155765], "next_O": [114.1772603, 22.3129427]}, "geometry": {"type": "LineString", "coordinates": [[114.228223, 22.306048], [114.177553, 22.3126]]}}, {"type": "Feature", "properties": {"id": "ghost_VD1810_20240619124617", "plate_no": "VD1810", "gap_start_time": "2024-06-19T12:46:17", "gap_end_time": "2024-06-19T14:15:16", "gap_duration_min": 88.98, "wasted_distance_km": 3.333, "prev_trip": "DA240619037301", "next_trip": "DA240619036911", "prev_O": [114.1772603, 22.3129427], "next_O": [114.2029663, 22.3297452]}, "geometry": {"type": "LineString", "coordinates": [[114.175641, 22.31335], [114.203091, 22.329275]]}}, {"type": "Feature", "properties": {"id": "ghost_VD1810_20240619143916", "plate_no": "VD1810", "gap_start_time": "2024-06-19T14:39:16", "gap_end_time": "2024-06-19T16:40:08", "gap_duration_min": 120.87, "wasted_distance_km": 3.853, "prev_trip": "DA240619036911", "next_trip": "DA240619031902", "prev_O": [114.2029663, 22.3297452], "next_O": [114.2113817, 22.4136093]}, "geometry": {"type": "LineString", "coordinates": [[114.204901, 22.379065], [114.211451, 22.413183]]}}, {"type": "Feature", "properties": {"id": "ghost_VD768_20240619122948", "plate_no": "VD768", "gap_start_time": "2024-06-19T12:29:48", "gap_end_time": "2024-06-19T13:00:18", "gap_duration_min": 30.5, "wasted_distance_km": 5.849, "prev_trip": "DA240619049001", "next_trip": "DA240619017311", "prev_O": [114.193556, 22.341382], "next_O": [114.2381695, 22.3072254]}, "geometry": {"type": "LineString", "coordinates": [[114.199328, 22.345483], [114.238265, 22.307148]]}}, {"type": "Feature", "properties": {"id": "ghost_VE7751_20240619133450", "plate_no": "VE7751", "gap_start_time": "2024-06-19T13:34:50", "gap_end_time": "2024-06-19T20:00:02", "gap_duration_min": 385.2, "wasted_distance_km": 8.657, "prev_trip": "DA240619023901", "next_trip": "DA240619041011", "prev_O": [114.186744, 22.375414], "next_O": [114.2020238, 22.3946617]}, "geometry": {"type": "LineString", "coordinates": [[114.17816, 22.317571], [114.200375, 22.392666]]}}, {"type": "Feature", "properties": {"id": "ghost_VV6972_20240619145845", "plate_no": "VV6972", "gap_start_time": "2024-06-19T14:58:45", "gap_end_time": "2024-06-19T16:52:13", "gap_duration_min": 113.47, "wasted_distance_km": 7.047, "prev_trip": "DA240619030202", "next_trip": "DA240619024902", "prev_O": [114.1882145, 22.2784689], "next_O": [114.1716857, 22.3301776]}, "geometry": {"type": "LineString", "coordinates": [[114.24004, 22.337276], [114.171931, 22.330416]]}}, {"type": "Feature", "properties": {"id": "ghost_VV7298_20240619111139", "plate_no": "VV7298", "gap_start_time": "2024-06-19T11:11:39", "gap_end_time": "2024-06-19T13:45:08", "gap_duration_min": 153.48, "wasted_distance_km": 9.04, "prev_trip": "DA240619007601", "next_trip": "DA240619034801", "prev_O": [114.1237538, 22.2702094], "next_O": [114.2204772, 22.287643]}, "geometry": {"type": "LineString", "coordinates": [[114.146386, 22.243571], [114.22049, 22.287241]]}}, {"type": "Feature", "properties": {"id": "ghost_VV7298_20240619140238", "plate_no": "VV7298", "gap_start_time": "2024-06-19T14:02:38", "gap_end_time": "2024-06-19T15:45:22", "gap_duration_min": 102.73, "wasted_distance_km": 4.784, "prev_trip": "DA240619034801", "next_trip": "DA240619006902", "prev_O": [114.2204772, 22.287643], "next_O": [114.2253505, 22.2821867]}, "geometry": {"type": "LineString", "coordinates": [[114.179903, 22.274613], [114.225768, 22.281683]]}}, {"type": "Feature", "properties": {"id": "ghost_VV7298_20240619155350", "plate_no": "VV7298", "gap_start_time": "2024-06-19T15:53:50", "gap_end_time": "2024-06-19T16:40:08", "gap_duration_min": 46.3, "wasted_distance_km": 10.003, "prev_trip": "DA240619006902", "next_trip": "DA240619012502", "prev_O": [114.2253505, 22.2821867], "next_O": [114.1309546, 22.2711238]}, "geometry": {"type": "LineString", "coordinates": [[114.22782, 22.279665], [114.131101, 22.270633]]}}, {"type": "Feature", "properties": {"id": "ghost_VW3473_20240619105239", "plate_no": "VW3473", "gap_start_time": "2024-06-19T10:52:39", "gap_end_time": "2024-06-19T12:00:11", "gap_duration_min": 67.53, "wasted_distance_km": 15.737, "prev_trip": "DA240619030901", "next_trip": "DA240619039202", "prev_O": [114.1203858, 22.3670155], "next_O": [114.1743747, 22.3091816]}, "geometry": {"type": "LineString", "coordinates": [[114.167848, 22.451021], [114.175233, 22.309658]]}}, {"type": "Feature", "properties": {"id": "ghost_VW5222_20240619092828", "plate_no": "VW5222", "gap_start_time": "2024-06-19T09:28:28", "gap_end_time": "2024-06-19T12:45:22", "gap_duration_min": 196.9, "wasted_distance_km": 0.631, "prev_trip": "DA240619029311", "next_trip": "DA240619008111", "prev_O": [114.2640324, 22.3147268], "next_O": [114.2286722, 22.3119194]}, "geometry": {"type": "LineString", "coordinates": [[114.228138, 22.306005], [114.228836, 22.311641]]}}, {"type": "Feature", "properties": {"id": "ghost_VW871_20240619131053", "plate_no": "VW871", "gap_start_time": "2024-06-19T13:10:53", "gap_end_time": "2024-06-19T16:00:00", "gap_duration_min": 169.12, "wasted_distance_km": 0.388, "prev_trip": "DA240619006301", "next_trip": "DA240619006302", "prev_O": [113.999307, 22.455146], "next_O": [113.9649146, 22.3748696]}, "geometry": {"type": "LineString", "coordinates": [[113.961383, 22.375143], [113.965156, 22.375071]]}}, {"type": "Feature", "properties": {"id": "ghost_VX2887_20240619115151", "plate_no": "VX2887", "gap_start_time": "2024-06-19T11:51:51", "gap_end_time": "2024-06-19T12:45:29", "gap_duration_min": 53.63, "wasted_distance_km": 7.569, "prev_trip": "DA240619027301", "next_trip": "DA240619032211", "prev_O": [114.2356571, 22.3071891], "next_O": [114.230334, 22.307947]}, "geometry": {"type": "LineString", "coordinates": [[114.160428, 22.334441], [114.228235, 22.308013]]}}, {"type": "Feature", "properties": {"id": "ghost_VX2887_20240619125819", "plate_no": "VX2887", "gap_start_time": "2024-06-19T12:58:19", "gap_end_time": "2024-06-19T15:00:20", "gap_duration_min": 122.02, "wasted_distance_km": 13.248, "prev_trip": "DA240619032211", "next_trip": "DA240619034202", "prev_O": [114.230334, 22.307947], "next_O": [114.1266854, 22.3621829]}, "geometry": {"type": "LineString", "coordinates": [[114.248685, 22.323763], [114.126745, 22.362153]]}}, {"type": "Feature", "properties": {"id": "ghost_VX3591_20240619142901", "plate_no": "VX3591", "gap_start_time": "2024-06-19T14:29:01", "gap_end_time": "2024-06-19T16:00:25", "gap_duration_min": 91.4, "wasted_distance_km": 12.666, "prev_trip": "DA240619026402", "next_trip": "DA240619025402", "prev_O": [114.1306512, 22.2705502], "next_O": [114.13489, 22.341561]}, "geometry": {"type": "LineString", "coordinates": [[114.15399, 22.453843], [114.134145, 22.341421]]}}, {"type": "Feature", "properties": {"id": "ghost_VY5967_20240619082019", "plate_no": "VY5967", "gap_start_time": "2024-06-19T08:20:19", "gap_end_time": "2024-06-19T09:22:46", "gap_duration_min": 62.45, "wasted_distance_km": 0.617, "prev_trip": "DA240619011601", "next_trip": "DA240619002011", "prev_O": [114.1414736, 22.3728484], "next_O": [114.1236864, 22.362922]}, "geometry": {"type": "LineString", "coordinates": [[114.12277, 22.36898], [114.12742, 22.365478]]}}, {"type": "Feature", "properties": {"id": "ghost_VY5967_20240619093917", "plate_no": "VY5967", "gap_start_time": "2024-06-19T09:39:17", "gap_end_time": "2024-06-19T15:45:21", "gap_duration_min": 366.07, "wasted_distance_km": 10.309, "prev_trip": "DA240619002011", "next_trip": "DA240619010202", "prev_O": [114.1236864, 22.362922], "next_O": [114.1754722, 22.4530181]}, "geometry": {"type": "LineString", "coordinates": [[114.121428, 22.373966], [114.175261, 22.452193]]}}, {"type": "Feature", "properties": {"id": "ghost_VY8279_20240619101826", "plate_no": "VY8279", "gap_start_time": "2024-06-19T10:18:26", "gap_end_time": "2024-06-19T13:57:01", "gap_duration_min": 218.58, "wasted_distance_km": 3.476, "prev_trip": "DA240619046011", "next_trip": "DA240619048611", "prev_O": [114.234206, 22.3071441], "next_O": [114.1987885, 22.3331157]}, "geometry": {"type": "LineString", "coordinates": [[114.231586, 22.326285], [114.198503, 22.332673]]}}, {"type": "Feature", "properties": {"id": "ghost_WN8723_20240619102348", "plate_no": "WN8723", "gap_start_time": "2024-06-19T10:23:48", "gap_end_time": "2024-06-19T12:30:14", "gap_duration_min": 126.43, "wasted_distance_km": 0.304, "prev_trip": "DA240619008801", "next_trip": "DA240619008802", "prev_O": [114.2323983, 22.3121832], "next_O": [114.2288811, 22.3117774]}, "geometry": {"type": "LineString", "coordinates": [[114.229708, 22.314446], [114.229213, 22.311753]]}}, {"type": "Feature", "properties": {"id": "ghost_WN8723_20240619124044", "plate_no": "WN8723", "gap_start_time": "2024-06-19T12:40:44", "gap_end_time": "2024-06-19T16:10:18", "gap_duration_min": 209.57, "wasted_distance_km": 2.5, "prev_trip": "DA240619008802", "next_trip": "DA240619029911", "prev_O": [114.2288811, 22.3117774], "next_O": [114.2077498, 22.3227562]}, "geometry": {"type": "LineString", "coordinates": [[114.229976, 22.313311], [114.208108, 22.323118]]}}, {"type": "Feature", "properties": {"id": "ghost_WP1681_20240619105722", "plate_no": "WP1681", "gap_start_time": "2024-06-19T10:57:22", "gap_end_time": "2024-06-19T13:00:43", "gap_duration_min": 123.35, "wasted_distance_km": 17.309, "prev_trip": "DA240619041301", "next_trip": "DA240619031311", "prev_O": [114.2635572, 22.3089111], "next_O": [114.196624, 22.376603]}, "geometry": {"type": "LineString", "coordinates": [[114.15816, 22.528273], [114.196643, 22.376725]]}}, {"type": "Feature", "properties": {"id": "ghost_WP3825_20240619095902", "plate_no": "WP3825", "gap_start_time": "2024-06-19T09:59:02", "gap_end_time": "2024-06-19T13:26:37", "gap_duration_min": 207.58, "wasted_distance_km": 8.131, "prev_trip": "DA240619026101", "next_trip": "DA240619015911", "prev_O": [114.1928652, 22.3363755], "next_O": [114.2536398, 22.3258021]}, "geometry": {"type": "LineString", "coordinates": [[114.176563, 22.31809], [114.255041, 22.326873]]}}, {"type": "Feature", "properties": {"id": "ghost_WP3890_20240619124143", "plate_no": "WP3890", "gap_start_time": "2024-06-19T12:41:43", "gap_end_time": "2024-06-19T14:00:03", "gap_duration_min": 78.33, "wasted_distance_km": 17.134, "prev_trip": "DA240619040102", "next_trip": "DA240619031611", "prev_O": [114.2667855, 22.3075063], "next_O": [114.171104, 22.45177]}, "geometry": {"type": "LineString", "coordinates": [[114.26097, 22.322456], [114.171453, 22.452428]]}}, {"type": "Feature", "properties": {"id": "ghost_WP3895_20240619062546", "plate_no": "WP3895", "gap_start_time": "2024-06-19T06:25:46", "gap_end_time": "2024-06-19T07:15:16", "gap_duration_min": 49.5, "wasted_distance_km": 3.223, "prev_trip": "DA240619016401", "next_trip": "DA240619000701", "prev_O": [114.227417, 22.3259462], "next_O": [114.2004947, 22.2912707]}, "geometry": {"type": "LineString", "coordinates": [[114.175033, 22.309128], [114.199406, 22.29092]]}}, {"type": "Feature", "properties": {"id": "ghost_WP3895_20240619083446", "plate_no": "WP3895", "gap_start_time": "2024-06-19T08:34:46", "gap_end_time": "2024-06-19T09:20:07", "gap_duration_min": 45.35, "wasted_distance_km": 4.681, "prev_trip": "DA240619000701", "next_trip": "DA240619012011", "prev_O": [114.2004947, 22.2912707], "next_O": [114.1411034, 22.3352791]}, "geometry": {"type": "LineString", "coordinates": [[114.181451, 22.323028], [114.13824, 22.336236]]}}, {"type": "Feature", "properties": {"id": "ghost_WP923_20240619084339", "plate_no": "WP923", "gap_start_time": "2024-06-19T08:43:39", "gap_end_time": "2024-06-19T09:55:10", "gap_duration_min": 71.52, "wasted_distance_km": 2.543, "prev_trip": "DA240619007501", "next_trip": "DA240619021511", "prev_O": [114.23134, 22.42554], "next_O": [114.2028038, 22.4017167]}, "geometry": {"type": "LineString", "coordinates": [[114.197253, 22.379823], [114.202781, 22.40211]]}}, {"type": "Feature", "properties": {"id": "ghost_WP923_20240619103011", "plate_no": "WP923", "gap_start_time": "2024-06-19T10:30:11", "gap_end_time": "2024-06-19T13:30:27", "gap_duration_min": 180.27, "wasted_distance_km": 5.829, "prev_trip": "DA240619021511", "next_trip": "DA240619033801", "prev_O": [114.2028038, 22.4017167], "next_O": [114.1283752, 22.3593896]}, "geometry": {"type": "LineString", "coordinates": [[114.172491, 22.326646], [114.128381, 22.359563]]}}, {"type": "Feature", "properties": {"id": "ghost_XE1886_20240619102635", "plate_no": "XE1886", "gap_start_time": "2024-06-19T10:26:35", "gap_end_time": "2024-06-19T12:15:05", "gap_duration_min": 108.5, "wasted_distance_km": 0.299, "prev_trip": "DA240619021911", "next_trip": "DA240619022111", "prev_O": [114.156454, 22.3349727], "next_O": [114.1539782, 22.2813602]}, "geometry": {"type": "LineString", "coordinates": [[114.151951, 22.283711], [114.15426, 22.28208]]}}, {"type": "Feature", "properties": {"id": "ghost_XE1886_20240619123905", "plate_no": "XE1886", "gap_start_time": "2024-06-19T12:39:05", "gap_end_time": "2024-06-19T14:45:21", "gap_duration_min": 126.27, "wasted_distance_km": 0.287, "prev_trip": "DA240619022111", "next_trip": "DA240619022211", "prev_O": [114.1539782, 22.2813602], "next_O": [114.172755, 22.3007132]}, "geometry": {"type": "LineString", "coordinates": [[114.173508, 22.3033], [114.173545, 22.300716]]}}, {"type": "Feature", "properties": {"id": "ghost_XE1886_20240619151821", "plate_no": "XE1886", "gap_start_time": "2024-06-19T15:18:21", "gap_end_time": "2024-06-19T16:15:21", "gap_duration_min": 57.0, "wasted_distance_km": 5.649, "prev_trip": "DA240619022211", "next_trip": "DA240619012811", "prev_O": [114.172755, 22.3007132], "next_O": [114.1853645, 22.377122]}, "geometry": {"type": "LineString", "coordinates": [[114.156305, 22.33467], [114.18578, 22.377538]]}}, {"type": "Feature", "properties": {"id": "ghost_XE612_20240619111502", "plate_no": "XE612", "gap_start_time": "2024-06-19T11:15:02", "gap_end_time": "2024-06-19T16:30:06", "gap_duration_min": 315.07, "wasted_distance_km": 4.216, "prev_trip": "DA240619014601", "next_trip": "DA240619043502", "prev_O": [114.1926114, 22.3085362], "next_O": [114.207831, 22.32266]}, "geometry": {"type": "LineString", "coordinates": [[114.16897, 22.307925], [114.206088, 22.323998]]}}, {"type": "Feature", "properties": {"id": "ghost_XE7168_20240619093611", "plate_no": "XE7168", "gap_start_time": "2024-06-19T09:36:11", "gap_end_time": "2024-06-19T13:32:00", "gap_duration_min": 235.82, "wasted_distance_km": 0.347, "prev_trip": "DA240619010701", "next_trip": "DA240619026602", "prev_O": [114.1565225, 22.3342843], "next_O": [114.1803607, 22.2792834]}, "geometry": {"type": "LineString", "coordinates": [[114.174016, 22.28012], [114.176128, 22.277686]]}}, {"type": "Feature", "properties": {"id": "ghost_XE7595_20240619111439", "plate_no": "XE7595", "gap_start_time": "2024-06-19T11:14:39", "gap_end_time": "2024-06-19T13:00:24", "gap_duration_min": 105.75, "wasted_distance_km": 0.293, "prev_trip": "DA240619014111", "next_trip": "DA240619014211", "prev_O": [114.129029, 22.3585969], "next_O": [114.1112, 22.375143]}, "geometry": {"type": "LineString", "coordinates": [[114.110428, 22.372863], [114.111153, 22.375413]]}}, {"type": "Feature", "properties": {"id": "ghost_XE7595_20240619133250", "plate_no": "XE7595", "gap_start_time": "2024-06-19T13:32:50", "gap_end_time": "2024-06-19T14:50:16", "gap_duration_min": 77.43, "wasted_distance_km": 5.165, "prev_trip": "DA240619014211", "next_trip": "DA240619035701", "prev_O": [114.1112, 22.375143], "next_O": [114.2323362, 22.3168657]}, "geometry": {"type": "LineString", "coordinates": [[114.18299, 22.324751], [114.232526, 22.317131]]}}, {"type": "Feature", "properties": {"id": "ghost_XE7898_20240619104845", "plate_no": "XE7898", "gap_start_time": "2024-06-19T10:48:45", "gap_end_time": "2024-06-19T11:30:15", "gap_duration_min": 41.5, "wasted_distance_km": 0.144, "prev_trip": "DA240619025301", "next_trip": "DA240619025302", "prev_O": [114.107442, 22.355198], "next_O": [114.1337709, 22.3417046]}, "geometry": {"type": "LineString", "coordinates": [[114.134081, 22.341528], [114.133363, 22.342636]]}}, {"type": "Feature", "properties": {"id": "ghost_XE953_20240619125605", "plate_no": "XE953", "gap_start_time": "2024-06-19T12:56:05", "gap_end_time": "2024-06-19T13:45:28", "gap_duration_min": 49.38, "wasted_distance_km": 4.684, "prev_trip": "DA240619015311", "next_trip": "DA240619043111", "prev_O": [114.1687962, 22.3240273], "next_O": [114.2017654, 22.3419211]}, "geometry": {"type": "LineString", "coordinates": [[114.171173, 22.310445], [114.201381, 22.341961]]}}, {"type": "Feature", "properties": {"id": "ghost_XM4556_20240619132236", "plate_no": "XM4556", "gap_start_time": "2024-06-19T13:22:36", "gap_end_time": "2024-06-19T15:30:25", "gap_duration_min": 127.82, "wasted_distance_km": 8.66, "prev_trip": "DA240619020401", "next_trip": "DA240619031802", "prev_O": [114.1498105, 22.334746], "next_O": [114.118883, 22.369655]}, "geometry": {"type": "LineString", "coordinates": [[114.176325, 22.311666], [114.119213, 22.368888]]}}, {"type": "Feature", "properties": {"id": "ghost_XM6122_20240619133031", "plate_no": "XM6122", "gap_start_time": "2024-06-19T13:30:31", "gap_end_time": "2024-06-19T14:21:00", "gap_duration_min": 50.48, "wasted_distance_km": 7.717, "prev_trip": "DA240619028901", "next_trip": "DA240619035801", "prev_O": [114.2516341, 22.3048796], "next_O": [114.136921, 22.378818]}, "geometry": {"type": "LineString", "coordinates": [[114.17874, 22.321785], [114.136768, 22.379313]]}}, {"type": "Feature", "properties": {"id": "ghost_XM6122_20240619143800", "plate_no": "XM6122", "gap_start_time": "2024-06-19T14:38:00", "gap_end_time": "2024-06-19T15:40:00", "gap_duration_min": 62.0, "wasted_distance_km": 6.469, "prev_trip": "DA240619035801", "next_trip": "DA240619002902", "prev_O": [114.136921, 22.378818], "next_O": [114.212997, 22.3358478]}, "geometry": {"type": "LineString", "coordinates": [[114.150653, 22.337103], [114.213525, 22.335646]]}}, {"type": "Feature", "properties": {"id": "ghost_XM9047_20240619115440", "plate_no": "XM9047", "gap_start_time": "2024-06-19T11:54:40", "gap_end_time": "2024-06-19T15:40:07", "gap_duration_min": 225.45, "wasted_distance_km": 12.246, "prev_trip": "DA240619014302", "next_trip": "DA240619034802", "prev_O": [114.1506702, 22.3366021], "next_O": [114.1777194, 22.2755944]}, "geometry": {"type": "LineString", "coordinates": [[114.135028, 22.377741], [114.17787, 22.274991]]}}, {"type": "Feature", "properties": {"id": "ghost_XN6179_20240619105243", "plate_no": "XN6179", "gap_start_time": "2024-06-19T10:52:43", "gap_end_time": "2024-06-19T13:45:42", "gap_duration_min": 172.98, "wasted_distance_km": 2.931, "prev_trip": "DA240619029011", "next_trip": "DA240619012711", "prev_O": [114.2522843, 22.3039051], "next_O": [114.2288798, 22.3217269]}, "geometry": {"type": "LineString", "coordinates": [[114.23823, 22.295941], [114.227285, 22.320281]]}}, {"type": "Feature", "properties": {"id": "ghost_XN6179_20240619140416", "plate_no": "XN6179", "gap_start_time": "2024-06-19T14:04:16", "gap_end_time": "2024-06-19T17:30:19", "gap_duration_min": 206.05, "wasted_distance_km": 0.668, "prev_trip": "DA240619012711", "next_trip": "DA240619012911", "prev_O": [114.2288798, 22.3217269], "next_O": [114.1797535, 22.3725863]}, "geometry": {"type": "LineString", "coordinates": [[114.188256, 22.374881], [114.182213, 22.37268]]}}, {"type": "Feature", "properties": {"id": "ghost_XU9430_20240619142005", "plate_no": "XU9430", "gap_start_time": "2024-06-19T14:20:05", "gap_end_time": "2024-06-19T15:15:05", "gap_duration_min": 55.0, "wasted_distance_km": 2.37, "prev_trip": "DA240619043501", "next_trip": "DA240619039802", "prev_O": [114.1843694, 22.3404435], "next_O": [114.2286568, 22.3119002]}, "geometry": {"type": "LineString", "coordinates": [[114.208718, 22.324868], [114.227153, 22.312086]]}}, {"type": "Feature", "properties": {"id": "ghost_XV1460_20240619112019", "plate_no": "XV1460", "gap_start_time": "2024-06-19T11:20:19", "gap_end_time": "2024-06-19T14:25:26", "gap_duration_min": 185.12, "wasted_distance_km": 0.538, "prev_trip": "DA240619007602", "next_trip": "DA240619007902", "prev_O": [114.1237538, 22.2702094], "next_O": [114.1467481, 22.2436883]}, "geometry": {"type": "LineString", "coordinates": [[114.151298, 22.24331], [114.146073, 22.243125]]}}, {"type": "Feature", "properties": {"id": "ghost_XV2836_20240619082944", "plate_no": "XV2836", "gap_start_time": "2024-06-19T08:29:44", "gap_end_time": "2024-06-19T17:00:06", "gap_duration_min": 510.37, "wasted_distance_km": 5.012, "prev_trip": "DA240619004211", "next_trip": "DA240619011202", "prev_O": [114.173386, 22.277853], "next_O": [114.1257994, 22.2819173]}, "geometry": {"type": "LineString", "coordinates": [[114.174465, 22.277675], [114.126003, 22.282266]]}}, {"type": "Feature", "properties": {"id": "ghost_XV7112_20240619125037", "plate_no": "XV7112", "gap_start_time": "2024-06-19T12:50:37", "gap_end_time": "2024-06-19T17:00:01", "gap_duration_min": 249.4, "wasted_distance_km": 14.557, "prev_trip": "DA240619030011", "next_trip": "DA240619042911", "prev_O": [114.1875475, 22.3413349], "next_O": [114.1035242, 22.3486056]}, "geometry": {"type": "LineString", "coordinates": [[113.967865, 22.387158], [114.103038, 22.34826]]}}, {"type": "Feature", "properties": {"id": "ghost_YK4683_20240619065056", "plate_no": "YK4683", "gap_start_time": "2024-06-19T06:50:56", "gap_end_time": "2024-06-19T11:30:17", "gap_duration_min": 279.35, "wasted_distance_km": 5.421, "prev_trip": "DA240619014901", "next_trip": "DA240619011902", "prev_O": [114.1334613, 22.4948376], "next_O": [114.2349458, 22.4251733]}, "geometry": {"type": "LineString", "coordinates": [[114.198538, 22.389086], [114.234986, 22.424313]]}}, {"type": "Feature", "properties": {"id": "ghost_YK4725_20240619142014", "plate_no": "YK4725", "gap_start_time": "2024-06-19T14:20:14", "gap_end_time": "2024-06-19T17:05:14", "gap_duration_min": 165.0, "wasted_distance_km": 4.26, "prev_trip": "DA240619005002", "next_trip": "DA240619028411", "prev_O": [114.1705215, 22.301755], "next_O": [114.1763226, 22.3187944]}, "geometry": {"type": "LineString", "coordinates": [[114.202116, 22.350135], [114.17724, 22.319506]]}}, {"type": "Feature", "properties": {"id": "ghost_YK5072_20240619095015", "plate_no": "YK5072", "gap_start_time": "2024-06-19T09:50:15", "gap_end_time": "2024-06-19T15:31:17", "gap_duration_min": 341.03, "wasted_distance_km": 6.372, "prev_trip": "DA240619049101", "next_trip": "DA240619041602", "prev_O": [114.2264127, 22.2825843], "next_O": [114.2286568, 22.3119002]}, "geometry": {"type": "LineString", "coordinates": [[114.181391, 22.276938], [114.230473, 22.311881]]}}, {"type": "Feature", "properties": {"id": "ghost_YK5072_20240619161617", "plate_no": "YK5072", "gap_start_time": "2024-06-19T16:16:17", "gap_end_time": "2024-06-19T16:30:17", "gap_duration_min": 14.0, "wasted_distance_km": 1.485, "prev_trip": "DA240619041602", "next_trip": "DA240619028102", "prev_O": [114.2286568, 22.3119002], "next_O": [114.1683734, 22.3343082]}, "geometry": {"type": "LineString", "coordinates": [[114.155596, 22.340256], [114.168386, 22.334068]]}}, {"type": "Feature", "properties": {"id": "ghost_YK6404_20240619113055", "plate_no": "YK6404", "gap_start_time": "2024-06-19T11:30:55", "gap_end_time": "2024-06-19T13:15:16", "gap_duration_min": 104.35, "wasted_distance_km": 7.055, "prev_trip": "DA240619029602", "next_trip": "DA240619036801", "prev_O": [114.1763226, 22.3187944], "next_O": [114.0998777, 22.3710961]}, "geometry": {"type": "LineString", "coordinates": [[114.151501, 22.329826], [114.099453, 22.371163]]}}, {"type": "Feature", "properties": {"id": "ghost_YK6682_20240619105619", "plate_no": "YK6682", "gap_start_time": "2024-06-19T10:56:19", "gap_end_time": "2024-06-19T14:45:13", "gap_duration_min": 228.9, "wasted_distance_km": 2.31, "prev_trip": "DA240619008511", "next_trip": "DA240619008411", "prev_O": [114.1988011, 22.3804562], "next_O": [114.2077592, 22.3227792]}, "geometry": {"type": "LineString", "coordinates": [[114.18924, 22.33545], [114.207338, 22.323145]]}}, {"type": "Feature", "properties": {"id": "ghost_YK7541_20240619094217", "plate_no": "YK7541", "gap_start_time": "2024-06-19T09:42:17", "gap_end_time": "2024-06-19T11:00:14", "gap_duration_min": 77.95, "wasted_distance_km": 0.157, "prev_trip": "DA240619014501", "next_trip": "DA240619014502", "prev_O": [113.9740818, 22.3843575], "next_O": [114.1260671, 22.3474958]}, "geometry": {"type": "LineString", "coordinates": [[114.126828, 22.345513], [114.126103, 22.34676]]}}, {"type": "Feature", "properties": {"id": "ghost_YK7874_20240619081957", "plate_no": "YK7874", "gap_start_time": "2024-06-19T08:19:57", "gap_end_time": "2024-06-19T08:50:27", "gap_duration_min": 30.5, "wasted_distance_km": 1.964, "prev_trip": "DA240619011401", "next_trip": "DA240619029601", "prev_O": [114.2350149, 22.2674969], "next_O": [114.15078, 22.329662]}, "geometry": {"type": "LineString", "coordinates": [[114.165376, 22.340013], [114.150271, 22.329211]]}}, {"type": "Feature", "properties": {"id": "ghost_YK7874_20240619090327", "plate_no": "YK7874", "gap_start_time": "2024-06-19T09:03:27", "gap_end_time": "2024-06-19T10:41:17", "gap_duration_min": 97.83, "wasted_distance_km": 4.406, "prev_trip": "DA240619029601", "next_trip": "DA240619043901", "prev_O": [114.15078, 22.329662], "next_O": [114.19909, 22.347143]}, "geometry": {"type": "LineString", "coordinates": [[114.173726, 22.31616], [114.199998, 22.347458]]}}, {"type": "Feature", "properties": {"id": "ghost_YK7874_20240619110814", "plate_no": "YK7874", "gap_start_time": "2024-06-19T11:08:14", "gap_end_time": "2024-06-19T13:30:18", "gap_duration_min": 142.07, "wasted_distance_km": 1.178, "prev_trip": "DA240619043901", "next_trip": "DA240619013201", "prev_O": [114.19909, 22.347143], "next_O": [114.1737752, 22.3192759]}, "geometry": {"type": "LineString", "coordinates": [[114.176108, 22.308813], [114.172958, 22.319003]]}}, {"type": "Feature", "properties": {"id": "ghost_YK7874_20240619140446", "plate_no": "YK7874", "gap_start_time": "2024-06-19T14:04:46", "gap_end_time": "2024-06-19T17:00:21", "gap_duration_min": 175.58, "wasted_distance_km": 5.119, "prev_trip": "DA240619013201", "next_trip": "DA240619020011", "prev_O": [114.1737752, 22.3192759], "next_O": [114.1394532, 22.2865441]}, "geometry": {"type": "LineString", "coordinates": [[114.163821, 22.24649], [114.139411, 22.286606]]}}, {"type": "Feature", "properties": {"id": "ghost_YK8969_20240619122246", "plate_no": "YK8969", "gap_start_time": "2024-06-19T12:22:46", "gap_end_time": "2024-06-19T13:50:06", "gap_duration_min": 87.33, "wasted_distance_km": 1.603, "prev_trip": "DA240619048002", "next_trip": "DA240619022501", "prev_O": [114.1243351, 22.2699905], "next_O": [114.124202, 22.269831]}, "geometry": {"type": "LineString", "coordinates": [[114.13648, 22.26053], [114.125026, 22.2703]]}}, {"type": "Feature", "properties": {"id": "ghost_YK905_20240619085822", "plate_no": "YK905", "gap_start_time": "2024-06-19T08:58:22", "gap_end_time": "2024-06-19T09:30:16", "gap_duration_min": 31.9, "wasted_distance_km": 5.826, "prev_trip": "DA240619051001", "next_trip": "DA240619029701", "prev_O": [114.2005407, 22.3463324], "next_O": [114.2386197, 22.304463]}, "geometry": {"type": "LineString", "coordinates": [[114.186966, 22.325736], [114.238398, 22.303806]]}}, {"type": "Feature", "properties": {"id": "ghost_YK905_20240619094116", "plate_no": "YK905", "gap_start_time": "2024-06-19T09:41:16", "gap_end_time": "2024-06-19T12:30:02", "gap_duration_min": 168.77, "wasted_distance_km": 5.642, "prev_trip": "DA240619029701", "next_trip": "DA240619023802", "prev_O": [114.2386197, 22.304463], "next_O": [114.1743747, 22.3091816]}, "geometry": {"type": "LineString", "coordinates": [[114.22964, 22.305043], [114.17503, 22.30973]]}}, {"type": "Feature", "properties": {"id": "ghost_YK905_20240619125532", "plate_no": "YK905", "gap_start_time": "2024-06-19T12:55:32", "gap_end_time": "2024-06-19T15:40:00", "gap_duration_min": 164.47, "wasted_distance_km": 1.044, "prev_trip": "DA240619023802", "next_trip": "DA240619002802", "prev_O": [114.1743747, 22.3091816], "next_O": [114.212997, 22.3358478]}, "geometry": {"type": "LineString", "coordinates": [[114.208383, 22.327605], [114.213653, 22.335633]]}}, {"type": "Feature", "properties": {"id": "ghost_YL1345_20240619100404", "plate_no": "YL1345", "gap_start_time": "2024-06-19T10:04:04", "gap_end_time": "2024-06-19T11:00:04", "gap_duration_min": 56.0, "wasted_distance_km": 4.422, "prev_trip": "DA240619051201", "next_trip": "DA240619045601", "prev_O": [114.192709, 22.3177253], "next_O": [114.193556, 22.341382]}, "geometry": {"type": "LineString", "coordinates": [[114.22429, 22.313326], [114.1936, 22.341181]]}}, {"type": "Feature", "properties": {"id": "ghost_YL1821_20240619132239", "plate_no": "YL1821", "gap_start_time": "2024-06-19T13:22:39", "gap_end_time": "2024-06-19T14:31:37", "gap_duration_min": 68.97, "wasted_distance_km": 8.746, "prev_trip": "DA240619008611", "next_trip": "DA240619037502", "prev_O": [114.1889416, 22.3355079], "next_O": [114.1134806, 22.3645971]}, "geometry": {"type": "LineString", "coordinates": [[114.19853, 22.379041], [114.11519, 22.363305]]}}, {"type": "Feature", "properties": {"id": "ghost_YL6936_20240619093009", "plate_no": "YL6936", "gap_start_time": "2024-06-19T09:30:09", "gap_end_time": "2024-06-19T14:55:38", "gap_duration_min": 325.48, "wasted_distance_km": 15.913, "prev_trip": "DA240619037001", "next_trip": "DA240619021201", "prev_O": [113.999307, 22.455146], "next_O": [114.1270746, 22.3643915]}, "geometry": {"type": "LineString", "coordinates": [[113.974976, 22.3943], [114.126371, 22.364586]]}}, {"type": "Feature", "properties": {"id": "ghost_YL8082_20240619121319", "plate_no": "YL8082", "gap_start_time": "2024-06-19T12:13:19", "gap_end_time": "2024-06-19T13:45:20", "gap_duration_min": 92.02, "wasted_distance_km": 6.628, "prev_trip": "DA240619035011", "next_trip": "DA240619028001", "prev_O": [114.1908047, 22.2754598], "next_O": [114.1553149, 22.2409917]}, "geometry": {"type": "LineString", "coordinates": [[114.197943, 22.290765], [114.15922, 22.243133]]}}, {"type": "Feature", "properties": {"id": "ghost_YL9716_20240619122225", "plate_no": "YL9716", "gap_start_time": "2024-06-19T12:22:25", "gap_end_time": "2024-06-19T13:45:29", "gap_duration_min": 83.07, "wasted_distance_km": 0.352, "prev_trip": "DA240619012202", "next_trip": "DA240619034611", "prev_O": [114.124252, 22.269896], "next_O": [114.2269991, 22.2807278]}, "geometry": {"type": "LineString", "coordinates": [[114.229006, 22.27957], [114.225705, 22.280403]]}}, {"type": "Feature", "properties": {"id": "ghost_YY7490_20240619132916", "plate_no": "YY7490", "gap_start_time": "2024-06-19T13:29:16", "gap_end_time": "2024-06-19T15:00:11", "gap_duration_min": 90.92, "wasted_distance_km": 4.942, "prev_trip": "DA240619035502", "next_trip": "DA240619003401", "prev_O": [114.1926653, 22.2861793], "next_O": [114.1734921, 22.2726294]}, "geometry": {"type": "LineString", "coordinates": [[114.218221, 22.287336], [114.172928, 22.27255]]}}, {"type": "Feature", "properties": {"id": "ghost_YY7490_20240619151313", "plate_no": "YY7490", "gap_start_time": "2024-06-19T15:13:13", "gap_end_time": "2024-06-19T16:30:13", "gap_duration_min": 77.0, "wasted_distance_km": 0.466, "prev_trip": "DA240619003401", "next_trip": "DA240619003402", "prev_O": [114.1734921, 22.2726294], "next_O": [114.1734921, 22.2726294]}, "geometry": {"type": "LineString", "coordinates": [[114.17054, 22.276883], [114.172895, 22.273305]]}}, {"type": "Feature", "properties": {"id": "ghost_YZ2545_20240619104619", "plate_no": "YZ2545", "gap_start_time": "2024-06-19T10:46:19", "gap_end_time": "2024-06-19T12:00:31", "gap_duration_min": 74.2, "wasted_distance_km": 7.583, "prev_trip": "DA240619031511", "next_trip": "DA240619014902", "prev_O": [114.209362, 22.458109], "next_O": [114.1945989, 22.3874752]}, "geometry": {"type": "LineString", "coordinates": [[114.167568, 22.450993], [114.194775, 22.387601]]}}, {"type": "Feature", "properties": {"id": "ghost_ZA2376_20240619082238", "plate_no": "ZA2376", "gap_start_time": "2024-06-19T08:22:38", "gap_end_time": "2024-06-19T09:30:25", "gap_duration_min": 67.78, "wasted_distance_km": 0.916, "prev_trip": "DA240619002901", "next_trip": "DA240619023801", "prev_O": [114.1890105, 22.3079943], "next_O": [114.2094681, 22.3284564]}, "geometry": {"type": "LineString", "coordinates": [[114.213256, 22.335623], [114.210321, 22.327846]]}}, {"type": "Feature", "properties": {"id": "ghost_ZA2376_20240619095333", "plate_no": "ZA2376", "gap_start_time": "2024-06-19T09:53:33", "gap_end_time": "2024-06-19T11:05:06", "gap_duration_min": 71.55, "wasted_distance_km": 1.195, "prev_trip": "DA240619023801", "next_trip": "DA240619038001", "prev_O": [114.2094681, 22.3284564], "next_O": [114.1877826, 22.3102544]}, "geometry": {"type": "LineString", "coordinates": [[114.175593, 22.313206], [114.186861, 22.310583]]}}, {"type": "Feature", "properties": {"id": "ghost_ZA2376_20240619112502", "plate_no": "ZA2376", "gap_start_time": "2024-06-19T11:25:02", "gap_end_time": "2024-06-19T14:15:25", "gap_duration_min": 170.38, "wasted_distance_km": 30.091, "prev_trip": "DA240619038001", "next_trip": "DA240619024311", "prev_O": [114.1877826, 22.3102544], "next_O": [113.9363461, 22.2813691]}, "geometry": {"type": "LineString", "coordinates": [[114.227168, 22.311811], [113.936405, 22.282523]]}}, {"type": "Feature", "properties": {"id": "ghost_ZA3406_20240619112345", "plate_no": "ZA3406", "gap_start_time": "2024-06-19T11:23:45", "gap_end_time": "2024-06-19T14:15:04", "gap_duration_min": 171.32, "wasted_distance_km": 6.558, "prev_trip": "DA240619033502", "next_trip": "DA240619007801", "prev_O": [114.1861849, 22.2780679], "next_O": [114.1467481, 22.2436883]}, "geometry": {"type": "LineString", "coordinates": [[114.191506, 22.285235], [114.146051, 22.243893]]}}, {"type": "Feature", "properties": {"id": "ghost_ZA3650_20240619130745", "plate_no": "ZA3650", "gap_start_time": "2024-06-19T13:07:45", "gap_end_time": "2024-06-19T14:30:19", "gap_duration_min": 82.57, "wasted_distance_km": 24.976, "prev_trip": "DA240619036201", "next_trip": "DA240619013711", "prev_O": [113.9859398, 22.4131046], "next_O": [114.2183846, 22.3955654]}, "geometry": {"type": "LineString", "coordinates": [[113.976493, 22.412021], [114.2188, 22.395688]]}}, {"type": "Feature", "properties": {"id": "ghost_ZA394_20240619112543", "plate_no": "ZA394", "gap_start_time": "2024-06-19T11:25:43", "gap_end_time": "2024-06-19T14:35:15", "gap_duration_min": 189.53, "wasted_distance_km": 2.149, "prev_trip": "DA240619035501", "next_trip": "DA240619003211", "prev_O": [114.2159664, 22.2876331], "next_O": [114.1737442, 22.2736077]}, "geometry": {"type": "LineString", "coordinates": [[114.190361, 22.285935], [114.174888, 22.27296]]}}, {"type": "Feature", "properties": {"id": "ghost_ZA4388_20240619151741", "plate_no": "ZA4388", "gap_start_time": "2024-06-19T15:17:41", "gap_end_time": "2024-06-19T16:10:42", "gap_duration_min": 53.02, "wasted_distance_km": 6.12, "prev_trip": "DA240619004902", "next_trip": "DA240619020311", "prev_O": [114.1705215, 22.301755], "next_O": [113.9756803, 22.3993412]}, "geometry": {"type": "LineString", "coordinates": [[114.003385, 22.447443], [113.976581, 22.398296]]}}, {"type": "Feature", "properties": {"id": "ghost_ZA6585_20240619083113", "plate_no": "ZA6585", "gap_start_time": "2024-06-19T08:31:13", "gap_end_time": "2024-06-19T12:35:08", "gap_duration_min": 243.92, "wasted_distance_km": 8.083, "prev_trip": "DA240619001201", "next_trip": "DA240619049511", "prev_O": [114.1645223, 22.2794233], "next_O": [114.1323065, 22.2661136]}, "geometry": {"type": "LineString", "coordinates": [[114.185685, 22.319786], [114.132078, 22.266648]]}}, {"type": "Feature", "properties": {"id": "ghost_ZA6941_20240619082716", "plate_no": "ZA6941", "gap_start_time": "2024-06-19T08:27:16", "gap_end_time": "2024-06-19T08:55:15", "gap_duration_min": 27.98, "wasted_distance_km": 3.476, "prev_trip": "DA240619004411", "next_trip": "DA240619031101", "prev_O": [114.2277794, 22.2808612], "next_O": [114.1524398, 22.2483068]}, "geometry": {"type": "LineString", "coordinates": [[114.126675, 22.268886], [114.1533, 22.24965]]}}, {"type": "Feature", "properties": {"id": "ghost_ZA7388_20240619061438", "plate_no": "ZA7388", "gap_start_time": "2024-06-19T06:14:38", "gap_end_time": "2024-06-19T07:10:07", "gap_duration_min": 55.48, "wasted_distance_km": 4.555, "prev_trip": "DA240619029401", "next_trip": "DA240619004611", "prev_O": [114.1501361, 22.244705], "next_O": [114.192092, 22.281794]}, "geometry": {"type": "LineString", "coordinates": [[114.148061, 22.288396], [114.191685, 22.281431]]}}, {"type": "Feature", "properties": {"id": "ghost_ZA7388_20240619080638", "plate_no": "ZA7388", "gap_start_time": "2024-06-19T08:06:38", "gap_end_time": "2024-06-19T15:50:04", "gap_duration_min": 463.43, "wasted_distance_km": 0.197, "prev_trip": "DA240619004611", "next_trip": "DA240619004711", "prev_O": [114.192092, 22.281794], "next_O": [114.1245247, 22.2709886]}, "geometry": {"type": "LineString", "coordinates": [[114.124226, 22.272533], [114.124475, 22.270775]]}}, {"type": "Feature", "properties": {"id": "ghost_ZB1369_20240619095549", "plate_no": "ZB1369", "gap_start_time": "2024-06-19T09:55:49", "gap_end_time": "2024-06-19T14:45:01", "gap_duration_min": 289.2, "wasted_distance_km": 8.459, "prev_trip": "DA240619023401", "next_trip": "DA240619003711", "prev_O": [114.137572, 22.3422418], "next_O": [114.2336165, 22.2637098]}, "geometry": {"type": "LineString", "coordinates": [[114.18316, 22.32479], [114.23308, 22.264346]]}}, {"type": "Feature", "properties": {"id": "ghost_ZB1369_20240619150931", "plate_no": "ZB1369", "gap_start_time": "2024-06-19T15:09:31", "gap_end_time": "2024-06-19T16:20:01", "gap_duration_min": 70.5, "wasted_distance_km": 1.21, "prev_trip": "DA240619003711", "next_trip": "DA240619003811", "prev_O": [114.2336165, 22.2637098], "next_O": [114.2336165, 22.2637098]}, "geometry": {"type": "LineString", "coordinates": [[114.241121, 22.275675], [114.234571, 22.266643]]}}, {"type": "Feature", "properties": {"id": "ghost_ZB1651_20240619104125", "plate_no": "ZB1651", "gap_start_time": "2024-06-19T10:41:25", "gap_end_time": "2024-06-19T13:45:58", "gap_duration_min": 184.55, "wasted_distance_km": 10.958, "prev_trip": "DA240619040101", "next_trip": "DA240619045001", "prev_O": [114.260083, 22.3209665], "next_O": [114.1607901, 22.3195582]}, "geometry": {"type": "LineString", "coordinates": [[114.26837, 22.307223], [114.16265, 22.319313]]}}, {"type": "Feature", "properties": {"id": "ghost_ZB3917_20240619122548", "plate_no": "ZB3917", "gap_start_time": "2024-06-19T12:25:48", "gap_end_time": "2024-06-19T14:00:18", "gap_duration_min": 94.5, "wasted_distance_km": 0.302, "prev_trip": "DA240619046311", "next_trip": "DA240619024901", "prev_O": [114.1992046, 22.3382294], "next_O": [114.232525, 22.307095]}, "geometry": {"type": "LineString", "coordinates": [[114.23451, 22.305743], [114.232151, 22.30736]]}}]}