{"type": "FeatureCollection", "features": [{"type": "Feature", "properties": {"id": "ghost_RV8266_20240616085340", "plate_no": "RV8266", "gap_start_time": "2024-06-16T08:53:40", "gap_end_time": "2024-06-16T10:10:00", "gap_duration_min": 76.33, "wasted_distance_km": 7.842, "prev_trip": "DA240616021011", "next_trip": "DA240616002211", "prev_O": [114.26277, 22.308295], "next_O": [114.1567547, 22.4475678]}, "geometry": {"type": "LineString", "coordinates": [[114.199105, 22.389456], [114.15634, 22.447855]]}}, {"type": "Feature", "properties": {"id": "ghost_RV8266_20240616113115", "plate_no": "RV8266", "gap_start_time": "2024-06-16T11:31:15", "gap_end_time": "2024-06-16T15:00:11", "gap_duration_min": 208.93, "wasted_distance_km": 0.51, "prev_trip": "DA240616002211", "next_trip": "DA240616002311", "prev_O": [114.1567547, 22.4475678], "next_O": [114.1941178, 22.2884225]}, "geometry": {"type": "LineString", "coordinates": [[114.19067, 22.2856], [114.194795, 22.288141]]}}, {"type": "Feature", "properties": {"id": "ghost_RV8266_20240616152257", "plate_no": "RV8266", "gap_start_time": "2024-06-16T15:22:57", "gap_end_time": "2024-06-16T17:01:30", "gap_duration_min": 98.55, "wasted_distance_km": 11.433, "prev_trip": "DA240616002311", "next_trip": "DA240616021111", "prev_O": [114.1941178, 22.2884225], "next_O": [114.1999667, 22.3927796]}, "geometry": {"type": "LineString", "coordinates": [[114.23946, 22.297513], [114.201363, 22.394111]]}}, {"type": "Feature", "properties": {"id": "ghost_RX3329_20240616094353", "plate_no": "RX3329", "gap_start_time": "2024-06-16T09:43:53", "gap_end_time": "2024-06-16T12:33:27", "gap_duration_min": 169.57, "wasted_distance_km": 10.933, "prev_trip": "DA240616017501", "next_trip": "DA240616014602", "prev_O": [114.158032, 22.3407391], "next_O": [114.1261909, 22.3574339]}, "geometry": {"type": "LineString", "coordinates": [[114.220888, 22.31029], [114.126678, 22.355816]]}}, {"type": "Feature", "properties": {"id": "ghost_SL9703_20240616120355", "plate_no": "SL9703", "gap_start_time": "2024-06-16T12:03:55", "gap_end_time": "2024-06-16T15:00:47", "gap_duration_min": 176.87, "wasted_distance_km": 0.236, "prev_trip": "DA240616016701", "next_trip": "DA240616016702", "prev_O": [114.1635126, 22.3142379], "next_O": [114.1811513, 22.276331]}, "geometry": {"type": "LineString", "coordinates": [[114.182288, 22.278091], [114.182676, 22.275995]]}}, {"type": "Feature", "properties": {"id": "ghost_TB9578_20240616082120", "plate_no": "TB9578", "gap_start_time": "2024-06-16T08:21:20", "gap_end_time": "2024-06-16T11:45:09", "gap_duration_min": 203.82, "wasted_distance_km": 0.899, "prev_trip": "DA240616017911", "next_trip": "DA240616018111", "prev_O": [114.2388027, 22.3074368], "next_O": [114.217477, 22.286721]}, "geometry": {"type": "LineString", "coordinates": [[114.222721, 22.280745], [114.21743, 22.287183]]}}, {"type": "Feature", "properties": {"id": "ghost_TF2479_20240616182910", "plate_no": "TF2479", "gap_start_time": "2024-06-16T18:29:10", "gap_end_time": "2024-06-16T20:15:12", "gap_duration_min": 106.03, "wasted_distance_km": 6.059, "prev_trip": "DA240616012402", "next_trip": "DA240616006111", "prev_O": [114.179118, 22.27986], "next_O": [114.195257, 22.34003]}, "geometry": {"type": "LineString", "coordinates": [[114.197881, 22.394335], [114.19559, 22.339885]]}}, {"type": "Feature", "properties": {"id": "ghost_TV8531_20240616101219", "plate_no": "TV8531", "gap_start_time": "2024-06-16T10:12:19", "gap_end_time": "2024-06-16T11:50:22", "gap_duration_min": 98.05, "wasted_distance_km": 0.258, "prev_trip": "DA240616000901", "next_trip": "DA240616000902", "prev_O": [114.1055607, 22.3610656], "next_O": [114.1133935, 22.3618124]}, "geometry": {"type": "LineString", "coordinates": [[114.116183, 22.364345], [114.11382, 22.363573]]}}, {"type": "Feature", "properties": {"id": "ghost_TV8531_20240616120452", "plate_no": "TV8531", "gap_start_time": "2024-06-16T12:04:52", "gap_end_time": "2024-06-16T14:45:27", "gap_duration_min": 160.58, "wasted_distance_km": 9.366, "prev_trip": "DA240616000902", "next_trip": "DA240616024502", "prev_O": [114.1133935, 22.3618124], "next_O": [114.1801817, 22.3163552]}, "geometry": {"type": "LineString", "coordinates": [[114.104786, 22.361033], [114.180733, 22.314563]]}}, {"type": "Feature", "properties": {"id": "ghost_TX9739_20240616145235", "plate_no": "TX9739", "gap_start_time": "2024-06-16T14:52:35", "gap_end_time": "2024-06-16T17:00:21", "gap_duration_min": 127.77, "wasted_distance_km": 19.224, "prev_trip": "DA240616019511", "next_trip": "DA240616008211", "prev_O": [114.26277, 22.308295], "next_O": [114.0412819, 22.3129666]}, "geometry": {"type": "LineString", "coordinates": [[114.23062, 22.326003], [114.044033, 22.31611]]}}, {"type": "Feature", "properties": {"id": "ghost_TY3864_20240616084453", "plate_no": "TY3864", "gap_start_time": "2024-06-16T08:44:53", "gap_end_time": "2024-06-16T16:00:47", "gap_duration_min": 435.9, "wasted_distance_km": 5.173, "prev_trip": "DA240616013211", "next_trip": "DA240616006811", "prev_O": [114.1861542, 22.3419036], "next_O": [114.2207762, 22.3185839]}, "geometry": {"type": "LineString", "coordinates": [[114.174278, 22.300136], [114.220333, 22.318823]]}}, {"type": "Feature", "properties": {"id": "ghost_UL3556_20240616101537", "plate_no": "UL3556", "gap_start_time": "2024-06-16T10:15:37", "gap_end_time": "2024-06-16T11:45:15", "gap_duration_min": 89.63, "wasted_distance_km": 6.515, "prev_trip": "DA240616004101", "next_trip": "DA240616015401", "prev_O": [114.195045, 22.3411351], "next_O": [114.2396535, 22.2933512]}, "geometry": {"type": "LineString", "coordinates": [[114.17748, 22.303181], [114.23993, 22.293485]]}}, {"type": "Feature", "properties": {"id": "ghost_UL4469_20240616094044", "plate_no": "UL4469", "gap_start_time": "2024-06-16T09:40:44", "gap_end_time": "2024-06-16T10:15:14", "gap_duration_min": 34.5, "wasted_distance_km": 7.623, "prev_trip": "DA240616005901", "next_trip": "DA240616010301", "prev_O": [113.9770187, 22.3878801], "next_O": [114.0285976, 22.4305301]}, "geometry": {"type": "LineString", "coordinates": [[113.975308, 22.38259], [114.028961, 22.42991]]}}, {"type": "Feature", "properties": {"id": "ghost_UL4469_20240616103544", "plate_no": "UL4469", "gap_start_time": "2024-06-16T10:35:44", "gap_end_time": "2024-06-16T12:45:26", "gap_duration_min": 129.7, "wasted_distance_km": 5.059, "prev_trip": "DA240616010301", "next_trip": "DA240616010002", "prev_O": [114.0285976, 22.4305301], "next_O": [113.9792362, 22.3877306]}, "geometry": {"type": "LineString", "coordinates": [[113.993598, 22.431268], [113.979181, 22.387766]]}}, {"type": "Feature", "properties": {"id": "ghost_UL4469_20240616125856", "plate_no": "UL4469", "gap_start_time": "2024-06-16T12:58:56", "gap_end_time": "2024-06-16T16:00:29", "gap_duration_min": 181.55, "wasted_distance_km": 1.247, "prev_trip": "DA240616010002", "next_trip": "DA240616015702", "prev_O": [113.9792362, 22.3877306], "next_O": [113.9757874, 22.3986569]}, "geometry": {"type": "LineString", "coordinates": [[113.980773, 22.386548], [113.974581, 22.396186]]}}, {"type": "Feature", "properties": {"id": "ghost_UM7167_20240616102230", "plate_no": "UM7167", "gap_start_time": "2024-06-16T10:22:30", "gap_end_time": "2024-06-16T14:00:23", "gap_duration_min": 217.88, "wasted_distance_km": 7.952, "prev_trip": "DA240616019001", "next_trip": "DA240616001011", "prev_O": [114.1023537, 22.3629331], "next_O": [114.2025948, 22.3498555]}, "geometry": {"type": "LineString", "coordinates": [[114.126505, 22.36487], [114.202178, 22.350155]]}}, {"type": "Feature", "properties": {"id": "ghost_UN8698_20240616120138", "plate_no": "UN8698", "gap_start_time": "2024-06-16T12:01:38", "gap_end_time": "2024-06-16T17:00:28", "gap_duration_min": 298.83, "wasted_distance_km": 8.737, "prev_trip": "DA240616003711", "next_trip": "DA240616008811", "prev_O": [114.1154934, 22.360079], "next_O": [114.0412819, 22.3129666]}, "geometry": {"type": "LineString", "coordinates": [[114.115366, 22.358768], [114.044008, 22.316143]]}}, {"type": "Feature", "properties": {"id": "ghost_UP3870_20240616104822", "plate_no": "UP3870", "gap_start_time": "2024-06-16T10:48:22", "gap_end_time": "2024-06-16T13:30:00", "gap_duration_min": 161.63, "wasted_distance_km": 23.125, "prev_trip": "DA240616008711", "next_trip": "DA240616019101", "prev_O": [114.2328324, 22.4268309], "next_O": [114.20582, 22.462254]}, "geometry": {"type": "LineString", "coordinates": [[114.044006, 22.316085], [114.204806, 22.461496]]}}, {"type": "Feature", "properties": {"id": "ghost_UP3870_20240616141257", "plate_no": "UP3870", "gap_start_time": "2024-06-16T14:12:57", "gap_end_time": "2024-06-16T16:50:20", "gap_duration_min": 157.38, "wasted_distance_km": 0.3, "prev_trip": "DA240616019101", "next_trip": "DA240616019102", "prev_O": [114.20582, 22.462254], "next_O": [114.1705443, 22.314852]}, "geometry": {"type": "LineString", "coordinates": [[114.172955, 22.315251], [114.170205, 22.314345]]}}, {"type": "Feature", "properties": {"id": "ghost_UP6949_20240616100817", "plate_no": "UP6949", "gap_start_time": "2024-06-16T10:08:17", "gap_end_time": "2024-06-16T18:31:27", "gap_duration_min": 503.17, "wasted_distance_km": 6.503, "prev_trip": "DA240616000201", "next_trip": "DA240616002911", "prev_O": [114.1819745, 22.3714238], "next_O": [114.1123721, 22.3713902]}, "geometry": {"type": "LineString", "coordinates": [[114.176225, 22.36706], [114.113045, 22.369576]]}}, {"type": "Feature", "properties": {"id": "ghost_UP7636_20240616083710", "plate_no": "UP7636", "gap_start_time": "2024-06-16T08:37:10", "gap_end_time": "2024-06-16T09:30:24", "gap_duration_min": 53.23, "wasted_distance_km": 1.327, "prev_trip": "DA240616018811", "next_trip": "DA240616013511", "prev_O": [114.2314804, 22.4191167], "next_O": [114.218399, 22.395536]}, "geometry": {"type": "LineString", "coordinates": [[114.208285, 22.388798], [114.218883, 22.395605]]}}, {"type": "Feature", "properties": {"id": "ghost_VE7538_20240616085720", "plate_no": "VE7538", "gap_start_time": "2024-06-16T08:57:20", "gap_end_time": "2024-06-16T11:15:02", "gap_duration_min": 137.7, "wasted_distance_km": 0.033, "prev_trip": "DA240616000601", "next_trip": "DA240616000602", "prev_O": [114.125774, 22.493591], "next_O": [114.2174678, 22.3987589]}, "geometry": {"type": "LineString", "coordinates": [[114.217165, 22.398606], [114.217225, 22.398313]]}}, {"type": "Feature", "properties": {"id": "ghost_VV6972_20240616075636", "plate_no": "VV6972", "gap_start_time": "2024-06-16T07:56:36", "gap_end_time": "2024-06-16T10:30:26", "gap_duration_min": 153.83, "wasted_distance_km": 9.384, "prev_trip": "DA240616023011", "next_trip": "DA240616020511", "prev_O": [114.2399321, 22.3366271], "next_O": [114.2394445, 22.2783703]}, "geometry": {"type": "LineString", "coordinates": [[114.153686, 22.24861], [114.239126, 22.278098]]}}, {"type": "Feature", "properties": {"id": "ghost_VV6972_20240616105026", "plate_no": "VV6972", "gap_start_time": "2024-06-16T10:50:26", "gap_end_time": "2024-06-16T11:30:57", "gap_duration_min": 40.52, "wasted_distance_km": 3.471, "prev_trip": "DA240616020511", "next_trip": "DA240616015602", "prev_O": [114.2394445, 22.2783703], "next_O": [114.166341, 22.277509]}, "geometry": {"type": "LineString", "coordinates": [[114.166803, 22.246026], [114.165196, 22.277205]]}}, {"type": "Feature", "properties": {"id": "ghost_VV6972_20240616120006", "plate_no": "VV6972", "gap_start_time": "2024-06-16T12:00:06", "gap_end_time": "2024-06-16T15:00:26", "gap_duration_min": 180.33, "wasted_distance_km": 4.152, "prev_trip": "DA240616015602", "next_trip": "DA240616014811", "prev_O": [114.166341, 22.277509], "next_O": [114.2633643, 22.306645]}, "geometry": {"type": "LineString", "coordinates": [[114.240016, 22.337148], [114.263743, 22.306941]]}}, {"type": "Feature", "properties": {"id": "ghost_VW5222_20240616092956", "plate_no": "VW5222", "gap_start_time": "2024-06-16T09:29:56", "gap_end_time": "2024-06-16T15:40:14", "gap_duration_min": 370.3, "wasted_distance_km": 0.001, "prev_trip": "DA240616001701", "next_trip": "DA240616001702", "prev_O": [114.2687672, 22.3166476], "next_O": [114.2633643, 22.306645]}, "geometry": {"type": "LineString", "coordinates": [[114.263745, 22.306873], [114.263743, 22.306878]]}}, {"type": "Feature", "properties": {"id": "ghost_VW895_20240616093620", "plate_no": "VW895", "gap_start_time": "2024-06-16T09:36:20", "gap_end_time": "2024-06-16T10:45:20", "gap_duration_min": 69.0, "wasted_distance_km": 1.291, "prev_trip": "DA240616015701", "next_trip": "DA240616010001", "prev_O": [114.2183846, 22.3955654], "next_O": [113.976817, 22.387882]}, "geometry": {"type": "LineString", "coordinates": [[113.975466, 22.399453], [113.977241, 22.387961]]}}, {"type": "Feature", "properties": {"id": "ghost_VY5967_20240616112352", "plate_no": "VY5967", "gap_start_time": "2024-06-16T11:23:52", "gap_end_time": "2024-06-16T17:00:08", "gap_duration_min": 336.27, "wasted_distance_km": 20.026, "prev_trip": "DA240616000402", "next_trip": "DA240616008411", "prev_O": [114.2174678, 22.3987589], "next_O": [114.0412819, 22.3129666]}, "geometry": {"type": "LineString", "coordinates": [[114.21711, 22.398408], [114.04384, 22.316203]]}}, {"type": "Feature", "properties": {"id": "ghost_VY8279_20240616094516", "plate_no": "VY8279", "gap_start_time": "2024-06-16T09:45:16", "gap_end_time": "2024-06-16T11:30:13", "gap_duration_min": 104.95, "wasted_distance_km": 0.064, "prev_trip": "DA240616001201", "next_trip": "DA240616020411", "prev_O": [114.2535612, 22.3021561], "next_O": [114.1982293, 22.3342423]}, "geometry": {"type": "LineString", "coordinates": [[114.198285, 22.334666], [114.197986, 22.33416]]}}, {"type": "Feature", "properties": {"id": "ghost_VY8279_20240616114443", "plate_no": "VY8279", "gap_start_time": "2024-06-16T11:44:43", "gap_end_time": "2024-06-16T16:30:10", "gap_duration_min": 285.45, "wasted_distance_km": 10.281, "prev_trip": "DA240616020411", "next_trip": "DA240616006502", "prev_O": [114.1982293, 22.3342423], "next_O": [114.1642456, 22.2463683]}, "geometry": {"type": "LineString", "coordinates": [[114.205901, 22.33128], [114.166195, 22.246433]]}}, {"type": "Feature", "properties": {"id": "ghost_WN9331_20240616102046", "plate_no": "WN9331", "gap_start_time": "2024-06-16T10:20:46", "gap_end_time": "2024-06-16T17:00:01", "gap_duration_min": 399.25, "wasted_distance_km": 10.699, "prev_trip": "DA240616001801", "next_trip": "DA240616022102", "prev_O": [114.2104563, 22.4134558], "next_O": [114.1999667, 22.3927796]}, "geometry": {"type": "LineString", "coordinates": [[114.176306, 22.300656], [114.201481, 22.394011]]}}, {"type": "Feature", "properties": {"id": "ghost_WP3825_20240616113050", "plate_no": "WP3825", "gap_start_time": "2024-06-16T11:30:50", "gap_end_time": "2024-06-16T15:00:06", "gap_duration_min": 209.27, "wasted_distance_km": 0.271, "prev_trip": "DA240616002411", "next_trip": "DA240616002511", "prev_O": [114.1547575, 22.3289815], "next_O": [114.1941178, 22.2884225]}, "geometry": {"type": "LineString", "coordinates": [[114.196033, 22.290285], [114.194743, 22.288163]]}}, {"type": "Feature", "properties": {"id": "ghost_WP510_20240616090930", "plate_no": "WP510", "gap_start_time": "2024-06-16T09:09:30", "gap_end_time": "2024-06-16T12:40:28", "gap_duration_min": 210.97, "wasted_distance_km": 0.005, "prev_trip": "DA240616000501", "next_trip": "DA240616000502", "prev_O": [114.1967664, 22.3885926], "next_O": [114.2174678, 22.3987589]}, "geometry": {"type": "LineString", "coordinates": [[114.217555, 22.398301], [114.21755, 22.398346]]}}, {"type": "Feature", "properties": {"id": "ghost_XE1372_20240616102818", "plate_no": "XE1372", "gap_start_time": "2024-06-16T10:28:18", "gap_end_time": "2024-06-16T13:30:23", "gap_duration_min": 182.08, "wasted_distance_km": 0.063, "prev_trip": "DA240616011001", "next_trip": "DA240616011002", "prev_O": [114.2567421, 22.3113053], "next_O": [114.2000013, 22.3338546]}, "geometry": {"type": "LineString", "coordinates": [[114.197766, 22.331281], [114.19783, 22.331841]]}}, {"type": "Feature", "properties": {"id": "ghost_XE2198_20240616085242", "plate_no": "XE2198", "gap_start_time": "2024-06-16T08:52:42", "gap_end_time": "2024-06-16T09:30:04", "gap_duration_min": 37.37, "wasted_distance_km": 7.651, "prev_trip": "DA240616001601", "next_trip": "DA240616016011", "prev_O": [114.196076, 22.388196], "next_O": [114.1747755, 22.4612811]}, "geometry": {"type": "LineString", "coordinates": [[114.19867, 22.395578], [114.174788, 22.460751]]}}, {"type": "Feature", "properties": {"id": "ghost_XE2198_20240616094703", "plate_no": "XE2198", "gap_start_time": "2024-06-16T09:47:03", "gap_end_time": "2024-06-16T10:45:32", "gap_duration_min": 58.48, "wasted_distance_km": 2.537, "prev_trip": "DA240616016011", "next_trip": "DA240616001602", "prev_O": [114.1747755, 22.4612811], "next_O": [114.1995284, 22.3966363]}, "geometry": {"type": "LineString", "coordinates": [[114.21335, 22.414083], [114.198801, 22.395653]]}}, {"type": "Feature", "properties": {"id": "ghost_XE7053_20240616095734", "plate_no": "XE7053", "gap_start_time": "2024-06-16T09:57:34", "gap_end_time": "2024-06-16T10:30:04", "gap_duration_min": 32.5, "wasted_distance_km": 5.126, "prev_trip": "DA240616004901", "next_trip": "DA240616017502", "prev_O": [114.2371957, 22.3060262], "next_O": [114.2225039, 22.3063736]}, "geometry": {"type": "LineString", "coordinates": [[114.173146, 22.30623], [114.222976, 22.306671]]}}, {"type": "Feature", "properties": {"id": "ghost_XE7053_20240616110704", "plate_no": "XE7053", "gap_start_time": "2024-06-16T11:07:04", "gap_end_time": "2024-06-16T16:01:25", "gap_duration_min": 294.35, "wasted_distance_km": 3.221, "prev_trip": "DA240616017502", "next_trip": "DA240616019202", "prev_O": [114.2225039, 22.3063736], "next_O": [114.1623477, 22.3152239]}, "geometry": {"type": "LineString", "coordinates": [[114.157436, 22.340586], [114.164701, 22.312406]]}}, {"type": "Feature", "properties": {"id": "ghost_XE7053_20240616170455", "plate_no": "XE7053", "gap_start_time": "2024-06-16T17:04:55", "gap_end_time": "2024-06-16T18:00:25", "gap_duration_min": 55.5, "wasted_distance_km": 1.86, "prev_trip": "DA240616019202", "next_trip": "DA240616005011", "prev_O": [114.1623477, 22.3152239], "next_O": [114.1613761, 22.3200828]}, "geometry": {"type": "LineString", "coordinates": [[114.171753, 22.330801], [114.160625, 22.317618]]}}, {"type": "Feature", "properties": {"id": "ghost_XE953_20240616104515", "plate_no": "XE953", "gap_start_time": "2024-06-16T10:45:15", "gap_end_time": "2024-06-16T14:30:14", "gap_duration_min": 224.98, "wasted_distance_km": 10.904, "prev_trip": "DA240616009011", "next_trip": "DA240616001802", "prev_O": [114.2419046, 22.42537], "next_O": [114.174763, 22.299489]}, "geometry": {"type": "LineString", "coordinates": [[114.208203, 22.392235], [114.174435, 22.299278]]}}, {"type": "Feature", "properties": {"id": "ghost_XE953_20240616150044", "plate_no": "XE953", "gap_start_time": "2024-06-16T15:00:44", "gap_end_time": "2024-06-16T18:30:10", "gap_duration_min": 209.43, "wasted_distance_km": 9.604, "prev_trip": "DA240616001802", "next_trip": "DA240616017111", "prev_O": [114.174763, 22.299489], "next_O": [114.157538, 22.3352184]}, "geometry": {"type": "LineString", "coordinates": [[114.20002, 22.41313], [114.15831, 22.335851]]}}, {"type": "Feature", "properties": {"id": "ghost_XM9047_20240616093932", "plate_no": "XM9047", "gap_start_time": "2024-06-16T09:39:32", "gap_end_time": "2024-06-16T13:45:06", "gap_duration_min": 245.57, "wasted_distance_km": 5.247, "prev_trip": "DA240616012101", "next_trip": "DA240616018611", "prev_O": [114.2183846, 22.3955654], "next_O": [114.1553397, 22.3269958]}, "geometry": {"type": "LineString", "coordinates": [[114.130955, 22.286021], [114.15545, 22.327408]]}}, {"type": "Feature", "properties": {"id": "ghost_XM9877_20240616110321", "plate_no": "XM9877", "gap_start_time": "2024-06-16T11:03:21", "gap_end_time": "2024-06-16T13:30:01", "gap_duration_min": 146.67, "wasted_distance_km": 6.139, "prev_trip": "DA240616005401", "next_trip": "DA240616002611", "prev_O": [114.2325252, 22.3070949], "next_O": [114.1643429, 22.3340746]}, "geometry": {"type": "LineString", "coordinates": [[114.205063, 22.29319], [114.164688, 22.333846]]}}, {"type": "Feature", "properties": {"id": "ghost_XM9877_20240616143441", "plate_no": "XM9877", "gap_start_time": "2024-06-16T14:34:41", "gap_end_time": "2024-06-16T16:16:54", "gap_duration_min": 102.22, "wasted_distance_km": 5.864, "prev_trip": "DA240616002611", "next_trip": "DA240616006202", "prev_O": [114.1643429, 22.3340746], "next_O": [114.1821226, 22.2768126]}, "geometry": {"type": "LineString", "coordinates": [[114.126275, 22.273181], [114.18284, 22.279595]]}}, {"type": "Feature", "properties": {"id": "ghost_XV2836_20240616085051", "plate_no": "XV2836", "gap_start_time": "2024-06-16T08:50:51", "gap_end_time": "2024-06-16T12:10:16", "gap_duration_min": 199.42, "wasted_distance_km": 0.006, "prev_trip": "DA240616010711", "next_trip": "DA240616002111", "prev_O": [114.2427183, 22.2646264], "next_O": [114.2337094, 22.262039]}, "geometry": {"type": "LineString", "coordinates": [[114.233276, 22.261801], [114.233263, 22.261745]]}}, {"type": "Feature", "properties": {"id": "ghost_YK3534_20240616090916", "plate_no": "YK3534", "gap_start_time": "2024-06-16T09:09:16", "gap_end_time": "2024-06-16T13:50:28", "gap_duration_min": 281.2, "wasted_distance_km": 10.174, "prev_trip": "DA240616011611", "next_trip": "DA240616020611", "prev_O": [114.2110747, 22.3283168], "next_O": [114.1272602, 22.2805453]}, "geometry": {"type": "LineString", "coordinates": [[114.222525, 22.308885], [114.128711, 22.279946]]}}, {"type": "Feature", "properties": {"id": "ghost_YK4725_20240616083254", "plate_no": "YK4725", "gap_start_time": "2024-06-16T08:32:54", "gap_end_time": "2024-06-16T09:45:24", "gap_duration_min": 72.5, "wasted_distance_km": 3.284, "prev_trip": "DA240616017001", "next_trip": "DA240616022401", "prev_O": [114.2702546, 22.2944817], "next_O": [114.2303659, 22.2776466]}, "geometry": {"type": "LineString", "coordinates": [[114.202138, 22.291485], [114.23038, 22.277723]]}}, {"type": "Feature", "properties": {"id": "ghost_YK4725_20240616101424", "plate_no": "YK4725", "gap_start_time": "2024-06-16T10:14:24", "gap_end_time": "2024-06-16T13:30:24", "gap_duration_min": 196.0, "wasted_distance_km": 8.727, "prev_trip": "DA240616022401", "next_trip": "DA240616010902", "prev_O": [114.2303659, 22.2776466], "next_O": [114.2000013, 22.3338546]}, "geometry": {"type": "LineString", "coordinates": [[114.222991, 22.406216], [114.19876, 22.331003]]}}, {"type": "Feature", "properties": {"id": "ghost_YK4725_20240616140424", "plate_no": "YK4725", "gap_start_time": "2024-06-16T14:04:24", "gap_end_time": "2024-06-16T18:00:23", "gap_duration_min": 235.98, "wasted_distance_km": 2.798, "prev_trip": "DA240616010902", "next_trip": "DA240616015502", "prev_O": [114.2000013, 22.3338546], "next_O": [114.271719, 22.290581]}, "geometry": {"type": "LineString", "coordinates": [[114.257301, 22.311233], [114.271946, 22.290031]]}}, {"type": "Feature", "properties": {"id": "ghost_YK6404_20240616094505", "plate_no": "YK6404", "gap_start_time": "2024-06-16T09:45:05", "gap_end_time": "2024-06-16T12:00:00", "gap_duration_min": 134.92, "wasted_distance_km": 0.354, "prev_trip": "DA240616011211", "next_trip": "DA240616011311", "prev_O": [114.2539578, 22.3231962], "next_O": [114.2626474, 22.3145726]}, "geometry": {"type": "LineString", "coordinates": [[114.265591, 22.317276], [114.262723, 22.315511]]}}, {"type": "Feature", "properties": {"id": "ghost_YK7541_20240616122103", "plate_no": "YK7541", "gap_start_time": "2024-06-16T12:21:03", "gap_end_time": "2024-06-16T16:00:27", "gap_duration_min": 219.4, "wasted_distance_km": 5.846, "prev_trip": "DA240616000202", "next_trip": "DA240616009902", "prev_O": [114.1749415, 22.3700097], "next_O": [114.1225052, 22.3682938]}, "geometry": {"type": "LineString", "coordinates": [[114.179053, 22.368288], [114.122198, 22.367938]]}}, {"type": "Feature", "properties": {"id": "ghost_YL6700_20240616090100", "plate_no": "YL6700", "gap_start_time": "2024-06-16T09:01:00", "gap_end_time": "2024-06-16T11:45:12", "gap_duration_min": 164.2, "wasted_distance_km": 12.723, "prev_trip": "DA240616000801", "next_trip": "DA240616006611", "prev_O": [114.2294373, 22.4161286], "next_O": [114.1913558, 22.2872008]}, "geometry": {"type": "LineString", "coordinates": [[114.217496, 22.39856], [114.192256, 22.286548]]}}, {"type": "Feature", "properties": {"id": "ghost_YL714_20240616092924", "plate_no": "YL714", "gap_start_time": "2024-06-16T09:29:24", "gap_end_time": "2024-06-16T11:46:33", "gap_duration_min": 137.15, "wasted_distance_km": 0.175, "prev_trip": "DA240616002711", "next_trip": "DA240616002811", "prev_O": [114.1824387, 22.3166818], "next_O": [114.182692, 22.31886]}, "geometry": {"type": "LineString", "coordinates": [[114.18252, 22.314453], [114.181833, 22.315896]]}}, {"type": "Feature", "properties": {"id": "ghost_YL9716_20240616104111", "plate_no": "YL9716", "gap_start_time": "2024-06-16T10:41:11", "gap_end_time": "2024-06-16T12:40:29", "gap_duration_min": 119.3, "wasted_distance_km": 0.013, "prev_trip": "DA240616011901", "next_trip": "DA240616011902", "prev_O": [114.226377, 22.2763558], "next_O": [114.1802128, 22.2763155]}, "geometry": {"type": "LineString", "coordinates": [[114.180011, 22.276453], [114.180018, 22.276566]]}}, {"type": "Feature", "properties": {"id": "ghost_YL9716_20240616125259", "plate_no": "YL9716", "gap_start_time": "2024-06-16T12:52:59", "gap_end_time": "2024-06-16T14:30:17", "gap_duration_min": 97.3, "wasted_distance_km": 12.584, "prev_trip": "DA240616011902", "next_trip": "DA240616022902", "prev_O": [114.1802128, 22.2763155], "next_O": [114.208881, 22.3887091]}, "geometry": {"type": "LineString", "coordinates": [[114.225945, 22.277921], [114.209325, 22.390043]]}}, {"type": "Feature", "properties": {"id": "ghost_YY7490_20240616103452", "plate_no": "YY7490", "gap_start_time": "2024-06-16T10:34:52", "gap_end_time": "2024-06-16T11:00:22", "gap_duration_min": 25.5, "wasted_distance_km": 6.857, "prev_trip": "DA240616001101", "next_trip": "DA240616014111", "prev_O": [114.1927476, 22.2834462], "next_O": [114.2213808, 22.283837]}, "geometry": {"type": "LineString", "coordinates": [[114.155218, 22.279586], [114.221695, 22.283888]]}}, {"type": "Feature", "properties": {"id": "ghost_YZ2545_20240616121952", "plate_no": "YZ2545", "gap_start_time": "2024-06-16T12:19:52", "gap_end_time": "2024-06-16T16:00:27", "gap_duration_min": 220.58, "wasted_distance_km": 11.558, "prev_trip": "DA240616016111", "next_trip": "DA240616012002", "prev_O": [114.2113817, 22.4136093], "next_O": [114.118893, 22.369665]}, "geometry": {"type": "LineString", "coordinates": [[114.174825, 22.460898], [114.120051, 22.370118]]}}, {"type": "Feature", "properties": {"id": "ghost_ZA3406_20240616153549", "plate_no": "ZA3406", "gap_start_time": "2024-06-16T15:35:49", "gap_end_time": "2024-06-16T17:00:21", "gap_duration_min": 84.53, "wasted_distance_km": 11.848, "prev_trip": "DA240616023202", "next_trip": "DA240616007611", "prev_O": [114.156316, 22.317545], "next_O": [114.0412819, 22.3129666]}, "geometry": {"type": "LineString", "coordinates": [[114.157636, 22.33433], [114.044113, 22.316293]]}}, {"type": "Feature", "properties": {"id": "ghost_ZA6941_20240616085649", "plate_no": "ZA6941", "gap_start_time": "2024-06-16T08:56:49", "gap_end_time": "2024-06-16T15:30:00", "gap_duration_min": 393.18, "wasted_distance_km": 2.45, "prev_trip": "DA240616010401", "next_trip": "DA240616003411", "prev_O": [114.2387944, 22.2764682], "next_O": [114.1671202, 22.3285306]}, "geometry": {"type": "LineString", "coordinates": [[114.187738, 22.3177], [114.16684, 22.32828]]}}]}