{"type": "FeatureCollection", "features": [{"type": "Feature", "properties": {"id": "ghost_RH3326_20240624092513", "plate_no": "RH3326", "gap_start_time": "2024-06-24T09:25:13", "gap_end_time": "2024-06-24T12:35:21", "gap_duration_min": 190.13, "wasted_distance_km": 4.58, "prev_trip": "DA240624003511", "next_trip": "DA240624041511", "prev_O": [114.2365271, 22.2631632], "next_O": [114.1323065, 22.2661136]}, "geometry": {"type": "LineString", "coordinates": [[114.175681, 22.274671], [114.132015, 22.266693]]}}, {"type": "Feature", "properties": {"id": "ghost_RV4210_20240624085505", "plate_no": "RV4210", "gap_start_time": "2024-06-24T08:55:05", "gap_end_time": "2024-06-24T10:45:09", "gap_duration_min": 110.07, "wasted_distance_km": 6.383, "prev_trip": "DA240624000301", "next_trip": "DA240624045502", "prev_O": [114.1266489, 22.3476314], "next_O": [114.1743747, 22.3091816]}, "geometry": {"type": "LineString", "coordinates": [[114.127555, 22.347846], [114.173141, 22.3089]]}}, {"type": "Feature", "properties": {"id": "ghost_TC6931_20240624202823", "plate_no": "TC6931", "gap_start_time": "2024-06-24T20:28:23", "gap_end_time": "2024-06-24T21:05:23", "gap_duration_min": 37.0, "wasted_distance_km": 6.306, "prev_trip": "DA240624026302", "next_trip": "DA240624024402", "prev_O": [114.2270078, 22.323232], "next_O": [114.1534396, 22.3379973]}, "geometry": {"type": "LineString", "coordinates": [[114.21572, 22.321786], [114.156948, 22.337921]]}}, {"type": "Feature", "properties": {"id": "ghost_TD7860_20240624081612", "plate_no": "TD7860", "gap_start_time": "2024-06-24T08:16:12", "gap_end_time": "2024-06-24T14:25:08", "gap_duration_min": 368.93, "wasted_distance_km": 7.263, "prev_trip": "DA240624010901", "next_trip": "DA240624005902", "prev_O": [114.1819743, 22.3714238], "next_O": [114.173077, 22.4611085]}, "geometry": {"type": "LineString", "coordinates": [[114.19366, 22.398971], [114.173271, 22.46151]]}}, {"type": "Feature", "properties": {"id": "ghost_TF2479_20240624180452", "plate_no": "TF2479", "gap_start_time": "2024-06-24T18:04:52", "gap_end_time": "2024-06-24T19:00:18", "gap_duration_min": 55.43, "wasted_distance_km": 4.385, "prev_trip": "DA240624009002", "next_trip": "DA240624020811", "prev_O": [114.1683661, 22.3387385], "next_O": [114.2009991, 22.289963]}, "geometry": {"type": "LineString", "coordinates": [[114.234575, 22.265383], [114.199008, 22.287106]]}}, {"type": "Feature", "properties": {"id": "ghost_TF6298_20240624133839", "plate_no": "TF6298", "gap_start_time": "2024-06-24T13:38:39", "gap_end_time": "2024-06-24T14:45:09", "gap_duration_min": 66.5, "wasted_distance_km": 2.339, "prev_trip": "DA240624038602", "next_trip": "DA240624004111", "prev_O": [114.161759, 22.28237], "next_O": [114.2336165, 22.2637098]}, "geometry": {"type": "LineString", "coordinates": [[114.222355, 22.282415], [114.232921, 22.26379]]}}, {"type": "Feature", "properties": {"id": "ghost_TW274_20240624095649", "plate_no": "TW274", "gap_start_time": "2024-06-24T09:56:49", "gap_end_time": "2024-06-24T14:00:23", "gap_duration_min": 243.57, "wasted_distance_km": 1.745, "prev_trip": "DA240624019401", "next_trip": "DA240624022901", "prev_O": [114.1430877, 22.2850022], "next_O": [114.1866201, 22.3146669]}, "geometry": {"type": "LineString", "coordinates": [[114.170031, 22.302995], [114.184685, 22.310905]]}}, {"type": "Feature", "properties": {"id": "ghost_TW6581_20240624114522", "plate_no": "TW6581", "gap_start_time": "2024-06-24T11:45:22", "gap_end_time": "2024-06-24T14:00:27", "gap_duration_min": 135.08, "wasted_distance_km": 0.092, "prev_trip": "DA240624037101", "next_trip": "DA240624037102", "prev_O": [113.9658671, 22.4067362], "next_O": [114.1475583, 22.3360897]}, "geometry": {"type": "LineString", "coordinates": [[114.148386, 22.33611], [114.147548, 22.335825]]}}, {"type": "Feature", "properties": {"id": "ghost_TX9769_20240624101009", "plate_no": "TX9769", "gap_start_time": "2024-06-24T10:10:09", "gap_end_time": "2024-06-24T14:05:01", "gap_duration_min": 234.87, "wasted_distance_km": 9.42, "prev_trip": "DA240624037901", "next_trip": "DA240624038201", "prev_O": [114.2352605, 22.3197603], "next_O": [114.1843694, 22.3404435]}, "geometry": {"type": "LineString", "coordinates": [[114.233768, 22.269123], [114.184798, 22.340703]]}}, {"type": "Feature", "properties": {"id": "ghost_UL3556_20240624070737", "plate_no": "UL3556", "gap_start_time": "2024-06-24T07:07:37", "gap_end_time": "2024-06-24T08:00:18", "gap_duration_min": 52.68, "wasted_distance_km": 0.227, "prev_trip": "DA240624018711", "next_trip": "DA240624003701", "prev_O": [114.1917521, 22.3405523], "next_O": [114.17302, 22.2774003]}, "geometry": {"type": "LineString", "coordinates": [[114.17492, 22.279063], [114.173361, 22.277618]]}}, {"type": "Feature", "properties": {"id": "ghost_UL4469_20240624090148", "plate_no": "UL4469", "gap_start_time": "2024-06-24T09:01:48", "gap_end_time": "2024-06-24T09:55:24", "gap_duration_min": 53.6, "wasted_distance_km": 4.036, "prev_trip": "DA240624010301", "next_trip": "DA240624019711", "prev_O": [114.137108, 22.5004969], "next_O": [114.2028038, 22.4017167]}, "geometry": {"type": "LineString", "coordinates": [[114.173971, 22.377251], [114.20261, 22.402078]]}}, {"type": "Feature", "properties": {"id": "ghost_UL7617_20240624093131", "plate_no": "UL7617", "gap_start_time": "2024-06-24T09:31:31", "gap_end_time": "2024-06-24T13:05:31", "gap_duration_min": 214.0, "wasted_distance_km": 9.788, "prev_trip": "DA240624008501", "next_trip": "DA240624039111", "prev_O": [114.0015178, 22.4691353], "next_O": [114.0245317, 22.4503862]}, "geometry": {"type": "LineString", "coordinates": [[113.966568, 22.377738], [114.021481, 22.449646]]}}, {"type": "Feature", "properties": {"id": "ghost_UL7804_20240624100153", "plate_no": "UL7804", "gap_start_time": "2024-06-24T10:01:53", "gap_end_time": "2024-06-24T16:00:07", "gap_duration_min": 358.23, "wasted_distance_km": 8.651, "prev_trip": "DA240624044011", "next_trip": "DA240624009302", "prev_O": [114.1832816, 22.3250389], "next_O": [114.199216, 22.380851]}, "geometry": {"type": "LineString", "coordinates": [[114.172281, 22.307073], [114.199143, 22.380803]]}}, {"type": "Feature", "properties": {"id": "ghost_UL7804_20240624161307", "plate_no": "UL7804", "gap_start_time": "2024-06-24T16:13:07", "gap_end_time": "2024-06-24T16:45:20", "gap_duration_min": 32.22, "wasted_distance_km": 1.605, "prev_trip": "DA240624009302", "next_trip": "DA240624017102", "prev_O": [114.199216, 22.380851], "next_O": [114.2014147, 22.3788502]}, "geometry": {"type": "LineString", "coordinates": [[114.217085, 22.380226], [114.201596, 22.37841]]}}, {"type": "Feature", "properties": {"id": "ghost_UM4207_20240624095235", "plate_no": "UM4207", "gap_start_time": "2024-06-24T09:52:35", "gap_end_time": "2024-06-24T12:10:33", "gap_duration_min": 137.97, "wasted_distance_km": 0.234, "prev_trip": "DA240624033101", "next_trip": "DA240624033102", "prev_O": [114.15078, 22.329662], "next_O": [114.1795767, 22.3045633]}, "geometry": {"type": "LineString", "coordinates": [[114.176643, 22.303176], [114.178761, 22.302418]]}}, {"type": "Feature", "properties": {"id": "ghost_UM4207_20240624122933", "plate_no": "UM4207", "gap_start_time": "2024-06-24T12:29:33", "gap_end_time": "2024-06-24T13:15:28", "gap_duration_min": 45.92, "wasted_distance_km": 3.959, "prev_trip": "DA240624033102", "next_trip": "DA240624011401", "prev_O": [114.1795767, 22.3045633], "next_O": [114.192605, 22.338409]}, "geometry": {"type": "LineString", "coordinates": [[114.154473, 22.331113], [114.19237, 22.337348]]}}, {"type": "Feature", "properties": {"id": "ghost_UN9790_20240624084212", "plate_no": "UN9790", "gap_start_time": "2024-06-24T08:42:12", "gap_end_time": "2024-06-24T09:15:43", "gap_duration_min": 33.52, "wasted_distance_km": 1.508, "prev_trip": "DA240624009501", "next_trip": "DA240624001911", "prev_O": [114.113489, 22.361165], "next_O": [114.1236864, 22.362922]}, "geometry": {"type": "LineString", "coordinates": [[114.105878, 22.36015], [114.120233, 22.3629]]}}, {"type": "Feature", "properties": {"id": "ghost_UP3870_20240624110209", "plate_no": "UP3870", "gap_start_time": "2024-06-24T11:02:09", "gap_end_time": "2024-06-24T13:45:01", "gap_duration_min": 162.87, "wasted_distance_km": 5.046, "prev_trip": "DA240624017911", "next_trip": "DA240624024911", "prev_O": [114.1406265, 22.249562], "next_O": [114.192812, 22.308068]}, "geometry": {"type": "LineString", "coordinates": [[114.147658, 22.288438], [114.191908, 22.308013]]}}, {"type": "Feature", "properties": {"id": "ghost_UP4016_20240624084605", "plate_no": "UP4016", "gap_start_time": "2024-06-24T08:46:05", "gap_end_time": "2024-06-24T09:30:08", "gap_duration_min": 44.05, "wasted_distance_km": 5.201, "prev_trip": "DA240624000811", "next_trip": "DA240624021901", "prev_O": [114.217242, 22.322492], "next_O": [114.137572, 22.3422418]}, "geometry": {"type": "LineString", "coordinates": [[114.18294, 22.322556], [114.137335, 22.34276]]}}, {"type": "Feature", "properties": {"id": "ghost_VA7459_20240624122421", "plate_no": "VA7459", "gap_start_time": "2024-06-24T12:24:21", "gap_end_time": "2024-06-24T15:40:15", "gap_duration_min": 195.9, "wasted_distance_km": 3.46, "prev_trip": "DA240624034901", "next_trip": "DA240624003102", "prev_O": [114.1943978, 22.401522], "next_O": [114.212997, 22.3358478]}, "geometry": {"type": "LineString", "coordinates": [[114.179971, 22.339155], [114.213396, 22.335645]]}}, {"type": "Feature", "properties": {"id": "ghost_VD1562_20240624101744", "plate_no": "VD1562", "gap_start_time": "2024-06-24T10:17:44", "gap_end_time": "2024-06-24T13:45:02", "gap_duration_min": 207.3, "wasted_distance_km": 7.573, "prev_trip": "DA240624012702", "next_trip": "DA240624038011", "prev_O": [114.134458, 22.341577], "next_O": [114.2017654, 22.3419211]}, "geometry": {"type": "LineString", "coordinates": [[114.130678, 22.363791], [114.20004, 22.340918]]}}, {"type": "Feature", "properties": {"id": "ghost_VD4748_20240624103017", "plate_no": "VD4748", "gap_start_time": "2024-06-24T10:30:17", "gap_end_time": "2024-06-24T13:00:10", "gap_duration_min": 149.88, "wasted_distance_km": 6.238, "prev_trip": "DA240624025101", "next_trip": "DA240624018902", "prev_O": [114.2009377, 22.2920835], "next_O": [114.1713296, 22.3304227]}, "geometry": {"type": "LineString", "coordinates": [[114.179821, 22.274888], [114.171975, 22.330516]]}}, {"type": "Feature", "properties": {"id": "ghost_VD6386_20240624113948", "plate_no": "VD6386", "gap_start_time": "2024-06-24T11:39:48", "gap_end_time": "2024-06-24T13:00:24", "gap_duration_min": 80.6, "wasted_distance_km": 4.381, "prev_trip": "DA240624039601", "next_trip": "DA240624037811", "prev_O": [113.9658671, 22.4067362], "next_O": [114.1919952, 22.3430278]}, "geometry": {"type": "LineString", "coordinates": [[114.14981, 22.336165], [114.191708, 22.343261]]}}, {"type": "Feature", "properties": {"id": "ghost_VD768_20240624090120", "plate_no": "VD768", "gap_start_time": "2024-06-24T09:01:20", "gap_end_time": "2024-06-24T15:45:28", "gap_duration_min": 404.13, "wasted_distance_km": 14.674, "prev_trip": "DA240624007301", "next_trip": "DA240624009502", "prev_O": [114.2270772, 22.2780082], "next_O": [114.1219651, 22.3714765]}, "geometry": {"type": "LineString", "coordinates": [[114.22573, 22.281085], [114.122065, 22.371746]]}}, {"type": "Feature", "properties": {"id": "ghost_VE7344_20240624165622", "plate_no": "VE7344", "gap_start_time": "2024-06-24T16:56:22", "gap_end_time": "2024-06-24T17:45:22", "gap_duration_min": 49.0, "wasted_distance_km": 3.707, "prev_trip": "DA240624021802", "next_trip": "DA240624038702", "prev_O": [114.1078444, 22.3781035], "next_O": [114.13489, 22.341561]}, "geometry": {"type": "LineString", "coordinates": [[114.121638, 22.371838], [114.131928, 22.339885]]}}, {"type": "Feature", "properties": {"id": "ghost_VE8500_20240624134309", "plate_no": "VE8500", "gap_start_time": "2024-06-24T13:43:09", "gap_end_time": "2024-06-24T15:40:08", "gap_duration_min": 116.98, "wasted_distance_km": 4.908, "prev_trip": "DA240624036401", "next_trip": "DA240624032402", "prev_O": [114.252958, 22.3065931], "next_O": [114.1777194, 22.2755944]}, "geometry": {"type": "LineString", "coordinates": [[114.130401, 22.270685], [114.177895, 22.274728]]}}, {"type": "Feature", "properties": {"id": "ghost_VG427_20240624114241", "plate_no": "VG427", "gap_start_time": "2024-06-24T11:42:41", "gap_end_time": "2024-06-24T13:45:19", "gap_duration_min": 122.63, "wasted_distance_km": 5.456, "prev_trip": "DA240624031211", "next_trip": "DA240624033911", "prev_O": [114.1178066, 22.3689762], "next_O": [114.2305221, 22.3074016]}, "geometry": {"type": "LineString", "coordinates": [[114.178775, 22.31736], [114.23077, 22.307661]]}}, {"type": "Feature", "properties": {"id": "ghost_VV6972_20240624152935", "plate_no": "VV6972", "gap_start_time": "2024-06-24T15:29:35", "gap_end_time": "2024-06-24T16:15:35", "gap_duration_min": 46.0, "wasted_distance_km": 3.654, "prev_trip": "DA240624031401", "next_trip": "DA240624022611", "prev_O": [114.1873018, 22.3262212], "next_O": [114.2076009, 22.3229496]}, "geometry": {"type": "LineString", "coordinates": [[114.175478, 22.308505], [114.207256, 22.323185]]}}, {"type": "Feature", "properties": {"id": "ghost_VV7298_20240624120855", "plate_no": "VV7298", "gap_start_time": "2024-06-24T12:08:55", "gap_end_time": "2024-06-24T15:10:18", "gap_duration_min": 181.38, "wasted_distance_km": 15.791, "prev_trip": "DA240624038902", "next_trip": "DA240624007802", "prev_O": [114.2361071, 22.2693076], "next_O": [114.1987643, 22.3804685]}, "geometry": {"type": "LineString", "coordinates": [[114.157691, 22.24349], [114.198991, 22.380263]]}}, {"type": "Feature", "properties": {"id": "ghost_VV7298_20240624155748", "plate_no": "VV7298", "gap_start_time": "2024-06-24T15:57:48", "gap_end_time": "2024-06-24T16:47:35", "gap_duration_min": 49.78, "wasted_distance_km": 0.391, "prev_trip": "DA240624007802", "next_trip": "DA240624010302", "prev_O": [114.1987643, 22.3804685], "next_O": [114.1700846, 22.3760056]}, "geometry": {"type": "LineString", "coordinates": [[114.17347, 22.373796], [114.174098, 22.377268]]}}, {"type": "Feature", "properties": {"id": "ghost_VW3473_20240624105607", "plate_no": "VW3473", "gap_start_time": "2024-06-24T10:56:07", "gap_end_time": "2024-06-24T13:00:07", "gap_duration_min": 124.0, "wasted_distance_km": 12.679, "prev_trip": "DA240624028501", "next_trip": "DA240624040301", "prev_O": [114.1203858, 22.3670155], "next_O": [114.1653236, 22.336504]}, "geometry": {"type": "LineString", "coordinates": [[114.167555, 22.450995], [114.165355, 22.336986]]}}, {"type": "Feature", "properties": {"id": "ghost_VW871_20240624145353", "plate_no": "VW871", "gap_start_time": "2024-06-24T14:53:53", "gap_end_time": "2024-06-24T16:00:21", "gap_duration_min": 66.47, "wasted_distance_km": 3.509, "prev_trip": "DA240624039602", "next_trip": "DA240624002202", "prev_O": [114.1475583, 22.3360897], "next_O": [113.9649146, 22.3748696]}, "geometry": {"type": "LineString", "coordinates": [[113.965375, 22.40693], [113.964875, 22.375378]]}}, {"type": "Feature", "properties": {"id": "ghost_VX2887_20240624123014", "plate_no": "VX2887", "gap_start_time": "2024-06-24T12:30:14", "gap_end_time": "2024-06-24T14:40:18", "gap_duration_min": 130.07, "wasted_distance_km": 7.912, "prev_trip": "DA240624014511", "next_trip": "DA240624000702", "prev_O": [114.2440146, 22.3214554], "next_O": [114.1831334, 22.3223645]}, "geometry": {"type": "LineString", "coordinates": [[114.2052, 22.390556], [114.182768, 22.322493]]}}, {"type": "Feature", "properties": {"id": "ghost_VX3591_20240624110354", "plate_no": "VX3591", "gap_start_time": "2024-06-24T11:03:54", "gap_end_time": "2024-06-24T14:25:01", "gap_duration_min": 201.12, "wasted_distance_km": 15.456, "prev_trip": "DA240624041801", "next_trip": "DA240624046801", "prev_O": [114.2159664, 22.2876331], "next_O": [114.1262385, 22.3636511]}, "geometry": {"type": "LineString", "coordinates": [[114.236176, 22.269238], [114.126208, 22.363951]]}}, {"type": "Feature", "properties": {"id": "ghost_VX3591_20240624144532", "plate_no": "VX3591", "gap_start_time": "2024-06-24T14:45:32", "gap_end_time": "2024-06-24T16:30:13", "gap_duration_min": 104.68, "wasted_distance_km": 0.263, "prev_trip": "DA240624046801", "next_trip": "DA240624046802", "prev_O": [114.1262385, 22.3636511], "next_O": [114.1691147, 22.3225511]}, "geometry": {"type": "LineString", "coordinates": [[114.169085, 22.323183], [114.169348, 22.320828]]}}, {"type": "Feature", "properties": {"id": "ghost_VY8279_20240624110643", "plate_no": "VY8279", "gap_start_time": "2024-06-24T11:06:43", "gap_end_time": "2024-06-24T14:25:05", "gap_duration_min": 198.37, "wasted_distance_km": 7.754, "prev_trip": "DA240624003211", "next_trip": "DA240624019502", "prev_O": [114.2380556, 22.2988889], "next_O": [114.1725229, 22.3019182]}, "geometry": {"type": "LineString", "coordinates": [[114.244208, 22.321796], [114.171988, 22.301833]]}}, {"type": "Feature", "properties": {"id": "ghost_WN8723_20240624103902", "plate_no": "WN8723", "gap_start_time": "2024-06-24T10:39:02", "gap_end_time": "2024-06-24T13:00:27", "gap_duration_min": 141.42, "wasted_distance_km": 1.04, "prev_trip": "DA240624023911", "next_trip": "DA240624007611", "prev_O": [114.230133, 22.312702], "next_O": [114.2289959, 22.3067374]}, "geometry": {"type": "LineString", "coordinates": [[114.239515, 22.30844], [114.22962, 22.306515]]}}, {"type": "Feature", "properties": {"id": "ghost_WN8723_20240624132157", "plate_no": "WN8723", "gap_start_time": "2024-06-24T13:21:57", "gap_end_time": "2024-06-24T14:40:27", "gap_duration_min": 78.5, "wasted_distance_km": 3.584, "prev_trip": "DA240624007611", "next_trip": "DA240624000911", "prev_O": [114.2289959, 22.3067374], "next_O": [114.1831334, 22.3223645]}, "geometry": {"type": "LineString", "coordinates": [[114.217776, 22.32285], [114.182938, 22.322531]]}}, {"type": "Feature", "properties": {"id": "ghost_WN8723_20240624155656", "plate_no": "WN8723", "gap_start_time": "2024-06-24T15:56:56", "gap_end_time": "2024-06-24T16:46:09", "gap_duration_min": 49.22, "wasted_distance_km": 0.015, "prev_trip": "DA240624000911", "next_trip": "DA240624007711", "prev_O": [114.1831334, 22.3223645], "next_O": [114.2182917, 22.3260159]}, "geometry": {"type": "LineString", "coordinates": [[114.217626, 22.324013], [114.217641, 22.324151]]}}, {"type": "Feature", "properties": {"id": "ghost_WN9331_20240624145116", "plate_no": "WN9331", "gap_start_time": "2024-06-24T14:51:16", "gap_end_time": "2024-06-24T15:45:15", "gap_duration_min": 53.98, "wasted_distance_km": 1.148, "prev_trip": "DA240624036511", "next_trip": "DA240624007302", "prev_O": [114.1736631, 22.3009048], "next_O": [114.2253505, 22.2821867]}, "geometry": {"type": "LineString", "coordinates": [[114.216243, 22.287395], [114.22586, 22.282153]]}}, {"type": "Feature", "properties": {"id": "ghost_WN9331_20240624155145", "plate_no": "WN9331", "gap_start_time": "2024-06-24T15:51:45", "gap_end_time": "2024-06-24T16:14:45", "gap_duration_min": 23.0, "wasted_distance_km": 5.216, "prev_trip": "DA240624007302", "next_trip": "DA240624011902", "prev_O": [114.2253505, 22.2821867], "next_O": [114.1762882, 22.2781796]}, "geometry": {"type": "LineString", "coordinates": [[114.225701, 22.282006], [114.175028, 22.280686]]}}, {"type": "Feature", "properties": {"id": "ghost_WN9331_20240624164115", "plate_no": "WN9331", "gap_start_time": "2024-06-24T16:41:15", "gap_end_time": "2024-06-24T17:33:17", "gap_duration_min": 52.03, "wasted_distance_km": 2.463, "prev_trip": "DA240624011902", "next_trip": "DA240624034202", "prev_O": [114.1762882, 22.2781796], "next_O": [114.1338213, 22.341361]}, "geometry": {"type": "LineString", "coordinates": [[114.156868, 22.334208], [114.13418, 22.341303]]}}, {"type": "Feature", "properties": {"id": "ghost_WP3825_20240624095423", "plate_no": "WP3825", "gap_start_time": "2024-06-24T09:54:23", "gap_end_time": "2024-06-24T13:01:32", "gap_duration_min": 187.15, "wasted_distance_km": 6.445, "prev_trip": "DA240624032711", "next_trip": "DA240624035001", "prev_O": [114.19728, 22.340631], "next_O": [114.2378009, 22.3051463]}, "geometry": {"type": "LineString", "coordinates": [[114.177881, 22.321195], [114.237991, 22.304861]]}}, {"type": "Feature", "properties": {"id": "ghost_WP4172_20240624161022", "plate_no": "WP4172", "gap_start_time": "2024-06-24T16:10:22", "gap_end_time": "2024-06-24T21:02:15", "gap_duration_min": 291.88, "wasted_distance_km": 8.632, "prev_trip": "DA240624007511", "next_trip": "DA240624022102", "prev_O": [114.222657, 22.3205314], "next_O": [114.179118, 22.27986]}, "geometry": {"type": "LineString", "coordinates": [[114.258248, 22.306486], [114.179323, 22.28016]]}}, {"type": "Feature", "properties": {"id": "ghost_WP923_20240624084723", "plate_no": "WP923", "gap_start_time": "2024-06-24T08:47:23", "gap_end_time": "2024-06-24T16:30:20", "gap_duration_min": 462.95, "wasted_distance_km": 0.237, "prev_trip": "DA240624007901", "next_trip": "DA240624039902", "prev_O": [114.23134, 22.42554], "next_O": [114.201222, 22.378404]}, "geometry": {"type": "LineString", "coordinates": [[114.200665, 22.37781], [114.201745, 22.37969]]}}, {"type": "Feature", "properties": {"id": "ghost_XE1886_20240624100959", "plate_no": "XE1886", "gap_start_time": "2024-06-24T10:09:59", "gap_end_time": "2024-06-24T13:15:08", "gap_duration_min": 185.15, "wasted_distance_km": 10.587, "prev_trip": "DA240624031611", "next_trip": "DA240624026501", "prev_O": [114.1888665, 22.3125821], "next_O": [114.1501361, 22.244705]}, "geometry": {"type": "LineString", "coordinates": [[114.229663, 22.305178], [114.150488, 22.244375]]}}, {"type": "Feature", "properties": {"id": "ghost_XE7168_20240624134934", "plate_no": "XE7168", "gap_start_time": "2024-06-24T13:49:34", "gap_end_time": "2024-06-24T18:30:04", "gap_duration_min": 280.5, "wasted_distance_km": 3.249, "prev_trip": "DA240624041301", "next_trip": "DA240624044111", "prev_O": [114.228673, 22.3119195], "next_O": [114.1598332, 22.3369568]}, "geometry": {"type": "LineString", "coordinates": [[114.130738, 22.34745], [114.160171, 22.336838]]}}, {"type": "Feature", "properties": {"id": "ghost_XE7898_20240624162337", "plate_no": "XE7898", "gap_start_time": "2024-06-24T16:23:37", "gap_end_time": "2024-06-24T17:00:07", "gap_duration_min": 36.5, "wasted_distance_km": 7.084, "prev_trip": "DA240624042102", "next_trip": "DA240624024111", "prev_O": [114.1529935, 22.2867563], "next_O": [114.1234441, 22.2711318]}, "geometry": {"type": "LineString", "coordinates": [[114.19088, 22.285185], [114.123755, 22.271018]]}}, {"type": "Feature", "properties": {"id": "ghost_XF1493_20240624092340", "plate_no": "XF1493", "gap_start_time": "2024-06-24T09:23:40", "gap_end_time": "2024-06-24T10:30:20", "gap_duration_min": 66.67, "wasted_distance_km": 18.533, "prev_trip": "DA240624007801", "next_trip": "DA240624039011", "prev_O": [114.1786768, 22.3729477], "next_O": [114.026732, 22.441765]}, "geometry": {"type": "LineString", "coordinates": [[114.194003, 22.380616], [114.026695, 22.442723]]}}, {"type": "Feature", "properties": {"id": "ghost_XM4556_20240624121531", "plate_no": "XM4556", "gap_start_time": "2024-06-24T12:15:31", "gap_end_time": "2024-06-24T15:30:28", "gap_duration_min": 194.95, "wasted_distance_km": 7.01, "prev_trip": "DA240624037011", "next_trip": "DA240624034311", "prev_O": [114.1154861, 22.363882], "next_O": [114.18052, 22.32278]}, "geometry": {"type": "LineString", "coordinates": [[114.135853, 22.371978], [114.179645, 22.32367]]}}, {"type": "Feature", "properties": {"id": "ghost_XM4556_20240624155528", "plate_no": "XM4556", "gap_start_time": "2024-06-24T15:55:28", "gap_end_time": "2024-06-24T17:00:28", "gap_duration_min": 65.0, "wasted_distance_km": 2.893, "prev_trip": "DA240624034311", "next_trip": "DA240624011402", "prev_O": [114.18052, 22.32278], "next_O": [114.1743747, 22.3091816]}, "geometry": {"type": "LineString", "coordinates": [[114.16913, 22.335761], [114.17502, 22.310325]]}}, {"type": "Feature", "properties": {"id": "ghost_XN6179_20240624161726", "plate_no": "XN6179", "gap_start_time": "2024-06-24T16:17:26", "gap_end_time": "2024-06-24T17:00:26", "gap_duration_min": 43.0, "wasted_distance_km": 3.548, "prev_trip": "DA240624028402", "next_trip": "DA240624006511", "prev_O": [114.2303424, 22.3079333], "next_O": [114.230334, 22.307947]}, "geometry": {"type": "LineString", "coordinates": [[114.263958, 22.316245], [114.23061, 22.30809]]}}, {"type": "Feature", "properties": {"id": "ghost_XU8126_20240624095245", "plate_no": "XU8126", "gap_start_time": "2024-06-24T09:52:45", "gap_end_time": "2024-06-24T12:00:06", "gap_duration_min": 127.35, "wasted_distance_km": 0.002, "prev_trip": "DA240624030201", "next_trip": "DA240624030202", "prev_O": [114.1270548, 22.2803232], "next_O": [114.1725258, 22.2518474]}, "geometry": {"type": "LineString", "coordinates": [[114.172921, 22.251733], [114.172925, 22.251715]]}}, {"type": "Feature", "properties": {"id": "ghost_XU8126_20240624122506", "plate_no": "XU8126", "gap_start_time": "2024-06-24T12:25:06", "gap_end_time": "2024-06-24T13:30:28", "gap_duration_min": 65.37, "wasted_distance_km": 2.705, "prev_trip": "DA240624030202", "next_trip": "DA240624027002", "prev_O": [114.1725258, 22.2518474], "next_O": [114.1551125, 22.2832982]}, "geometry": {"type": "LineString", "coordinates": [[114.130403, 22.277185], [114.156025, 22.282633]]}}, {"type": "Feature", "properties": {"id": "ghost_XV1460_20240624111958", "plate_no": "XV1460", "gap_start_time": "2024-06-24T11:19:58", "gap_end_time": "2024-06-24T12:15:23", "gap_duration_min": 55.42, "wasted_distance_km": 0.022, "prev_trip": "DA240624030401", "next_trip": "DA240624030402", "prev_O": [114.1325641, 22.266401], "next_O": [114.177655, 22.3010004]}, "geometry": {"type": "LineString", "coordinates": [[114.177071, 22.299931], [114.177266, 22.300008]]}}, {"type": "Feature", "properties": {"id": "ghost_XV2836_20240624095749", "plate_no": "XV2836", "gap_start_time": "2024-06-24T09:57:49", "gap_end_time": "2024-06-24T16:01:10", "gap_duration_min": 363.35, "wasted_distance_km": 3.07, "prev_trip": "DA240624001311", "next_trip": "DA240624020002", "prev_O": [114.1728298, 22.2766709], "next_O": [114.1466568, 22.2850671]}, "geometry": {"type": "LineString", "coordinates": [[114.171665, 22.271465], [114.147878, 22.288138]]}}, {"type": "Feature", "properties": {"id": "ghost_XV3002_20240624093115", "plate_no": "XV3002", "gap_start_time": "2024-06-24T09:31:15", "gap_end_time": "2024-06-24T12:45:16", "gap_duration_min": 194.02, "wasted_distance_km": 8.196, "prev_trip": "DA240624019301", "next_trip": "DA240624014702", "prev_O": [114.132811, 22.2630374], "next_O": [114.2236058, 22.2848009]}, "geometry": {"type": "LineString", "coordinates": [[114.144203, 22.284275], [114.223865, 22.284558]]}}, {"type": "Feature", "properties": {"id": "ghost_XV3002_20240624125246", "plate_no": "XV3002", "gap_start_time": "2024-06-24T12:52:46", "gap_end_time": "2024-06-24T13:15:01", "gap_duration_min": 22.25, "wasted_distance_km": 4.091, "prev_trip": "DA240624014702", "next_trip": "DA240624011001", "prev_O": [114.2236058, 22.2848009], "next_O": [114.2518599, 22.2626752]}, "geometry": {"type": "LineString", "coordinates": [[114.220918, 22.284473], [114.252233, 22.261811]]}}, {"type": "Feature", "properties": {"id": "ghost_XV3002_20240624133429", "plate_no": "XV3002", "gap_start_time": "2024-06-24T13:34:29", "gap_end_time": "2024-06-24T16:00:29", "gap_duration_min": 146.0, "wasted_distance_km": 3.936, "prev_trip": "DA240624011001", "next_trip": "DA240624008302", "prev_O": [114.2518599, 22.2626752], "next_O": [114.153821, 22.2754093]}, "geometry": {"type": "LineString", "coordinates": [[114.19062, 22.285551], [114.153968, 22.27542]]}}, {"type": "Feature", "properties": {"id": "ghost_XV3002_20240624162859", "plate_no": "XV3002", "gap_start_time": "2024-06-24T16:28:59", "gap_end_time": "2024-06-24T17:15:29", "gap_duration_min": 46.5, "wasted_distance_km": 3.907, "prev_trip": "DA240624008302", "next_trip": "DA240624011002", "prev_O": [114.153821, 22.2754093], "next_O": [114.1927721, 22.2860919]}, "geometry": {"type": "LineString", "coordinates": [[114.153688, 22.284711], [114.191648, 22.28578]]}}, {"type": "Feature", "properties": {"id": "ghost_XV4803_20240624135044", "plate_no": "XV4803", "gap_start_time": "2024-06-24T13:50:44", "gap_end_time": "2024-06-24T18:33:25", "gap_duration_min": 282.68, "wasted_distance_km": 8.571, "prev_trip": "DA240624040401", "next_trip": "DA240624005701", "prev_O": [114.1340802, 22.2621721], "next_O": [114.2270223, 22.2814869]}, "geometry": {"type": "LineString", "coordinates": [[114.145075, 22.286305], [114.228033, 22.279313]]}}, {"type": "Feature", "properties": {"id": "ghost_XV4803_20240624184255", "plate_no": "XV4803", "gap_start_time": "2024-06-24T18:42:55", "gap_end_time": "2024-06-24T21:00:25", "gap_duration_min": 137.5, "wasted_distance_km": 0.323, "prev_trip": "DA240624005701", "next_trip": "DA240624005602", "prev_O": [114.2270223, 22.2814869], "next_O": [114.2326181, 22.2638891]}, "geometry": {"type": "LineString", "coordinates": [[114.236021, 22.263068], [114.233291, 22.261633]]}}, {"type": "Feature", "properties": {"id": "ghost_XV7112_20240624112454", "plate_no": "XV7112", "gap_start_time": "2024-06-24T11:24:54", "gap_end_time": "2024-06-24T14:00:06", "gap_duration_min": 155.2, "wasted_distance_km": 11.687, "prev_trip": "DA240624020111", "next_trip": "DA240624017101", "prev_O": [114.1263247, 22.3461832], "next_O": [114.2253605, 22.4230226]}, "geometry": {"type": "LineString", "coordinates": [[114.2609, 22.322506], [114.225473, 22.422371]]}}, {"type": "Feature", "properties": {"id": "ghost_XV7112_20240624141606", "plate_no": "XV7112", "gap_start_time": "2024-06-24T14:16:06", "gap_end_time": "2024-06-24T15:00:06", "gap_duration_min": 44.0, "wasted_distance_km": 0.618, "prev_trip": "DA240624017101", "next_trip": "DA240624007902", "prev_O": [114.2253605, 22.4230226], "next_O": [114.1987643, 22.3804685]}, "geometry": {"type": "LineString", "coordinates": [[114.204925, 22.379136], [114.199068, 22.380385]]}}, {"type": "Feature", "properties": {"id": "ghost_YK3534_20240624101851", "plate_no": "YK3534", "gap_start_time": "2024-06-24T10:18:51", "gap_end_time": "2024-06-24T13:30:26", "gap_duration_min": 191.58, "wasted_distance_km": 5.903, "prev_trip": "DA240624045611", "next_trip": "DA240624010501", "prev_O": [114.2371226, 22.3007896], "next_O": [114.1910075, 22.3429899]}, "geometry": {"type": "LineString", "coordinates": [[114.24407, 22.321495], [114.191353, 22.342476]]}}, {"type": "Feature", "properties": {"id": "ghost_YK3534_20240624133956", "plate_no": "YK3534", "gap_start_time": "2024-06-24T13:39:56", "gap_end_time": "2024-06-24T14:50:26", "gap_duration_min": 70.5, "wasted_distance_km": 1.752, "prev_trip": "DA240624010501", "next_trip": "DA240624006911", "prev_O": [114.1910075, 22.3429899], "next_O": [114.192478, 22.338538]}, "geometry": {"type": "LineString", "coordinates": [[114.181953, 22.327473], [114.194156, 22.338471]]}}, {"type": "Feature", "properties": {"id": "ghost_YK4725_20240624105250", "plate_no": "YK4725", "gap_start_time": "2024-06-24T10:52:50", "gap_end_time": "2024-06-24T15:35:20", "gap_duration_min": 282.5, "wasted_distance_km": 3.18, "prev_trip": "DA240624011901", "next_trip": "DA240624039402", "prev_O": [114.1565225, 22.3342843], "next_O": [114.1743747, 22.3091816]}, "geometry": {"type": "LineString", "coordinates": [[114.174371, 22.281085], [114.174925, 22.309683]]}}, {"type": "Feature", "properties": {"id": "ghost_YK4725_20240624154019", "plate_no": "YK4725", "gap_start_time": "2024-06-24T15:40:19", "gap_end_time": "2024-06-24T16:30:20", "gap_duration_min": 50.02, "wasted_distance_km": 4.316, "prev_trip": "DA240624039402", "next_trip": "DA240624038802", "prev_O": [114.1743747, 22.3091816], "next_O": [114.2286568, 22.3119002]}, "geometry": {"type": "LineString", "coordinates": [[114.185066, 22.308735], [114.226885, 22.311903]]}}, {"type": "Feature", "properties": {"id": "ghost_YK7398_20240624094300", "plate_no": "YK7398", "gap_start_time": "2024-06-24T09:43:00", "gap_end_time": "2024-06-24T12:15:21", "gap_duration_min": 152.35, "wasted_distance_km": 9.143, "prev_trip": "DA240624041001", "next_trip": "DA240624024311", "prev_O": [114.190706, 22.342478], "next_O": [114.2302479, 22.308176]}, "geometry": {"type": "LineString", "coordinates": [[114.184635, 22.377443], [114.228583, 22.305965]]}}, {"type": "Feature", "properties": {"id": "ghost_YK9007_20240624132422", "plate_no": "YK9007", "gap_start_time": "2024-06-24T13:24:22", "gap_end_time": "2024-06-24T14:30:22", "gap_duration_min": 66.0, "wasted_distance_km": 3.797, "prev_trip": "DA240624008301", "next_trip": "DA240624042101", "prev_O": [114.1500007, 22.2852085], "next_O": [114.1911793, 22.2849054]}, "geometry": {"type": "LineString", "coordinates": [[114.154985, 22.277226], [114.190898, 22.285093]]}}, {"type": "Feature", "properties": {"id": "ghost_YK905_20240624083345", "plate_no": "YK905", "gap_start_time": "2024-06-24T08:33:45", "gap_end_time": "2024-06-24T12:30:06", "gap_duration_min": 236.35, "wasted_distance_km": 3.42, "prev_trip": "DA240624043911", "next_trip": "DA240624029311", "prev_O": [114.159871, 22.336948], "next_O": [114.2182917, 22.3260159]}, "geometry": {"type": "LineString", "coordinates": [[114.182943, 22.324756], [114.216163, 22.323541]]}}, {"type": "Feature", "properties": {"id": "ghost_YK905_20240624124106", "plate_no": "YK905", "gap_start_time": "2024-06-24T12:41:06", "gap_end_time": "2024-06-24T14:17:06", "gap_duration_min": 96.0, "wasted_distance_km": 1.607, "prev_trip": "DA240624029311", "next_trip": "DA240624044601", "prev_O": [114.2182917, 22.3260159], "next_O": [114.1878233, 22.3129234]}, "geometry": {"type": "LineString", "coordinates": [[114.17339, 22.306345], [114.187591, 22.312358]]}}, {"type": "Feature", "properties": {"id": "ghost_YK905_20240624142836", "plate_no": "YK905", "gap_start_time": "2024-06-24T14:28:36", "gap_end_time": "2024-06-24T15:40:06", "gap_duration_min": 71.5, "wasted_distance_km": 4.904, "prev_trip": "DA240624044601", "next_trip": "DA240624002902", "prev_O": [114.1878233, 22.3129234], "next_O": [114.212997, 22.3358478]}, "geometry": {"type": "LineString", "coordinates": [[114.175146, 22.309478], [114.213618, 22.335528]]}}, {"type": "Feature", "properties": {"id": "ghost_YL1783_20240624151702", "plate_no": "YL1783", "gap_start_time": "2024-06-24T15:17:02", "gap_end_time": "2024-06-24T16:15:02", "gap_duration_min": 58.0, "wasted_distance_km": 8.19, "prev_trip": "DA240624044911", "next_trip": "DA240624025811", "prev_O": [114.2097714, 22.3329283], "next_O": [114.1069151, 22.3488135]}, "geometry": {"type": "LineString", "coordinates": [[114.170291, 22.30407], [114.107156, 22.348945]]}}, {"type": "Feature", "properties": {"id": "ghost_YL1792_20240624140238", "plate_no": "YL1792", "gap_start_time": "2024-06-24T14:02:38", "gap_end_time": "2024-06-24T14:46:08", "gap_duration_min": 43.5, "wasted_distance_km": 0.522, "prev_trip": "DA240624032401", "next_trip": "DA240624001411", "prev_O": [114.2204772, 22.287643], "next_O": [114.1734816, 22.2725317]}, "geometry": {"type": "LineString", "coordinates": [[114.179865, 22.274901], [114.175013, 22.27627]]}}, {"type": "Feature", "properties": {"id": "ghost_YL7929_20240624111031", "plate_no": "YL7929", "gap_start_time": "2024-06-24T11:10:31", "gap_end_time": "2024-06-24T14:05:11", "gap_duration_min": 174.67, "wasted_distance_km": 2.334, "prev_trip": "DA240624032801", "next_trip": "DA240624026201", "prev_O": [114.2284154, 22.314391], "next_O": [114.1888479, 22.3391242]}, "geometry": {"type": "LineString", "coordinates": [[114.2031, 22.32267], [114.187178, 22.337631]]}}, {"type": "Feature", "properties": {"id": "ghost_YL7929_20240624141411", "plate_no": "YL7929", "gap_start_time": "2024-06-24T14:14:11", "gap_end_time": "2024-06-24T15:31:29", "gap_duration_min": 77.3, "wasted_distance_km": 0.295, "prev_trip": "DA240624026201", "next_trip": "DA240624026202", "prev_O": [114.1888479, 22.3391242], "next_O": [114.1762153, 22.3188841]}, "geometry": {"type": "LineString", "coordinates": [[114.17827, 22.321498], [114.177013, 22.31911]]}}, {"type": "Feature", "properties": {"id": "ghost_YL8082_20240624110119", "plate_no": "YL8082", "gap_start_time": "2024-06-24T11:01:19", "gap_end_time": "2024-06-24T17:45:35", "gap_duration_min": 404.27, "wasted_distance_km": 6.134, "prev_trip": "DA240624030501", "next_trip": "DA240624037202", "prev_O": [114.1325641, 22.266401], "next_O": [114.1311358, 22.2701849]}, "geometry": {"type": "LineString", "coordinates": [[114.180296, 22.299813], [114.132423, 22.266938]]}}, {"type": "Feature", "properties": {"id": "ghost_YY7490_20240624092822", "plate_no": "YY7490", "gap_start_time": "2024-06-24T09:28:22", "gap_end_time": "2024-06-24T11:20:21", "gap_duration_min": 111.98, "wasted_distance_km": 0.472, "prev_trip": "DA240624046901", "next_trip": "DA240624029702", "prev_O": [114.2020375, 22.2908346], "next_O": [114.1861849, 22.2780679]}, "geometry": {"type": "LineString", "coordinates": [[114.189533, 22.280531], [114.185611, 22.278331]]}}, {"type": "Feature", "properties": {"id": "ghost_YY7490_20240624112751", "plate_no": "YY7490", "gap_start_time": "2024-06-24T11:27:51", "gap_end_time": "2024-06-24T14:20:21", "gap_duration_min": 172.5, "wasted_distance_km": 1.938, "prev_trip": "DA240624029702", "next_trip": "DA240624014311", "prev_O": [114.1861849, 22.2780679], "next_O": [114.2023571, 22.2909523]}, "geometry": {"type": "LineString", "coordinates": [[114.191186, 22.281853], [114.205335, 22.293356]]}}, {"type": "Feature", "properties": {"id": "ghost_YY7490_20240624143951", "plate_no": "YY7490", "gap_start_time": "2024-06-24T14:39:51", "gap_end_time": "2024-06-24T15:00:15", "gap_duration_min": 20.4, "wasted_distance_km": 0.807, "prev_trip": "DA240624014311", "next_trip": "DA240624003801", "prev_O": [114.2023571, 22.2909523], "next_O": [114.1734921, 22.2726294]}, "geometry": {"type": "LineString", "coordinates": [[114.179986, 22.275126], [114.172613, 22.272653]]}}, {"type": "Feature", "properties": {"id": "ghost_YY7490_20240624153445", "plate_no": "YY7490", "gap_start_time": "2024-06-24T15:34:45", "gap_end_time": "2024-06-24T16:30:15", "gap_duration_min": 55.5, "wasted_distance_km": 1.314, "prev_trip": "DA240624003801", "next_trip": "DA240624003802", "prev_O": [114.1734921, 22.2726294], "next_O": [114.1734921, 22.2726294]}, "geometry": {"type": "LineString", "coordinates": [[114.185435, 22.26937], [114.173245, 22.272905]]}}, {"type": "Feature", "properties": {"id": "ghost_YY7621_20240624104838", "plate_no": "YY7621", "gap_start_time": "2024-06-24T10:48:38", "gap_end_time": "2024-06-24T15:15:22", "gap_duration_min": 266.73, "wasted_distance_km": 3.465, "prev_trip": "DA240624042211", "next_trip": "DA240624030301", "prev_O": [114.177237, 22.3675512], "next_O": [114.202409, 22.3482284]}, "geometry": {"type": "LineString", "coordinates": [[114.204198, 22.378696], [114.202495, 22.347575]]}}, {"type": "Feature", "properties": {"id": "ghost_ZA2376_20240624081926", "plate_no": "ZA2376", "gap_start_time": "2024-06-24T08:19:26", "gap_end_time": "2024-06-24T13:00:21", "gap_duration_min": 280.92, "wasted_distance_km": 11.211, "prev_trip": "DA240624003001", "next_trip": "DA240624024811", "prev_O": [114.1890105, 22.3079943], "next_O": [114.1321573, 22.2669059]}, "geometry": {"type": "LineString", "coordinates": [[114.213548, 22.333661], [114.132098, 22.266686]]}}, {"type": "Feature", "properties": {"id": "ghost_ZA394_20240624111857", "plate_no": "ZA394", "gap_start_time": "2024-06-24T11:18:57", "gap_end_time": "2024-06-24T14:00:28", "gap_duration_min": 161.52, "wasted_distance_km": 2.566, "prev_trip": "DA240624013102", "next_trip": "DA240624030711", "prev_O": [114.1451067, 22.2864294], "next_O": [114.1385928, 22.2515558]}, "geometry": {"type": "LineString", "coordinates": [[114.12378, 22.271016], [114.137841, 22.251958]]}}, {"type": "Feature", "properties": {"id": "ghost_ZA4388_20240624092724", "plate_no": "ZA4388", "gap_start_time": "2024-06-24T09:27:24", "gap_end_time": "2024-06-24T13:30:22", "gap_duration_min": 242.97, "wasted_distance_km": 5.723, "prev_trip": "DA240624038901", "next_trip": "DA240624047502", "prev_O": [114.1561534, 22.2414083], "next_O": [114.1777194, 22.2755944]}, "geometry": {"type": "LineString", "coordinates": [[114.23338, 22.271185], [114.177913, 22.27494]]}}, {"type": "Feature", "properties": {"id": "ghost_ZA4388_20240624135925", "plate_no": "ZA4388", "gap_start_time": "2024-06-24T13:59:25", "gap_end_time": "2024-06-24T15:00:24", "gap_duration_min": 60.98, "wasted_distance_km": 13.011, "prev_trip": "DA240624047502", "next_trip": "DA240624033402", "prev_O": [114.1777194, 22.2755944], "next_O": [114.1234441, 22.2711318]}, "geometry": {"type": "LineString", "coordinates": [[114.249638, 22.26242], [114.123536, 22.271006]]}}, {"type": "Feature", "properties": {"id": "ghost_ZA6941_20240624082504", "plate_no": "ZA6941", "gap_start_time": "2024-06-24T08:25:04", "gap_end_time": "2024-06-24T09:15:07", "gap_duration_min": 50.05, "wasted_distance_km": 7.234, "prev_trip": "DA240624004911", "next_trip": "DA240624028701", "prev_O": [114.192092, 22.281794], "next_O": [114.1931439, 22.2845431]}, "geometry": {"type": "LineString", "coordinates": [[114.1242, 22.269305], [114.192391, 22.285128]]}}, {"type": "Feature", "properties": {"id": "ghost_ZA6941_20240624095107", "plate_no": "ZA6941", "gap_start_time": "2024-06-24T09:51:07", "gap_end_time": "2024-06-24T12:35:17", "gap_duration_min": 164.17, "wasted_distance_km": 10.904, "prev_trip": "DA240624028701", "next_trip": "DA240624025511", "prev_O": [114.1931439, 22.2845431], "next_O": [114.1323065, 22.2661136]}, "geometry": {"type": "LineString", "coordinates": [[114.228291, 22.308258], [114.132368, 22.266573]]}}, {"type": "Feature", "properties": {"id": "ghost_ZA7388_20240624083033", "plate_no": "ZA7388", "gap_start_time": "2024-06-24T08:30:33", "gap_end_time": "2024-06-24T08:56:34", "gap_duration_min": 26.02, "wasted_distance_km": 3.94, "prev_trip": "DA240624004711", "next_trip": "DA240624028301", "prev_O": [114.2277794, 22.2808612], "next_O": [114.1524398, 22.2483068]}, "geometry": {"type": "LineString", "coordinates": [[114.125916, 22.273101], [114.153785, 22.2488]]}}, {"type": "Feature", "properties": {"id": "ghost_ZA7388_20240624092104", "plate_no": "ZA7388", "gap_start_time": "2024-06-24T09:21:04", "gap_end_time": "2024-06-24T13:33:31", "gap_duration_min": 252.45, "wasted_distance_km": 5.121, "prev_trip": "DA240624028301", "next_trip": "DA240624041802", "prev_O": [114.1524398, 22.2483068], "next_O": [114.2362653, 22.2695993]}, "geometry": {"type": "LineString", "coordinates": [[114.189418, 22.27885], [114.238516, 22.2713]]}}, {"type": "Feature", "properties": {"id": "ghost_ZA7388_20240624134939", "plate_no": "ZA7388", "gap_start_time": "2024-06-24T13:49:39", "gap_end_time": "2024-06-24T15:15:38", "gap_duration_min": 85.98, "wasted_distance_km": 6.027, "prev_trip": "DA240624041802", "next_trip": "DA240624037201", "prev_O": [114.2362653, 22.2695993], "next_O": [114.1754054, 22.2516183]}, "geometry": {"type": "LineString", "coordinates": [[114.217231, 22.287508], [114.17449, 22.250453]]}}, {"type": "Feature", "properties": {"id": "ghost_ZA7388_20240624152608", "plate_no": "ZA7388", "gap_start_time": "2024-06-24T15:26:08", "gap_end_time": "2024-06-24T15:50:08", "gap_duration_min": 24.0, "wasted_distance_km": 0.582, "prev_trip": "DA240624037201", "next_trip": "DA240624005011", "prev_O": [114.1754054, 22.2516183], "next_O": [114.1245247, 22.2709886]}, "geometry": {"type": "LineString", "coordinates": [[114.13017, 22.270321], [114.124533, 22.270746]]}}, {"type": "Feature", "properties": {"id": "ghost_ZB3274_20240624093230", "plate_no": "ZB3274", "gap_start_time": "2024-06-24T09:32:30", "gap_end_time": "2024-06-24T10:50:29", "gap_duration_min": 77.98, "wasted_distance_km": 4.004, "prev_trip": "DA240624013801", "next_trip": "DA240624038601", "prev_O": [114.145401, 22.2434883], "next_O": [114.22004, 22.283011]}, "geometry": {"type": "LineString", "coordinates": [[114.181131, 22.279285], [114.21983, 22.283058]]}}, {"type": "Feature", "properties": {"id": "ghost_ZB3274_20240624110829", "plate_no": "ZB3274", "gap_start_time": "2024-06-24T11:08:29", "gap_end_time": "2024-06-24T13:20:18", "gap_duration_min": 131.82, "wasted_distance_km": 4.324, "prev_trip": "DA240624038601", "next_trip": "DA240624013701", "prev_O": [114.22004, 22.283011], "next_O": [114.2012365, 22.2911583]}, "geometry": {"type": "LineString", "coordinates": [[114.160621, 22.282238], [114.201483, 22.291323]]}}, {"type": "Feature", "properties": {"id": "ghost_ZB3274_20240624133418", "plate_no": "ZB3274", "gap_start_time": "2024-06-24T13:34:18", "gap_end_time": "2024-06-24T17:00:18", "gap_duration_min": 206.0, "wasted_distance_km": 8.474, "prev_trip": "DA240624013701", "next_trip": "DA240624032602", "prev_O": [114.2012365, 22.2911583], "next_O": [114.1270786, 22.3641144]}, "geometry": {"type": "LineString", "coordinates": [[114.177605, 22.303301], [114.126195, 22.362855]]}}, {"type": "Feature", "properties": {"id": "ghost_ZB3917_20240624162414", "plate_no": "ZB3917", "gap_start_time": "2024-06-24T16:24:14", "gap_end_time": "2024-06-24T17:00:05", "gap_duration_min": 35.85, "wasted_distance_km": 0.843, "prev_trip": "DA240624041302", "next_trip": "DA240624006611", "prev_O": [114.1310857, 22.3471517], "next_O": [114.230334, 22.307947]}, "geometry": {"type": "LineString", "coordinates": [[114.224603, 22.31329], [114.23063, 22.308153]]}}]}