{"type": "FeatureCollection", "features": [{"type": "Feature", "properties": {"id": "ghost_RH3326_20240620094215", "plate_no": "RH3326", "gap_start_time": "2024-06-20T09:42:15", "gap_end_time": "2024-06-20T12:00:11", "gap_duration_min": 137.93, "wasted_distance_km": 3.817, "prev_trip": "DA240620009001", "next_trip": "DA240620020311", "prev_O": [114.1559524, 22.2409897], "next_O": [114.191615, 22.269504]}, "geometry": {"type": "LineString", "coordinates": [[114.228155, 22.276615], [114.19187, 22.2695]]}}, {"type": "Feature", "properties": {"id": "ghost_RV3895_20240620080238", "plate_no": "RV3895", "gap_start_time": "2024-06-20T08:02:38", "gap_end_time": "2024-06-20T09:00:08", "gap_duration_min": 57.5, "wasted_distance_km": 9.747, "prev_trip": "DA240620027511", "next_trip": "DA240620024611", "prev_O": [114.1755651, 22.3797609], "next_O": [114.1594908, 22.4560376]}, "geometry": {"type": "LineString", "coordinates": [[114.204338, 22.378793], [114.159505, 22.45603]]}}, {"type": "Feature", "properties": {"id": "ghost_RV3895_20240620092607", "plate_no": "RV3895", "gap_start_time": "2024-06-20T09:26:07", "gap_end_time": "2024-06-20T11:10:20", "gap_duration_min": 104.22, "wasted_distance_km": 9.551, "prev_trip": "DA240620024611", "next_trip": "DA240620026911", "prev_O": [114.1594908, 22.4560376], "next_O": [114.1112, 22.375143]}, "geometry": {"type": "LineString", "coordinates": [[114.201075, 22.396988], [114.111193, 22.375296]]}}, {"type": "Feature", "properties": {"id": "ghost_RV3895_20240620112846", "plate_no": "RV3895", "gap_start_time": "2024-06-20T11:28:46", "gap_end_time": "2024-06-20T13:45:26", "gap_duration_min": 136.67, "wasted_distance_km": 7.056, "prev_trip": "DA240620026911", "next_trip": "DA240620023711", "prev_O": [114.1112, 22.375143], "next_O": [114.192812, 22.308068]}, "geometry": {"type": "LineString", "coordinates": [[114.1306, 22.341773], [114.190423, 22.310716]]}}, {"type": "Feature", "properties": {"id": "ghost_RV4356_20240620115607", "plate_no": "RV4356", "gap_start_time": "2024-06-20T11:56:07", "gap_end_time": "2024-06-20T16:50:24", "gap_duration_min": 294.28, "wasted_distance_km": 3.206, "prev_trip": "DA240620010511", "next_trip": "DA240620043202", "prev_O": [114.2570907, 22.3071306], "next_O": [114.2303424, 22.3079333]}, "geometry": {"type": "LineString", "coordinates": [[114.205693, 22.325308], [114.230648, 22.308041]]}}, {"type": "Feature", "properties": {"id": "ghost_RV7493_20240620082841", "plate_no": "RV7493", "gap_start_time": "2024-06-20T08:28:41", "gap_end_time": "2024-06-20T09:30:41", "gap_duration_min": 62.0, "wasted_distance_km": 0.888, "prev_trip": "DA240620013501", "next_trip": "DA240620029611", "prev_O": [114.1958168, 22.3349711], "next_O": [114.2295521, 22.3191796]}, "geometry": {"type": "LineString", "coordinates": [[114.224451, 22.313123], [114.230436, 22.318881]]}}, {"type": "Feature", "properties": {"id": "ghost_RX3329_20240620105218", "plate_no": "RX3329", "gap_start_time": "2024-06-20T10:52:18", "gap_end_time": "2024-06-20T15:30:11", "gap_duration_min": 277.88, "wasted_distance_km": 5.473, "prev_trip": "DA240620040311", "next_trip": "DA240620023002", "prev_O": [114.1759364, 22.2510939], "next_O": [114.1777194, 22.2755944]}, "geometry": {"type": "LineString", "coordinates": [[114.226771, 22.278363], [114.173745, 22.27448]]}}, {"type": "Feature", "properties": {"id": "ghost_SL7802_20240620082043", "plate_no": "SL7802", "gap_start_time": "2024-06-20T08:20:43", "gap_end_time": "2024-06-20T09:10:13", "gap_duration_min": 49.5, "wasted_distance_km": 8.922, "prev_trip": "DA240620017611", "next_trip": "DA240620026811", "prev_O": [114.2358588, 22.3080017], "next_O": [114.1083574, 22.3559598]}, "geometry": {"type": "LineString", "coordinates": [[114.186288, 22.32547], [114.107, 22.358028]]}}, {"type": "Feature", "properties": {"id": "ghost_SL9199_20240620082958", "plate_no": "SL9199", "gap_start_time": "2024-06-20T08:29:58", "gap_end_time": "2024-06-20T10:30:11", "gap_duration_min": 120.22, "wasted_distance_km": 3.42, "prev_trip": "DA240620009801", "next_trip": "DA240620022201", "prev_O": [114.1371502, 22.4917323], "next_O": [114.209362, 22.458109]}, "geometry": {"type": "LineString", "coordinates": [[114.175315, 22.448711], [114.207303, 22.457185]]}}, {"type": "Feature", "properties": {"id": "ghost_SL9199_20240620105406", "plate_no": "SL9199", "gap_start_time": "2024-06-20T10:54:06", "gap_end_time": "2024-06-20T12:00:07", "gap_duration_min": 66.02, "wasted_distance_km": 7.752, "prev_trip": "DA240620022201", "next_trip": "DA240620012601", "prev_O": [114.209362, 22.458109], "next_O": [114.2430202, 22.4265896]}, "geometry": {"type": "LineString", "coordinates": [[114.188588, 22.375241], [114.23953, 22.426636]]}}, {"type": "Feature", "properties": {"id": "ghost_SL9199_20240620120234", "plate_no": "SL9199", "gap_start_time": "2024-06-20T12:02:34", "gap_end_time": "2024-06-20T14:15:02", "gap_duration_min": 132.47, "wasted_distance_km": 7.449, "prev_trip": "DA240620012601", "next_trip": "DA240620012001", "prev_O": [114.2430202, 22.4265896], "next_O": [114.1808597, 22.3802319]}, "geometry": {"type": "LineString", "coordinates": [[114.234323, 22.425336], [114.180893, 22.38008]]}}, {"type": "Feature", "properties": {"id": "ghost_SL9199_20240620142542", "plate_no": "SL9199", "gap_start_time": "2024-06-20T14:25:42", "gap_end_time": "2024-06-20T15:10:08", "gap_duration_min": 44.43, "wasted_distance_km": 1.758, "prev_trip": "DA240620012001", "next_trip": "DA240620007902", "prev_O": [114.1808597, 22.3802319], "next_O": [114.1987643, 22.3804685]}, "geometry": {"type": "LineString", "coordinates": [[114.182095, 22.377706], [114.198955, 22.380308]]}}, {"type": "Feature", "properties": {"id": "ghost_SL9199_20240620152321", "plate_no": "SL9199", "gap_start_time": "2024-06-20T15:23:21", "gap_end_time": "2024-06-20T16:45:07", "gap_duration_min": 81.77, "wasted_distance_km": 1.091, "prev_trip": "DA240620007902", "next_trip": "DA240620012502", "prev_O": [114.1987643, 22.3804685], "next_O": [114.1700846, 22.3760056]}, "geometry": {"type": "LineString", "coordinates": [[114.17901, 22.371505], [114.169678, 22.376168]]}}, {"type": "Feature", "properties": {"id": "ghost_SL9336_20240620084456", "plate_no": "SL9336", "gap_start_time": "2024-06-20T08:44:56", "gap_end_time": "2024-06-20T13:50:19", "gap_duration_min": 305.38, "wasted_distance_km": 3.04, "prev_trip": "DA240620000301", "next_trip": "DA240620033711", "prev_O": [114.1266489, 22.3476314], "next_O": [114.1034949, 22.3485601]}, "geometry": {"type": "LineString", "coordinates": [[114.128118, 22.346343], [114.098675, 22.348785]]}}, {"type": "Feature", "properties": {"id": "ghost_SM140_20240620084312", "plate_no": "SM140", "gap_start_time": "2024-06-20T08:43:12", "gap_end_time": "2024-06-20T10:00:03", "gap_duration_min": 76.85, "wasted_distance_km": 10.123, "prev_trip": "DA240620042411", "next_trip": "DA240620022401", "prev_O": [114.1604226, 22.3305507], "next_O": [114.145401, 22.2434883]}, "geometry": {"type": "LineString", "coordinates": [[114.166623, 22.33269], [114.146038, 22.243663]]}}, {"type": "Feature", "properties": {"id": "ghost_SM140_20240620103533", "plate_no": "SM140", "gap_start_time": "2024-06-20T10:35:33", "gap_end_time": "2024-06-20T13:00:29", "gap_duration_min": 144.93, "wasted_distance_km": 6.005, "prev_trip": "DA240620022401", "next_trip": "DA240620037311", "prev_O": [114.145401, 22.2434883], "next_O": [114.2286568, 22.3119002]}, "geometry": {"type": "LineString", "coordinates": [[114.172628, 22.326593], [114.228786, 22.311836]]}}, {"type": "Feature", "properties": {"id": "ghost_TC1655_20240620101208", "plate_no": "TC1655", "gap_start_time": "2024-06-20T10:12:08", "gap_end_time": "2024-06-20T15:00:09", "gap_duration_min": 288.02, "wasted_distance_km": 0.991, "prev_trip": "DA240620010301", "next_trip": "DA240620026202", "prev_O": [114.141822, 22.2830319], "next_O": [114.1277767, 22.280605]}, "geometry": {"type": "LineString", "coordinates": [[114.130586, 22.270306], [114.129168, 22.279123]]}}, {"type": "Feature", "properties": {"id": "ghost_TE7832_20240620124505", "plate_no": "TE7832", "gap_start_time": "2024-06-20T12:45:05", "gap_end_time": "2024-06-20T17:56:17", "gap_duration_min": 311.2, "wasted_distance_km": 6.304, "prev_trip": "DA240620023001", "next_trip": "DA240620013302", "prev_O": [114.2314025, 22.2787402], "next_O": [114.2435956, 22.2730305]}, "geometry": {"type": "LineString", "coordinates": [[114.179875, 22.27498], [114.241136, 22.275716]]}}, {"type": "Feature", "properties": {"id": "ghost_TF1503_20240620130522", "plate_no": "TF1503", "gap_start_time": "2024-06-20T13:05:22", "gap_end_time": "2024-06-20T13:45:18", "gap_duration_min": 39.93, "wasted_distance_km": 12.404, "prev_trip": "DA240620030201", "next_trip": "DA240620004902", "prev_O": [114.2284154, 22.314391], "next_O": [114.1254938, 22.3694653]}, "geometry": {"type": "LineString", "coordinates": [[114.227876, 22.31136], [114.125155, 22.369821]]}}, {"type": "Feature", "properties": {"id": "ghost_TW7410_20240620145837", "plate_no": "TW7410", "gap_start_time": "2024-06-20T14:58:37", "gap_end_time": "2024-06-20T16:30:11", "gap_duration_min": 91.57, "wasted_distance_km": 4.198, "prev_trip": "DA240620010611", "next_trip": "DA240620015002", "prev_O": [114.2077592, 22.3227792], "next_O": [114.1795766, 22.3045634]}, "geometry": {"type": "LineString", "coordinates": [[114.215726, 22.324246], [114.180175, 22.305705]]}}, {"type": "Feature", "properties": {"id": "ghost_TX9739_20240620055155", "plate_no": "TX9739", "gap_start_time": "2024-06-20T05:51:55", "gap_end_time": "2024-06-20T06:30:21", "gap_duration_min": 38.43, "wasted_distance_km": 2.985, "prev_trip": "DA240620019201", "next_trip": "DA240620012301", "prev_O": [114.0979333, 22.3489429], "next_O": [114.2029271, 22.2860192]}, "geometry": {"type": "LineString", "coordinates": [[114.174676, 22.278563], [114.20255, 22.286016]]}}, {"type": "Feature", "properties": {"id": "ghost_TX9739_20240620064751", "plate_no": "TX9739", "gap_start_time": "2024-06-20T06:47:51", "gap_end_time": "2024-06-20T08:00:29", "gap_duration_min": 72.63, "wasted_distance_km": 8.006, "prev_trip": "DA240620012301", "next_trip": "DA240620009601", "prev_O": [114.2029271, 22.2860192], "next_O": [114.240582, 22.294599]}, "geometry": {"type": "LineString", "coordinates": [[114.179085, 22.338933], [114.240663, 22.2949]]}}, {"type": "Feature", "properties": {"id": "ghost_TX9739_20240620082759", "plate_no": "TX9739", "gap_start_time": "2024-06-20T08:27:59", "gap_end_time": "2024-06-20T13:00:25", "gap_duration_min": 272.43, "wasted_distance_km": 1.3, "prev_trip": "DA240620009601", "next_trip": "DA240620016302", "prev_O": [114.240582, 22.294599], "next_O": [114.1608536, 22.3324787]}, "geometry": {"type": "LineString", "coordinates": [[114.152361, 22.341116], [114.161011, 22.332591]]}}, {"type": "Feature", "properties": {"id": "ghost_TY3130_20240620105433", "plate_no": "TY3130", "gap_start_time": "2024-06-20T10:54:33", "gap_end_time": "2024-06-20T12:15:36", "gap_duration_min": 81.05, "wasted_distance_km": 21.624, "prev_trip": "DA240620008701", "next_trip": "DA240620035602", "prev_O": [114.1252916, 22.4981163], "next_O": [114.1611183, 22.3341745]}, "geometry": {"type": "LineString", "coordinates": [[114.158173, 22.528253], [114.162223, 22.333818]]}}, {"type": "Feature", "properties": {"id": "ghost_TY3130_20240620122304", "plate_no": "TY3130", "gap_start_time": "2024-06-20T12:23:04", "gap_end_time": "2024-06-20T14:46:57", "gap_duration_min": 143.88, "wasted_distance_km": 3.101, "prev_trip": "DA240620035602", "next_trip": "DA240620019302", "prev_O": [114.1611183, 22.3341745], "next_O": [114.18052, 22.32278]}, "geometry": {"type": "LineString", "coordinates": [[114.198528, 22.342461], [114.178206, 22.321863]]}}, {"type": "Feature", "properties": {"id": "ghost_TY3130_20240620150357", "plate_no": "TY3130", "gap_start_time": "2024-06-20T15:03:57", "gap_end_time": "2024-06-20T15:30:27", "gap_duration_min": 26.5, "wasted_distance_km": 0.569, "prev_trip": "DA240620019302", "next_trip": "DA240620025802", "prev_O": [114.18052, 22.32278], "next_O": [114.17099, 22.312405]}, "geometry": {"type": "LineString", "coordinates": [[114.170575, 22.307301], [114.170733, 22.31242]]}}, {"type": "Feature", "properties": {"id": "ghost_TY3130_20240620155127", "plate_no": "TY3130", "gap_start_time": "2024-06-20T15:51:27", "gap_end_time": "2024-06-20T16:45:20", "gap_duration_min": 53.88, "wasted_distance_km": 4.125, "prev_trip": "DA240620025802", "next_trip": "DA240620012002", "prev_O": [114.17099, 22.312405], "next_O": [114.1795006, 22.3746384]}, "geometry": {"type": "LineString", "coordinates": [[114.198568, 22.342626], [114.179438, 22.375231]]}}, {"type": "Feature", "properties": {"id": "ghost_TY3130_20240620164920", "plate_no": "TY3130", "gap_start_time": "2024-06-20T16:49:20", "gap_end_time": "2024-06-20T17:45:20", "gap_duration_min": 56.0, "wasted_distance_km": 7.238, "prev_trip": "DA240620012002", "next_trip": "DA240620036611", "prev_O": [114.1795006, 22.3746384], "next_O": [114.1078944, 22.3785083]}, "geometry": {"type": "LineString", "coordinates": [[114.178408, 22.376556], [114.108065, 22.379048]]}}, {"type": "Feature", "properties": {"id": "ghost_UM5134_20240620111127", "plate_no": "UM5134", "gap_start_time": "2024-06-20T11:11:27", "gap_end_time": "2024-06-20T12:00:01", "gap_duration_min": 48.57, "wasted_distance_km": 3.968, "prev_trip": "DA240620041901", "next_trip": "DA240620042911", "prev_O": [114.1300706, 22.350379], "next_O": [114.1607389, 22.3359684]}, "geometry": {"type": "LineString", "coordinates": [[114.130266, 22.357248], [114.161301, 22.33604]]}}, {"type": "Feature", "properties": {"id": "ghost_UM5926_20240620105509", "plate_no": "UM5926", "gap_start_time": "2024-06-20T10:55:09", "gap_end_time": "2024-06-20T13:00:06", "gap_duration_min": 124.95, "wasted_distance_km": 5.874, "prev_trip": "DA240620032601", "next_trip": "DA240620019301", "prev_O": [114.255644, 22.322861], "next_O": [114.1708277, 22.3073518]}, "geometry": {"type": "LineString", "coordinates": [[114.22753, 22.311368], [114.170611, 22.307175]]}}, {"type": "Feature", "properties": {"id": "ghost_UM7167_20240620092022", "plate_no": "UM7167", "gap_start_time": "2024-06-20T09:20:22", "gap_end_time": "2024-06-20T10:01:45", "gap_duration_min": 41.38, "wasted_distance_km": 1.562, "prev_trip": "DA240620007901", "next_trip": "DA240620021201", "prev_O": [114.1786768, 22.3729477], "next_O": [114.199679, 22.3964246]}, "geometry": {"type": "LineString", "coordinates": [[114.194145, 22.380786], [114.19787, 22.394406]]}}, {"type": "Feature", "properties": {"id": "ghost_UP3870_20240620091021", "plate_no": "UP3870", "gap_start_time": "2024-06-20T09:10:21", "gap_end_time": "2024-06-20T11:00:45", "gap_duration_min": 110.4, "wasted_distance_km": 9.128, "prev_trip": "DA240620008001", "next_trip": "DA240620044102", "prev_O": [114.23134, 22.42554], "next_O": [114.1754155, 22.4588362]}, "geometry": {"type": "LineString", "coordinates": [[114.198965, 22.38011], [114.17461, 22.45905]]}}, {"type": "Feature", "properties": {"id": "ghost_UP3870_20240620112141", "plate_no": "UP3870", "gap_start_time": "2024-06-20T11:21:41", "gap_end_time": "2024-06-20T13:16:23", "gap_duration_min": 114.7, "wasted_distance_km": 2.172, "prev_trip": "DA240620044102", "next_trip": "DA240620022202", "prev_O": [114.1754155, 22.4588362], "next_O": [114.1853645, 22.377122]}, "geometry": {"type": "LineString", "coordinates": [[114.20518, 22.3825], [114.18481, 22.377316]]}}, {"type": "Feature", "properties": {"id": "ghost_UP4016_20240620084039", "plate_no": "UP4016", "gap_start_time": "2024-06-20T08:40:39", "gap_end_time": "2024-06-20T09:21:02", "gap_duration_min": 40.38, "wasted_distance_km": 4.381, "prev_trip": "DA240620000811", "next_trip": "DA240620026701", "prev_O": [114.217242, 22.322492], "next_O": [114.1931439, 22.2845431]}, "geometry": {"type": "LineString", "coordinates": [[114.184036, 22.324068], [114.19009, 22.285071]]}}, {"type": "Feature", "properties": {"id": "ghost_UP4016_20240620100202", "plate_no": "UP4016", "gap_start_time": "2024-06-20T10:02:02", "gap_end_time": "2024-06-20T12:45:11", "gap_duration_min": 163.15, "wasted_distance_km": 12.334, "prev_trip": "DA240620026701", "next_trip": "DA240620010901", "prev_O": [114.1931439, 22.2845431], "next_O": [114.1283752, 22.3593896]}, "geometry": {"type": "LineString", "coordinates": [[114.233748, 22.306191], [114.128488, 22.359335]]}}, {"type": "Feature", "properties": {"id": "ghost_VD1810_20240620082728", "plate_no": "VD1810", "gap_start_time": "2024-06-20T08:27:28", "gap_end_time": "2024-06-20T09:04:57", "gap_duration_min": 37.48, "wasted_distance_km": 2.595, "prev_trip": "DA240620007111", "next_trip": "DA240620007711", "prev_O": [114.2567421, 22.3113053], "next_O": [114.2322059, 22.308705]}, "geometry": {"type": "LineString", "coordinates": [[114.250386, 22.323115], [114.228783, 22.311066]]}}, {"type": "Feature", "properties": {"id": "ghost_VD1810_20240620093527", "plate_no": "VD1810", "gap_start_time": "2024-06-20T09:35:27", "gap_end_time": "2024-06-20T10:36:09", "gap_duration_min": 60.7, "wasted_distance_km": 3.997, "prev_trip": "DA240620007711", "next_trip": "DA240620019711", "prev_O": [114.2322059, 22.308705], "next_O": [114.2556044, 22.3228373]}, "geometry": {"type": "LineString", "coordinates": [[114.217886, 22.322835], [114.256731, 22.321825]]}}, {"type": "Feature", "properties": {"id": "ghost_VE6920_20240620121140", "plate_no": "VE6920", "gap_start_time": "2024-06-20T12:11:40", "gap_end_time": "2024-06-20T13:30:15", "gap_duration_min": 78.58, "wasted_distance_km": 4.977, "prev_trip": "DA240620016002", "next_trip": "DA240620009711", "prev_O": [114.1832816, 22.3250389], "next_O": [114.2303424, 22.3079333]}, "geometry": {"type": "LineString", "coordinates": [[114.190506, 22.333248], [114.23056, 22.308133]]}}, {"type": "Feature", "properties": {"id": "ghost_VE7344_20240620120958", "plate_no": "VE7344", "gap_start_time": "2024-06-20T12:09:58", "gap_end_time": "2024-06-20T16:16:58", "gap_duration_min": 247.0, "wasted_distance_km": 13.871, "prev_trip": "DA240620011902", "next_trip": "DA240620000402", "prev_O": [114.1832816, 22.3250389], "next_O": [114.1283333, 22.3458333]}, "geometry": {"type": "LineString", "coordinates": [[114.234266, 22.425305], [114.126823, 22.349866]]}}, {"type": "Feature", "properties": {"id": "ghost_VE8500_20240620114958", "plate_no": "VE8500", "gap_start_time": "2024-06-20T11:49:58", "gap_end_time": "2024-06-20T12:50:26", "gap_duration_min": 60.47, "wasted_distance_km": 12.526, "prev_trip": "DA240620042701", "next_trip": "DA240620031101", "prev_O": [114.2037094, 22.3474998], "next_O": [114.1751006, 22.4488917]}, "geometry": {"type": "LineString", "coordinates": [[114.207531, 22.339973], [114.175796, 22.448733]]}}, {"type": "Feature", "properties": {"id": "ghost_VE8500_20240620134024", "plate_no": "VE8500", "gap_start_time": "2024-06-20T13:40:24", "gap_end_time": "2024-06-20T15:00:24", "gap_duration_min": 80.0, "wasted_distance_km": 3.393, "prev_trip": "DA240620031101", "next_trip": "DA240620013911", "prev_O": [114.1751006, 22.4488917], "next_O": [114.2159696, 22.3221985]}, "geometry": {"type": "LineString", "coordinates": [[114.18945, 22.34095], [114.215411, 22.322118]]}}, {"type": "Feature", "properties": {"id": "ghost_VG422_20240620092136", "plate_no": "VG422", "gap_start_time": "2024-06-20T09:21:36", "gap_end_time": "2024-06-20T10:16:36", "gap_duration_min": 55.0, "wasted_distance_km": 0.943, "prev_trip": "DA240620031301", "next_trip": "DA240620016301", "prev_O": [114.1919131, 22.3063812], "next_O": [114.1810454, 22.3182095]}, "geometry": {"type": "LineString", "coordinates": [[114.183046, 22.324768], [114.178003, 22.317691]]}}, {"type": "Feature", "properties": {"id": "ghost_VG422_20240620103006", "plate_no": "VG422", "gap_start_time": "2024-06-20T10:30:06", "gap_end_time": "2024-06-20T13:00:19", "gap_duration_min": 150.22, "wasted_distance_km": 1.143, "prev_trip": "DA240620016301", "next_trip": "DA240620022402", "prev_O": [114.1810454, 22.3182095], "next_O": [114.1716321, 22.3302171]}, "geometry": {"type": "LineString", "coordinates": [[114.161365, 22.333676], [114.171951, 22.330556]]}}, {"type": "Feature", "properties": {"id": "ghost_VG422_20240620132318", "plate_no": "VG422", "gap_start_time": "2024-06-20T13:23:18", "gap_end_time": "2024-06-20T14:15:19", "gap_duration_min": 52.02, "wasted_distance_km": 4.739, "prev_trip": "DA240620022402", "next_trip": "DA240620024502", "prev_O": [114.1716321, 22.3302171], "next_O": [114.1777194, 22.2755944]}, "geometry": {"type": "LineString", "coordinates": [[114.147958, 22.242848], [114.177798, 22.275313]]}}, {"type": "Feature", "properties": {"id": "ghost_VV6972_20240620133046", "plate_no": "VV6972", "gap_start_time": "2024-06-20T13:30:46", "gap_end_time": "2024-06-20T14:40:15", "gap_duration_min": 69.48, "wasted_distance_km": 3.727, "prev_trip": "DA240620016111", "next_trip": "DA240620001202", "prev_O": [114.2097714, 22.3329283], "next_O": [114.1831334, 22.3223645]}, "geometry": {"type": "LineString", "coordinates": [[114.153023, 22.341343], [114.183048, 22.322585]]}}, {"type": "Feature", "properties": {"id": "ghost_VW871_20240620112718", "plate_no": "VW871", "gap_start_time": "2024-06-20T11:27:18", "gap_end_time": "2024-06-20T14:00:22", "gap_duration_min": 153.07, "wasted_distance_km": 19.678, "prev_trip": "DA240620032911", "next_trip": "DA240620032811", "prev_O": [114.0343755, 22.4454013], "next_O": [114.024125, 22.443553]}, "geometry": {"type": "LineString", "coordinates": [[114.213306, 22.41408], [114.024591, 22.443895]]}}, {"type": "Feature", "properties": {"id": "ghost_VW871_20240620144854", "plate_no": "VW871", "gap_start_time": "2024-06-20T14:48:54", "gap_end_time": "2024-06-20T15:30:21", "gap_duration_min": 41.45, "wasted_distance_km": 4.269, "prev_trip": "DA240620032811", "next_trip": "DA240620034502", "prev_O": [114.024125, 22.443553], "next_O": [114.14655, 22.3364312]}, "geometry": {"type": "LineString", "coordinates": [[114.1728, 22.305976], [114.147085, 22.336111]]}}, {"type": "Feature", "properties": {"id": "ghost_VY5967_20240620093848", "plate_no": "VY5967", "gap_start_time": "2024-06-20T09:38:48", "gap_end_time": "2024-06-20T11:00:12", "gap_duration_min": 81.4, "wasted_distance_km": 8.512, "prev_trip": "DA240620035501", "next_trip": "DA240620042111", "prev_O": [114.1027503, 22.3726581], "next_O": [114.2012398, 22.3875756]}, "geometry": {"type": "LineString", "coordinates": [[114.119825, 22.37563], [114.201566, 22.387786]]}}, {"type": "Feature", "properties": {"id": "ghost_VY5967_20240620112341", "plate_no": "VY5967", "gap_start_time": "2024-06-20T11:23:41", "gap_end_time": "2024-06-20T14:15:09", "gap_duration_min": 171.47, "wasted_distance_km": 24.924, "prev_trip": "DA240620042111", "next_trip": "DA240620008702", "prev_O": [114.2012398, 22.3875756], "next_O": [114.15557, 22.5299788]}, "geometry": {"type": "LineString", "coordinates": [[114.221918, 22.314165], [114.155501, 22.52974]]}}, {"type": "Feature", "properties": {"id": "ghost_VY5967_20240620143744", "plate_no": "VY5967", "gap_start_time": "2024-06-20T14:37:44", "gap_end_time": "2024-06-20T15:45:07", "gap_duration_min": 67.38, "wasted_distance_km": 7.207, "prev_trip": "DA240620008702", "next_trip": "DA240620009802", "prev_O": [114.15557, 22.5299788], "next_O": [114.1754722, 22.4530181]}, "geometry": {"type": "LineString", "coordinates": [[114.125421, 22.498273], [114.175128, 22.452543]]}}, {"type": "Feature", "properties": {"id": "ghost_VY8279_20240620110646", "plate_no": "VY8279", "gap_start_time": "2024-06-20T11:06:46", "gap_end_time": "2024-06-20T13:30:10", "gap_duration_min": 143.4, "wasted_distance_km": 9.576, "prev_trip": "DA240620041211", "next_trip": "DA240620031501", "prev_O": [114.2640324, 22.3147268], "next_O": [114.1201768, 22.3741788]}, "geometry": {"type": "LineString", "coordinates": [[114.177546, 22.306001], [114.120336, 22.37394]]}}, {"type": "Feature", "properties": {"id": "ghost_WN8723_20240620134526", "plate_no": "WN8723", "gap_start_time": "2024-06-20T13:45:26", "gap_end_time": "2024-06-20T16:00:25", "gap_duration_min": 134.98, "wasted_distance_km": 10.876, "prev_trip": "DA240620014401", "next_trip": "DA240620018511", "prev_O": [114.1331919, 22.2850741], "next_O": [114.1242972, 22.2706361]}, "geometry": {"type": "LineString", "coordinates": [[114.119253, 22.368471], [114.124206, 22.270766]]}}, {"type": "Feature", "properties": {"id": "ghost_WN9331_20240620151218", "plate_no": "WN9331", "gap_start_time": "2024-06-20T15:12:18", "gap_end_time": "2024-06-20T16:01:45", "gap_duration_min": 49.45, "wasted_distance_km": 2.433, "prev_trip": "DA240620027702", "next_trip": "DA240620022702", "prev_O": [114.1786768, 22.3122616], "next_O": [114.1743747, 22.3091816]}, "geometry": {"type": "LineString", "coordinates": [[114.167731, 22.332036], [114.176346, 22.311663]]}}, {"type": "Feature", "properties": {"id": "ghost_WP3825_20240620115119", "plate_no": "WP3825", "gap_start_time": "2024-06-20T11:51:19", "gap_end_time": "2024-06-20T13:15:10", "gap_duration_min": 83.85, "wasted_distance_km": 7.043, "prev_trip": "DA240620014902", "next_trip": "DA240620015411", "prev_O": [114.1785889, 22.3167604], "next_O": [114.2361939, 22.3018517]}, "geometry": {"type": "LineString", "coordinates": [[114.170743, 22.319415], [114.236541, 22.301923]]}}, {"type": "Feature", "properties": {"id": "ghost_WP3895_20240620060156", "plate_no": "WP3895", "gap_start_time": "2024-06-20T06:01:56", "gap_end_time": "2024-06-20T07:05:26", "gap_duration_min": 63.5, "wasted_distance_km": 4.088, "prev_trip": "DA240620035601", "next_trip": "DA240620002801", "prev_O": [114.2021245, 22.343312], "next_O": [114.1890105, 22.3079943]}, "geometry": {"type": "LineString", "coordinates": [[114.160896, 22.334096], [114.188966, 22.308073]]}}, {"type": "Feature", "properties": {"id": "ghost_WP3895_20240620081956", "plate_no": "WP3895", "gap_start_time": "2024-06-20T08:19:56", "gap_end_time": "2024-06-20T12:45:11", "gap_duration_min": 265.25, "wasted_distance_km": 3.402, "prev_trip": "DA240620002801", "next_trip": "DA240620021311", "prev_O": [114.1890105, 22.3079943], "next_O": [114.230656, 22.3074346]}, "geometry": {"type": "LineString", "coordinates": [[114.213423, 22.333763], [114.230611, 22.30762]]}}, {"type": "Feature", "properties": {"id": "ghost_XE2198_20240620111737", "plate_no": "XE2198", "gap_start_time": "2024-06-20T11:17:37", "gap_end_time": "2024-06-20T12:31:09", "gap_duration_min": 73.53, "wasted_distance_km": 1.762, "prev_trip": "DA240620008211", "next_trip": "DA240620021802", "prev_O": [114.2286722, 22.3119194], "next_O": [114.2214997, 22.3107319]}, "geometry": {"type": "LineString", "coordinates": [[114.228725, 22.324046], [114.221036, 22.309891]]}}, {"type": "Feature", "properties": {"id": "ghost_XE612_20240620144743", "plate_no": "XE612", "gap_start_time": "2024-06-20T14:47:43", "gap_end_time": "2024-06-20T16:15:43", "gap_duration_min": 88.0, "wasted_distance_km": 12.555, "prev_trip": "DA240620030202", "next_trip": "DA240620032102", "prev_O": [114.2285538, 22.3079624], "next_O": [114.1251469, 22.3684239]}, "geometry": {"type": "LineString", "coordinates": [[114.229075, 22.310075], [114.124495, 22.368305]]}}, {"type": "Feature", "properties": {"id": "ghost_XE612_20240620162243", "plate_no": "XE612", "gap_start_time": "2024-06-20T16:22:43", "gap_end_time": "2024-06-20T17:00:13", "gap_duration_min": 37.5, "wasted_distance_km": 7.759, "prev_trip": "DA240620032102", "next_trip": "DA240620010102", "prev_O": [114.1251469, 22.3684239], "next_O": [114.1743747, 22.3091816]}, "geometry": {"type": "LineString", "coordinates": [[114.126186, 22.362856], [114.17503, 22.309681]]}}, {"type": "Feature", "properties": {"id": "ghost_XE7053_20240620095820", "plate_no": "XE7053", "gap_start_time": "2024-06-20T09:58:20", "gap_end_time": "2024-06-20T13:00:19", "gap_duration_min": 181.98, "wasted_distance_km": 0.956, "prev_trip": "DA240620021111", "next_trip": "DA240620044811", "prev_O": [114.2129529, 22.3331265], "next_O": [114.2176659, 22.324314]}, "geometry": {"type": "LineString", "coordinates": [[114.225838, 22.324005], [114.216568, 22.32339]]}}, {"type": "Feature", "properties": {"id": "ghost_XE7053_20240620131149", "plate_no": "XE7053", "gap_start_time": "2024-06-20T13:11:49", "gap_end_time": "2024-06-20T14:30:42", "gap_duration_min": 78.88, "wasted_distance_km": 0.489, "prev_trip": "DA240620044811", "next_trip": "DA240620019502", "prev_O": [114.2176659, 22.324314], "next_O": [114.1725229, 22.3019182]}, "geometry": {"type": "LineString", "coordinates": [[114.175936, 22.299918], [114.17169, 22.301888]]}}, {"type": "Feature", "properties": {"id": "ghost_XE7168_20240620114934", "plate_no": "XE7168", "gap_start_time": "2024-06-20T11:49:34", "gap_end_time": "2024-06-20T14:00:04", "gap_duration_min": 130.5, "wasted_distance_km": 7.66, "prev_trip": "DA240620029011", "next_trip": "DA240620011001", "prev_O": [114.1178066, 22.3689762], "next_O": [114.2518906, 22.3049429]}, "geometry": {"type": "LineString", "coordinates": [[114.178328, 22.316963], [114.251805, 22.305793]]}}, {"type": "Feature", "properties": {"id": "ghost_XE7168_20240620142704", "plate_no": "XE7168", "gap_start_time": "2024-06-20T14:27:04", "gap_end_time": "2024-06-20T15:00:05", "gap_duration_min": 33.02, "wasted_distance_km": 0.618, "prev_trip": "DA240620011001", "next_trip": "DA240620008002", "prev_O": [114.2518906, 22.3049429], "next_O": [114.1987643, 22.3804685]}, "geometry": {"type": "LineString", "coordinates": [[114.204931, 22.379128], [114.199068, 22.38037]]}}, {"type": "Feature", "properties": {"id": "ghost_XE7595_20240620125259", "plate_no": "XE7595", "gap_start_time": "2024-06-20T12:52:59", "gap_end_time": "2024-06-20T17:45:03", "gap_duration_min": 292.07, "wasted_distance_km": 2.163, "prev_trip": "DA240620030411", "next_trip": "DA240620014011", "prev_O": [114.1219651, 22.3751398], "next_O": [114.1802342, 22.3050344]}, "geometry": {"type": "LineString", "coordinates": [[114.18307, 22.324785], [114.18033, 22.305496]]}}, {"type": "Feature", "properties": {"id": "ghost_XE8413_20240620103845", "plate_no": "XE8413", "gap_start_time": "2024-06-20T10:38:45", "gap_end_time": "2024-06-20T11:45:14", "gap_duration_min": 66.48, "wasted_distance_km": 2.341, "prev_trip": "DA240620013111", "next_trip": "DA240620008402", "prev_O": [113.9859398, 22.4131046], "next_O": [113.9649146, 22.3748696]}, "geometry": {"type": "LineString", "coordinates": [[113.977378, 22.392895], [113.964938, 22.375258]]}}, {"type": "Feature", "properties": {"id": "ghost_XE953_20240620103903", "plate_no": "XE953", "gap_start_time": "2024-06-20T10:39:03", "gap_end_time": "2024-06-20T12:15:09", "gap_duration_min": 96.1, "wasted_distance_km": 12.294, "prev_trip": "DA240620013001", "next_trip": "DA240620022611", "prev_O": [114.2308303, 22.4185225], "next_O": [114.2302479, 22.308176]}, "geometry": {"type": "LineString", "coordinates": [[114.230046, 22.418598], [114.230605, 22.308038]]}}, {"type": "Feature", "properties": {"id": "ghost_XM9047_20240620154949", "plate_no": "XM9047", "gap_start_time": "2024-06-20T15:49:49", "gap_end_time": "2024-06-20T16:32:49", "gap_duration_min": 43.0, "wasted_distance_km": 3.565, "prev_trip": "DA240620013502", "next_trip": "DA240620017502", "prev_O": [114.2286722, 22.3119194], "next_O": [114.1717909, 22.3154728]}, "geometry": {"type": "LineString", "coordinates": [[114.195643, 22.334455], [114.167558, 22.315661]]}}, {"type": "Feature", "properties": {"id": "ghost_XN6179_20240620114124", "plate_no": "XN6179", "gap_start_time": "2024-06-20T11:41:24", "gap_end_time": "2024-06-20T17:00:05", "gap_duration_min": 318.68, "wasted_distance_km": 28.816, "prev_trip": "DA240620015702", "next_trip": "DA240620006311", "prev_O": [114.230334, 22.307947], "next_O": [114.2303424, 22.3079333]}, "geometry": {"type": "LineString", "coordinates": [[113.971486, 22.406755], [114.230583, 22.308055]]}}, {"type": "Feature", "properties": {"id": "ghost_XN7430_20240620131021", "plate_no": "XN7430", "gap_start_time": "2024-06-20T13:10:21", "gap_end_time": "2024-06-20T14:30:22", "gap_duration_min": 80.02, "wasted_distance_km": 2.013, "prev_trip": "DA240620007811", "next_trip": "DA240620032602", "prev_O": [114.2182917, 22.3260159], "next_O": [114.225222, 22.312401]}, "geometry": {"type": "LineString", "coordinates": [[114.215938, 22.328478], [114.225513, 22.312691]]}}, {"type": "Feature", "properties": {"id": "ghost_XN7430_20240620151852", "plate_no": "XN7430", "gap_start_time": "2024-06-20T15:18:52", "gap_end_time": "2024-06-20T16:15:27", "gap_duration_min": 56.58, "wasted_distance_km": 3.08, "prev_trip": "DA240620032602", "next_trip": "DA240620009311", "prev_O": [114.225222, 22.312401], "next_O": [114.2302351, 22.308033]}, "geometry": {"type": "LineString", "coordinates": [[114.258001, 22.31959], [114.229331, 22.311603]]}}, {"type": "Feature", "properties": {"id": "ghost_XN7430_20240620162427", "plate_no": "XN7430", "gap_start_time": "2024-06-20T16:24:27", "gap_end_time": "2024-06-20T17:00:27", "gap_duration_min": 36.0, "wasted_distance_km": 1.712, "prev_trip": "DA240620009311", "next_trip": "DA240620006611", "prev_O": [114.2302351, 22.308033], "next_O": [114.2303424, 22.3079333]}, "geometry": {"type": "LineString", "coordinates": [[114.22095, 22.32066], [114.230613, 22.308123]]}}, {"type": "Feature", "properties": {"id": "ghost_XU8126_20240620112127", "plate_no": "XU8126", "gap_start_time": "2024-06-20T11:21:27", "gap_end_time": "2024-06-20T13:00:10", "gap_duration_min": 98.72, "wasted_distance_km": 3.473, "prev_trip": "DA240620044711", "next_trip": "DA240620030311", "prev_O": [114.1762882, 22.2781796], "next_O": [114.2216835, 22.3196755]}, "geometry": {"type": "LineString", "coordinates": [[114.194583, 22.33713], [114.22232, 22.319325]]}}, {"type": "Feature", "properties": {"id": "ghost_XU8126_20240620133325", "plate_no": "XU8126", "gap_start_time": "2024-06-20T13:33:25", "gap_end_time": "2024-06-20T20:05:12", "gap_duration_min": 391.78, "wasted_distance_km": 8.508, "prev_trip": "DA240620030311", "next_trip": "DA240620024902", "prev_O": [114.2216835, 22.3196755], "next_O": [114.1771323, 22.3151833]}, "geometry": {"type": "LineString", "coordinates": [[114.238873, 22.264401], [114.177235, 22.315406]]}}, {"type": "Feature", "properties": {"id": "ghost_XV2836_20240620112231", "plate_no": "XV2836", "gap_start_time": "2024-06-20T11:22:31", "gap_end_time": "2024-06-20T12:10:03", "gap_duration_min": 47.53, "wasted_distance_km": 13.868, "prev_trip": "DA240620027002", "next_trip": "DA240620037602", "prev_O": [114.1225225, 22.3665044], "next_O": [114.2579494, 22.3113757]}, "geometry": {"type": "LineString", "coordinates": [[114.129258, 22.348228], [114.257923, 22.310956]]}}, {"type": "Feature", "properties": {"id": "ghost_XV2836_20240620123133", "plate_no": "XV2836", "gap_start_time": "2024-06-20T12:31:33", "gap_end_time": "2024-06-20T15:01:09", "gap_duration_min": 149.6, "wasted_distance_km": 4.054, "prev_trip": "DA240620037602", "next_trip": "DA240620003301", "prev_O": [114.2579494, 22.3113757], "next_O": [114.1734921, 22.2726294]}, "geometry": {"type": "LineString", "coordinates": [[114.205136, 22.293418], [114.172826, 22.272548], [114.172826, 22.272548]]}}, {"type": "Feature", "properties": {"id": "ghost_XV3002_20240620091306", "plate_no": "XV3002", "gap_start_time": "2024-06-20T09:13:06", "gap_end_time": "2024-06-20T10:02:06", "gap_duration_min": 49.0, "wasted_distance_km": 1.409, "prev_trip": "DA240620026201", "next_trip": "DA240620009101", "prev_O": [114.1393313, 22.2578067], "next_O": [114.1411253, 22.2854526]}, "geometry": {"type": "LineString", "coordinates": [[114.130413, 22.277146], [114.141346, 22.284771]]}}, {"type": "Feature", "properties": {"id": "ghost_XV3002_20240620102506", "plate_no": "XV3002", "gap_start_time": "2024-06-20T10:25:06", "gap_end_time": "2024-06-20T12:45:13", "gap_duration_min": 140.12, "wasted_distance_km": 0.007, "prev_trip": "DA240620009101", "next_trip": "DA240620009102", "prev_O": [114.1411253, 22.2854526], "next_O": [114.1732155, 22.2510972]}, "geometry": {"type": "LineString", "coordinates": [[114.17281, 22.251763], [114.172843, 22.251821]]}}, {"type": "Feature", "properties": {"id": "ghost_XV4803_20240620135227", "plate_no": "XV4803", "gap_start_time": "2024-06-20T13:52:27", "gap_end_time": "2024-06-20T20:30:20", "gap_duration_min": 397.88, "wasted_distance_km": 5.081, "prev_trip": "DA240620043601", "next_trip": "DA240620017102", "prev_O": [114.1363081, 22.2538641], "next_O": [114.1939798, 22.2874192]}, "geometry": {"type": "LineString", "coordinates": [[114.145365, 22.28544], [114.194645, 22.288415]]}}, {"type": "Feature", "properties": {"id": "ghost_XV6358_20240620082823", "plate_no": "XV6358", "gap_start_time": "2024-06-20T08:28:23", "gap_end_time": "2024-06-20T09:30:23", "gap_duration_min": 62.0, "wasted_distance_km": 1.069, "prev_trip": "DA240620034011", "next_trip": "DA240620015501", "prev_O": [114.2295202, 22.276932], "next_O": [114.2410423, 22.27625]}, "geometry": {"type": "LineString", "coordinates": [[114.233753, 22.269158], [114.240901, 22.27614]]}}, {"type": "Feature", "properties": {"id": "ghost_XV7112_20240620111243", "plate_no": "XV7112", "gap_start_time": "2024-06-20T11:12:43", "gap_end_time": "2024-06-20T15:04:02", "gap_duration_min": 231.32, "wasted_distance_km": 4.458, "prev_trip": "DA240620026001", "next_trip": "DA240620003911", "prev_O": [114.1031507, 22.3771276], "next_O": [114.1200839, 22.3703121]}, "geometry": {"type": "LineString", "coordinates": [[114.144971, 22.336285], [114.12184, 22.370188]]}}, {"type": "Feature", "properties": {"id": "ghost_YK3534_20240620101930", "plate_no": "YK3534", "gap_start_time": "2024-06-20T10:19:30", "gap_end_time": "2024-06-20T11:30:00", "gap_duration_min": 70.5, "wasted_distance_km": 15.743, "prev_trip": "DA240620027411", "next_trip": "DA240620035502", "prev_O": [113.9702349, 22.3715711], "next_O": [114.122987, 22.3743682]}, "geometry": {"type": "LineString", "coordinates": [[113.974513, 22.407623], [114.123288, 22.374121]]}}, {"type": "Feature", "properties": {"id": "ghost_YK3534_20240620114200", "plate_no": "YK3534", "gap_start_time": "2024-06-20T11:42:00", "gap_end_time": "2024-06-20T14:40:16", "gap_duration_min": 178.27, "wasted_distance_km": 9.657, "prev_trip": "DA240620035502", "next_trip": "DA240620001111", "prev_O": [114.122987, 22.3743682], "next_O": [114.1831334, 22.3223645]}, "geometry": {"type": "LineString", "coordinates": [[114.105783, 22.37227], [114.18269, 22.322448]]}}, {"type": "Feature", "properties": {"id": "ghost_YK5072_20240620083051", "plate_no": "YK5072", "gap_start_time": "2024-06-20T08:30:51", "gap_end_time": "2024-06-20T09:30:08", "gap_duration_min": 59.28, "wasted_distance_km": 13.462, "prev_trip": "DA240620029301", "next_trip": "DA240620011901", "prev_O": [114.2428883, 22.35557], "next_O": [114.2297222, 22.4252778]}, "geometry": {"type": "LineString", "coordinates": [[114.169695, 22.31789], [114.229765, 22.425461]]}}, {"type": "Feature", "properties": {"id": "ghost_YK5072_20240620095638", "plate_no": "YK5072", "gap_start_time": "2024-06-20T09:56:38", "gap_end_time": "2024-06-20T13:45:22", "gap_duration_min": 228.73, "wasted_distance_km": 2.732, "prev_trip": "DA240620011901", "next_trip": "DA240620013211", "prev_O": [114.2297222, 22.4252778], "next_O": [114.1986046, 22.3480398]}, "geometry": {"type": "LineString", "coordinates": [[114.187281, 22.325853], [114.19829, 22.348211]]}}, {"type": "Feature", "properties": {"id": "ghost_YK6404_20240620104327", "plate_no": "YK6404", "gap_start_time": "2024-06-20T10:43:27", "gap_end_time": "2024-06-20T14:30:01", "gap_duration_min": 226.57, "wasted_distance_km": 3.443, "prev_trip": "DA240620032211", "next_trip": "DA240620029411", "prev_O": [114.1675766, 22.3389067], "next_O": [114.1613838, 22.3200903]}, "geometry": {"type": "LineString", "coordinates": [[114.1882, 22.338836], [114.16176, 22.319846]]}}, {"type": "Feature", "properties": {"id": "ghost_YK6404_20240620145301", "plate_no": "YK6404", "gap_start_time": "2024-06-20T14:53:01", "gap_end_time": "2024-06-20T16:47:01", "gap_duration_min": 114.0, "wasted_distance_km": 5.816, "prev_trip": "DA240620029411", "next_trip": "DA240620013802", "prev_O": [114.1613838, 22.3200903], "next_O": [114.1611131, 22.3341651]}, "geometry": {"type": "LineString", "coordinates": [[114.16016, 22.279426], [114.164495, 22.33158]]}}, {"type": "Feature", "properties": {"id": "ghost_YK7874_20240620084403", "plate_no": "YK7874", "gap_start_time": "2024-06-20T08:44:03", "gap_end_time": "2024-06-20T09:05:12", "gap_duration_min": 21.15, "wasted_distance_km": 0.195, "prev_trip": "DA240620000701", "next_trip": "DA240620018901", "prev_O": [114.2004947, 22.2912707], "next_O": [114.1831334, 22.3223645]}, "geometry": {"type": "LineString", "coordinates": [[114.183521, 22.324015], [114.182706, 22.322433]]}}, {"type": "Feature", "properties": {"id": "ghost_YK7874_20240620094943", "plate_no": "YK7874", "gap_start_time": "2024-06-20T09:49:43", "gap_end_time": "2024-06-20T17:00:21", "gap_duration_min": 430.63, "wasted_distance_km": 2.094, "prev_trip": "DA240620018901", "next_trip": "DA240620019111", "prev_O": [114.1831334, 22.3223645], "next_O": [114.1394532, 22.2865441]}, "geometry": {"type": "LineString", "coordinates": [[114.125968, 22.272936], [114.139396, 22.287085]]}}, {"type": "Feature", "properties": {"id": "ghost_YK9007_20240620131659", "plate_no": "YK9007", "gap_start_time": "2024-06-20T13:16:59", "gap_end_time": "2024-06-20T15:45:28", "gap_duration_min": 148.48, "wasted_distance_km": 7.794, "prev_trip": "DA240620039002", "next_trip": "DA240620004211", "prev_O": [114.1966145, 22.3456548], "next_O": [114.173637, 22.2733649]}, "geometry": {"type": "LineString", "coordinates": [[114.14069, 22.336326], [114.174341, 22.273526]]}}, {"type": "Feature", "properties": {"id": "ghost_YK905_20240620145155", "plate_no": "YK905", "gap_start_time": "2024-06-20T14:51:55", "gap_end_time": "2024-06-20T16:00:25", "gap_duration_min": 68.5, "wasted_distance_km": 0.535, "prev_trip": "DA240620041611", "next_trip": "DA240620032002", "prev_O": [114.21284, 22.335789], "next_O": [114.199216, 22.380851]}, "geometry": {"type": "LineString", "coordinates": [[114.20478, 22.379021], [114.199793, 22.38039]]}}, {"type": "Feature", "properties": {"id": "ghost_YL1315_20240620092644", "plate_no": "YL1315", "gap_start_time": "2024-06-20T09:26:44", "gap_end_time": "2024-06-20T14:02:08", "gap_duration_min": 275.4, "wasted_distance_km": 1.902, "prev_trip": "DA240620003011", "next_trip": "DA240620037711", "prev_O": [114.2365271, 22.2631632], "next_O": [114.191186, 22.284962]}, "geometry": {"type": "LineString", "coordinates": [[114.176093, 22.274798], [114.191881, 22.283691]]}}, {"type": "Feature", "properties": {"id": "ghost_YL1315_20240620141509", "plate_no": "YL1315", "gap_start_time": "2024-06-20T14:15:09", "gap_end_time": "2024-06-20T14:35:09", "gap_duration_min": 20.0, "wasted_distance_km": 0.289, "prev_trip": "DA240620037711", "next_trip": "DA240620003111", "prev_O": [114.191186, 22.284962], "next_O": [114.173637, 22.2733649]}, "geometry": {"type": "LineString", "coordinates": [[114.175021, 22.276021], [114.173931, 22.273625]]}}, {"type": "Feature", "properties": {"id": "ghost_YL6700_20240620110055", "plate_no": "YL6700", "gap_start_time": "2024-06-20T11:00:55", "gap_end_time": "2024-06-20T15:00:46", "gap_duration_min": 239.85, "wasted_distance_km": 5.289, "prev_trip": "DA240620008901", "next_trip": "DA240620027201", "prev_O": [114.1252916, 22.4981163], "next_O": [114.1393937, 22.4839132]}, "geometry": {"type": "LineString", "coordinates": [[114.155348, 22.529633], [114.139768, 22.484301]]}}, {"type": "Feature", "properties": {"id": "ghost_YL7929_20240620064151", "plate_no": "YL7929", "gap_start_time": "2024-06-20T06:41:51", "gap_end_time": "2024-06-20T13:00:19", "gap_duration_min": 378.47, "wasted_distance_km": 3.799, "prev_trip": "DA240620020511", "next_trip": "DA240620037402", "prev_O": [114.2018517, 22.3360239], "next_O": [114.207831, 22.32266]}, "geometry": {"type": "LineString", "coordinates": [[114.169895, 22.317381], [114.206408, 22.322486]]}}, {"type": "Feature", "properties": {"id": "ghost_YL8061_20240620152401", "plate_no": "YL8061", "gap_start_time": "2024-06-20T15:24:01", "gap_end_time": "2024-06-20T16:35:01", "gap_duration_min": 71.0, "wasted_distance_km": 0.943, "prev_trip": "DA240620001411", "next_trip": "DA240620001502", "prev_O": [114.1734816, 22.2725317], "next_O": [114.1734816, 22.2725317]}, "geometry": {"type": "LineString", "coordinates": [[114.181108, 22.277578], [114.173945, 22.272285]]}}, {"type": "Feature", "properties": {"id": "ghost_YL8082_20240620120647", "plate_no": "YL8082", "gap_start_time": "2024-06-20T12:06:47", "gap_end_time": "2024-06-20T13:15:02", "gap_duration_min": 68.25, "wasted_distance_km": 2.518, "prev_trip": "DA240620008611", "next_trip": "DA240620039301", "prev_O": [114.191615, 22.269504], "next_O": [114.1686262, 22.2768098]}, "geometry": {"type": "LineString", "coordinates": [[114.19142, 22.269141], [114.16855, 22.27719]]}}, {"type": "Feature", "properties": {"id": "ghost_YY7490_20240620105614", "plate_no": "YY7490", "gap_start_time": "2024-06-20T10:56:14", "gap_end_time": "2024-06-20T13:41:12", "gap_duration_min": 164.97, "wasted_distance_km": 1.704, "prev_trip": "DA240620004901", "next_trip": "DA240620040611", "prev_O": [114.2359191, 22.2631705], "next_O": [114.1025148, 22.3730158]}, "geometry": {"type": "LineString", "coordinates": [[114.122633, 22.368773], [114.10639, 22.371811]]}}, {"type": "Feature", "properties": {"id": "ghost_YY7490_20240620135245", "plate_no": "YY7490", "gap_start_time": "2024-06-20T13:52:45", "gap_end_time": "2024-06-20T15:00:45", "gap_duration_min": 68.0, "wasted_distance_km": 7.55, "prev_trip": "DA240620040611", "next_trip": "DA240620044311", "prev_O": [114.1025148, 22.3730158], "next_O": [114.1987999, 22.3734371]}, "geometry": {"type": "LineString", "coordinates": [[114.133491, 22.342], [114.198656, 22.37327]]}}, {"type": "Feature", "properties": {"id": "ghost_YY7490_20240620154815", "plate_no": "YY7490", "gap_start_time": "2024-06-20T15:48:15", "gap_end_time": "2024-06-20T16:30:15", "gap_duration_min": 42.0, "wasted_distance_km": 8.345, "prev_trip": "DA240620044311", "next_trip": "DA240620009002", "prev_O": [114.1987999, 22.3734371], "next_O": [114.2362653, 22.2695993]}, "geometry": {"type": "LineString", "coordinates": [[114.15565, 22.249135], [114.233785, 22.269205]]}}, {"type": "Feature", "properties": {"id": "ghost_YY7621_20240620111244", "plate_no": "YY7621", "gap_start_time": "2024-06-20T11:12:44", "gap_end_time": "2024-06-20T17:38:55", "gap_duration_min": 386.18, "wasted_distance_km": 1.57, "prev_trip": "DA240620005001", "next_trip": "DA240620034402", "prev_O": [114.2417896, 22.4269811], "next_O": [114.1121394, 22.3699371]}, "geometry": {"type": "LineString", "coordinates": [[114.122651, 22.36872], [114.107551, 22.370788]]}}, {"type": "Feature", "properties": {"id": "ghost_YY7632_20240620114231", "plate_no": "YY7632", "gap_start_time": "2024-06-20T11:42:31", "gap_end_time": "2024-06-20T13:20:02", "gap_duration_min": 97.52, "wasted_distance_km": 14.259, "prev_trip": "DA240620013702", "next_trip": "DA240620036701", "prev_O": [114.128016, 22.352428], "next_O": [114.2509214, 22.4292952]}, "geometry": {"type": "LineString", "coordinates": [[114.13062, 22.36204], [114.248148, 22.430136]]}}, {"type": "Feature", "properties": {"id": "ghost_YZ2545_20240620105512", "plate_no": "YZ2545", "gap_start_time": "2024-06-20T10:55:12", "gap_end_time": "2024-06-20T14:20:21", "gap_duration_min": 205.15, "wasted_distance_km": 9.51, "prev_trip": "DA240620022101", "next_trip": "DA240620005802", "prev_O": [114.209362, 22.458109], "next_O": [114.173077, 22.4611085]}, "geometry": {"type": "LineString", "coordinates": [[114.184936, 22.376686], [114.17299, 22.461493]]}}, {"type": "Feature", "properties": {"id": "ghost_ZA2376_20240620134004", "plate_no": "ZA2376", "gap_start_time": "2024-06-20T13:40:04", "gap_end_time": "2024-06-20T14:30:12", "gap_duration_min": 50.13, "wasted_distance_km": 2.149, "prev_trip": "DA240620034711", "next_trip": "DA240620014201", "prev_O": [114.1675619, 22.3064441], "next_O": [114.1910075, 22.3429899]}, "geometry": {"type": "LineString", "coordinates": [[114.18602, 22.325261], [114.1925, 22.34363]]}}, {"type": "Feature", "properties": {"id": "ghost_ZA2376_20240620144822", "plate_no": "ZA2376", "gap_start_time": "2024-06-20T14:48:22", "gap_end_time": "2024-06-20T18:05:15", "gap_duration_min": 196.88, "wasted_distance_km": 2.796, "prev_trip": "DA240620014201", "next_trip": "DA240620035111", "prev_O": [114.1910075, 22.3429899], "next_O": [114.167667, 22.3069429]}, "geometry": {"type": "LineString", "coordinates": [[114.182991, 22.324673], [114.164286, 22.306425]]}}, {"type": "Feature", "properties": {"id": "ghost_ZA3805_20240620133908", "plate_no": "ZA3805", "gap_start_time": "2024-06-20T13:39:08", "gap_end_time": "2024-06-20T16:30:07", "gap_duration_min": 170.98, "wasted_distance_km": 19.216, "prev_trip": "DA240620019002", "next_trip": "DA240620033602", "prev_O": [114.1713296, 22.3304227], "next_O": [114.0036885, 22.4500309]}, "geometry": {"type": "LineString", "coordinates": [[113.943223, 22.28488], [114.004236, 22.448225]]}}, {"type": "Feature", "properties": {"id": "ghost_ZA4388_20240620093308", "plate_no": "ZA4388", "gap_start_time": "2024-06-20T09:33:08", "gap_end_time": "2024-06-20T14:00:12", "gap_duration_min": 267.07, "wasted_distance_km": 5.412, "prev_trip": "DA240620023911", "next_trip": "DA240620017501", "prev_O": [114.2209812, 22.2843551], "next_O": [114.2025682, 22.340996]}, "geometry": {"type": "LineString", "coordinates": [[114.205315, 22.293256], [114.201308, 22.341785]]}}, {"type": "Feature", "properties": {"id": "ghost_ZA6585_20240620083621", "plate_no": "ZA6585", "gap_start_time": "2024-06-20T08:36:21", "gap_end_time": "2024-06-20T09:57:13", "gap_duration_min": 80.87, "wasted_distance_km": 4.765, "prev_trip": "DA240620001201", "next_trip": "DA240620017901", "prev_O": [114.1645223, 22.2794233], "next_O": [114.2184775, 22.2876302]}, "geometry": {"type": "LineString", "coordinates": [[114.18619, 22.319296], [114.216906, 22.28722]]}}, {"type": "Feature", "properties": {"id": "ghost_ZA6585_20240620100343", "plate_no": "ZA6585", "gap_start_time": "2024-06-20T10:03:43", "gap_end_time": "2024-06-20T13:35:25", "gap_duration_min": 211.7, "wasted_distance_km": 8.669, "prev_trip": "DA240620017901", "next_trip": "DA240620024401", "prev_O": [114.2184775, 22.2876302], "next_O": [114.1553149, 22.2409917]}, "geometry": {"type": "LineString", "coordinates": [[114.233746, 22.269131], [114.155386, 22.240523]]}}, {"type": "Feature", "properties": {"id": "ghost_ZA6941_20240620083933", "plate_no": "ZA6941", "gap_start_time": "2024-06-20T08:39:33", "gap_end_time": "2024-06-20T09:47:53", "gap_duration_min": 68.33, "wasted_distance_km": 0.339, "prev_trip": "DA240620004111", "next_trip": "DA240620031201", "prev_O": [114.173386, 22.277853], "next_O": [114.1744015, 22.276511]}, "geometry": {"type": "LineString", "coordinates": [[114.174405, 22.274418], [114.177608, 22.275113]]}}, {"type": "Feature", "properties": {"id": "ghost_ZA7388_20240620080703", "plate_no": "ZA7388", "gap_start_time": "2024-06-20T08:07:03", "gap_end_time": "2024-06-20T11:00:37", "gap_duration_min": 173.57, "wasted_distance_km": 0.828, "prev_trip": "DA240620004511", "next_trip": "DA240620010302", "prev_O": [114.192092, 22.281794], "next_O": [114.1306512, 22.2705502]}, "geometry": {"type": "LineString", "coordinates": [[114.12307, 22.27235], [114.13081, 22.270323]]}}, {"type": "Feature", "properties": {"id": "ghost_ZA7388_20240620111306", "plate_no": "ZA7388", "gap_start_time": "2024-06-20T11:13:06", "gap_end_time": "2024-06-20T15:45:28", "gap_duration_min": 272.37, "wasted_distance_km": 8.611, "prev_trip": "DA240620010302", "next_trip": "DA240620007302", "prev_O": [114.1306512, 22.2705502], "next_O": [114.2253505, 22.2821867]}, "geometry": {"type": "LineString", "coordinates": [[114.142271, 22.284256], [114.225941, 22.28241]]}}, {"type": "Feature", "properties": {"id": "ghost_ZB3274_20240620092648", "plate_no": "ZB3274", "gap_start_time": "2024-06-20T09:26:48", "gap_end_time": "2024-06-20T15:15:12", "gap_duration_min": 348.4, "wasted_distance_km": 5.103, "prev_trip": "DA240620019401", "next_trip": "DA240620029902", "prev_O": [114.1316498, 22.2619987], "next_O": [114.1908047, 22.2754598]}, "geometry": {"type": "LineString", "coordinates": [[114.139725, 22.285705], [114.18855, 22.277663]]}}]}