{"type": "FeatureCollection", "features": [{"type": "Feature", "properties": {"id": "ghost_RX3329_20240602105600", "plate_no": "RX3329", "gap_start_time": "2024-06-02T10:56:00", "gap_end_time": "2024-06-02T14:15:00", "gap_duration_min": 199.0, "wasted_distance_km": 1.41, "prev_trip": "DA240602023801", "next_trip": "DA240602008202", "prev_O": [114.2219841, 22.2807501], "next_O": [114.2176415, 22.3189704]}, "geometry": {"type": "LineString", "coordinates": [[114.22361, 22.307263], [114.218045, 22.318791], [114.218091, 22.31882]]}}, {"type": "Feature", "properties": {"id": "ghost_RX3329_20240602143600", "plate_no": "RX3329", "gap_start_time": "2024-06-02T14:36:00", "gap_end_time": "2024-06-02T15:30:00", "gap_duration_min": 54.0, "wasted_distance_km": 7.414, "prev_trip": "DA240602008202", "next_trip": "DA240602004011", "prev_O": [114.2176415, 22.3189704], "next_O": [114.103119, 22.353436]}, "geometry": {"type": "LineString", "coordinates": [[114.170411, 22.33121], [114.103288, 22.354095], [114.103793, 22.35429]]}}, {"type": "Feature", "properties": {"id": "ghost_SL7802_20240602100700", "plate_no": "SL7802", "gap_start_time": "2024-06-02T10:07:00", "gap_end_time": "2024-06-02T13:30:00", "gap_duration_min": 203.0, "wasted_distance_km": 8.646, "prev_trip": "DA240602005401", "next_trip": "DA240602007701", "prev_O": [114.2559063, 22.3149238], "next_O": [114.1737752, 22.3192759]}, "geometry": {"type": "LineString", "coordinates": [[114.256653, 22.317928], [114.256135, 22.319895], [114.174326, 22.318808], [114.174351, 22.318843]]}}, {"type": "Feature", "properties": {"id": "ghost_SL9703_20240602093300", "plate_no": "SL9703", "gap_start_time": "2024-06-02T09:33:00", "gap_end_time": "2024-06-02T11:10:00", "gap_duration_min": 97.0, "wasted_distance_km": 0.042, "prev_trip": "DA240602000401", "next_trip": "DA240602000402", "prev_O": [114.143284, 22.4857616], "next_O": [114.2174678, 22.3987589]}, "geometry": {"type": "LineString", "coordinates": [[114.217503, 22.398316], [114.217261, 22.398018], [114.217258, 22.398011]]}}, {"type": "Feature", "properties": {"id": "ghost_TB9578_20240602100400", "plate_no": "TB9578", "gap_start_time": "2024-06-02T10:04:00", "gap_end_time": "2024-06-02T15:00:00", "gap_duration_min": 296.0, "wasted_distance_km": 0.547, "prev_trip": "DA240602005301", "next_trip": "DA240602005302", "prev_O": [114.2371957, 22.3060262], "next_O": [114.169504, 22.3050535]}, "geometry": {"type": "LineString", "coordinates": [[114.174565, 22.306753], [114.173403, 22.306296], [114.169456, 22.305463], [114.169456, 22.305461]]}}, {"type": "Feature", "properties": {"id": "ghost_TC5012_20240602093900", "plate_no": "TC5012", "gap_start_time": "2024-06-02T09:39:00", "gap_end_time": "2024-06-02T14:30:00", "gap_duration_min": 291.0, "wasted_distance_km": 4.391, "prev_trip": "DA240602001201", "next_trip": "DA240602002202", "prev_O": [114.2535612, 22.3021561], "next_O": [114.174763, 22.299489]}, "geometry": {"type": "LineString", "coordinates": [[114.19707, 22.331633], [114.197683, 22.331865], [114.17479, 22.299311], [114.17483, 22.29929]]}}, {"type": "Feature", "properties": {"id": "ghost_TC5012_20240602145000", "plate_no": "TC5012", "gap_start_time": "2024-06-02T14:50:00", "gap_end_time": "2024-06-02T17:00:00", "gap_duration_min": 130.0, "wasted_distance_km": 10.246, "prev_trip": "DA240602002202", "next_trip": "DA240602015511", "prev_O": [114.174763, 22.299489], "next_O": [114.1245083, 22.3592431]}, "geometry": {"type": "LineString", "coordinates": [[114.217076, 22.325038], [114.124585, 22.35926], [114.124588, 22.359258]]}}, {"type": "Feature", "properties": {"id": "ghost_TV9732_20240602084000", "plate_no": "TV9732", "gap_start_time": "2024-06-02T08:40:00", "gap_end_time": "2024-06-02T09:45:00", "gap_duration_min": 65.0, "wasted_distance_km": 4.315, "prev_trip": "DA240602013911", "next_trip": "DA240602010901", "prev_O": [114.1861542, 22.3419036], "next_O": [114.1868044, 22.3412778]}, "geometry": {"type": "LineString", "coordinates": [[114.177416, 22.303126], [114.188161, 22.34056], [114.188226, 22.340523]]}}, {"type": "Feature", "properties": {"id": "ghost_TX9739_20240602094300", "plate_no": "TX9739", "gap_start_time": "2024-06-02T09:43:00", "gap_end_time": "2024-06-02T11:57:00", "gap_duration_min": 134.0, "wasted_distance_km": 0.057, "prev_trip": "DA240602021311", "next_trip": "DA240602021411", "prev_O": [114.1327153, 22.3663241], "next_O": [114.1703573, 22.3740509]}, "geometry": {"type": "LineString", "coordinates": [[114.17013, 22.373861], [114.170663, 22.373851], [114.170663, 22.37383]]}}, {"type": "Feature", "properties": {"id": "ghost_TX9739_20240602120400", "plate_no": "TX9739", "gap_start_time": "2024-06-02T12:04:00", "gap_end_time": "2024-06-02T14:30:00", "gap_duration_min": 146.0, "wasted_distance_km": 7.342, "prev_trip": "DA240602021411", "next_trip": "DA240602021701", "prev_O": [114.1703573, 22.3740509], "next_O": [114.2254362, 22.4140772]}, "geometry": {"type": "LineString", "coordinates": [[114.168136, 22.374441], [114.225038, 22.414341], [114.225038, 22.414341]]}}, {"type": "Feature", "properties": {"id": "ghost_TX9739_20240602144900", "plate_no": "TX9739", "gap_start_time": "2024-06-02T14:49:00", "gap_end_time": "2024-06-02T17:00:00", "gap_duration_min": 131.0, "wasted_distance_km": 8.262, "prev_trip": "DA240602021701", "next_trip": "DA240602018711", "prev_O": [114.2254362, 22.4140772], "next_O": [114.1999667, 22.3927796]}, "geometry": {"type": "LineString", "coordinates": [[114.166151, 22.324228], [114.19972, 22.391736], [114.19972, 22.391736]]}}, {"type": "Feature", "properties": {"id": "ghost_TY3250_20240602101200", "plate_no": "TY3250", "gap_start_time": "2024-06-02T10:12:00", "gap_end_time": "2024-06-02T11:00:00", "gap_duration_min": 48.0, "wasted_distance_km": 11.838, "prev_trip": "DA240602010101", "next_trip": "DA240602026002", "prev_O": [114.2581878, 22.3233143], "next_O": [114.1681919, 22.3130286]}, "geometry": {"type": "LineString", "coordinates": [[114.222191, 22.406595], [114.222883, 22.406243], [114.168358, 22.313315], [114.168358, 22.313315]]}}, {"type": "Feature", "properties": {"id": "ghost_TY3250_20240602114000", "plate_no": "TY3250", "gap_start_time": "2024-06-02T11:40:00", "gap_end_time": "2024-06-02T16:35:00", "gap_duration_min": 295.0, "wasted_distance_km": 12.532, "prev_trip": "DA240602026002", "next_trip": "DA240602020311", "prev_O": [114.1681919, 22.3130286], "next_O": [114.1570547, 22.2407409]}, "geometry": {"type": "LineString", "coordinates": [[114.258168, 22.306566], [114.15716, 22.243598]]}}, {"type": "Feature", "properties": {"id": "ghost_UN8698_20240602094200", "plate_no": "UN8698", "gap_start_time": "2024-06-02T09:42:00", "gap_end_time": "2024-06-02T14:15:00", "gap_duration_min": 273.0, "wasted_distance_km": 21.065, "prev_trip": "DA240602019601", "next_trip": "DA240602004602", "prev_O": [114.2183846, 22.3955654], "next_O": [114.1798375, 22.3724468]}, "geometry": {"type": "LineString", "coordinates": [[113.975448, 22.399353], [114.178601, 22.374763], [114.178601, 22.374763]]}}, {"type": "Feature", "properties": {"id": "ghost_UN8698_20240602144300", "plate_no": "UN8698", "gap_start_time": "2024-06-02T14:43:00", "gap_end_time": "2024-06-02T18:30:00", "gap_duration_min": 227.0, "wasted_distance_km": 6.669, "prev_trip": "DA240602004602", "next_trip": "DA240602003311", "prev_O": [114.1798375, 22.3724468], "next_O": [114.2159857, 22.38043]}, "geometry": {"type": "LineString", "coordinates": [[114.223048, 22.320708], [114.215958, 22.38032], [114.215965, 22.380321]]}}, {"type": "Feature", "properties": {"id": "ghost_UN9553_20240602170000", "plate_no": "UN9553", "gap_start_time": "2024-06-02T17:00:00", "gap_end_time": "2024-06-02T21:55:00", "gap_duration_min": 295.0, "wasted_distance_km": 0.284, "prev_trip": "DA240602015811", "next_trip": "DA240602015111", "prev_O": [114.17791, 22.31316], "next_O": [114.1616361, 22.2822389]}, "geometry": {"type": "LineString", "coordinates": [[114.159626, 22.282221], [114.162341, 22.282695]]}}, {"type": "Feature", "properties": {"id": "ghost_UN9790_20240602113000", "plate_no": "UN9790", "gap_start_time": "2024-06-02T11:30:00", "gap_end_time": "2024-06-02T15:00:00", "gap_duration_min": 210.0, "wasted_distance_km": 20.78, "prev_trip": "DA240602023411", "next_trip": "DA240602026111", "prev_O": [114.03604, 22.43513], "next_O": [114.1591568, 22.4515115]}, "geometry": {"type": "LineString", "coordinates": [[114.132085, 22.266778], [114.159193, 22.451966], [114.159196, 22.451965]]}}, {"type": "Feature", "properties": {"id": "ghost_UN9790_20240602151200", "plate_no": "UN9790", "gap_start_time": "2024-06-02T15:12:00", "gap_end_time": "2024-06-02T17:00:00", "gap_duration_min": 108.0, "wasted_distance_km": 13.693, "prev_trip": "DA240602026111", "next_trip": "DA240602019111", "prev_O": [114.1591568, 22.4515115], "next_O": [114.1999667, 22.3927796]}, "geometry": {"type": "LineString", "coordinates": [[114.134185, 22.500365], [114.201381, 22.394073], [114.201425, 22.394086]]}}, {"type": "Feature", "properties": {"id": "ghost_UP3870_20240602094200", "plate_no": "UP3870", "gap_start_time": "2024-06-02T09:42:00", "gap_end_time": "2024-06-02T10:15:00", "gap_duration_min": 33.0, "wasted_distance_km": 1.536, "prev_trip": "DA240602024001", "next_trip": "DA240602002511", "prev_O": [114.1726302, 22.4612951], "next_O": [114.1567547, 22.4475678]}, "geometry": {"type": "LineString", "coordinates": [[114.172096, 22.446998], [114.157258, 22.448658], [114.15726, 22.44866]]}}, {"type": "Feature", "properties": {"id": "ghost_UP3870_20240602112600", "plate_no": "UP3870", "gap_start_time": "2024-06-02T11:26:00", "gap_end_time": "2024-06-02T16:15:00", "gap_duration_min": 289.0, "wasted_distance_km": 0.013, "prev_trip": "DA240602002511", "next_trip": "DA240602002611", "prev_O": [114.1567547, 22.4475678], "next_O": [114.1941178, 22.2884225]}, "geometry": {"type": "LineString", "coordinates": [[114.1949, 22.28818], [114.194826, 22.288088]]}}, {"type": "Feature", "properties": {"id": "ghost_UP7636_20240602084000", "plate_no": "UP7636", "gap_start_time": "2024-06-02T08:40:00", "gap_end_time": "2024-06-02T09:10:00", "gap_duration_min": 30.0, "wasted_distance_km": 1.242, "prev_trip": "DA240602019811", "next_trip": "DA240602000501", "prev_O": [114.2314804, 22.4191167], "next_O": [114.2168687, 22.3982025]}, "geometry": {"type": "LineString", "coordinates": [[114.208101, 22.393288], [114.207831, 22.392916], [114.217505, 22.398323], [114.217221, 22.398248]]}}, {"type": "Feature", "properties": {"id": "ghost_UP7636_20240602091900", "plate_no": "UP7636", "gap_start_time": "2024-06-02T09:19:00", "gap_end_time": "2024-06-02T11:15:00", "gap_duration_min": 116.0, "wasted_distance_km": 0.094, "prev_trip": "DA240602000501", "next_trip": "DA240602000902", "prev_O": [114.2168687, 22.3982025], "next_O": [114.2174678, 22.3987589]}, "geometry": {"type": "LineString", "coordinates": [[114.21674, 22.398258], [114.217528, 22.398423], [114.217568, 22.398335]]}}, {"type": "Feature", "properties": {"id": "ghost_UP7636_20240602112500", "plate_no": "UP7636", "gap_start_time": "2024-06-02T11:25:00", "gap_end_time": "2024-06-02T12:45:00", "gap_duration_min": 80.0, "wasted_distance_km": 2.648, "prev_trip": "DA240602000902", "next_trip": "DA240602000502", "prev_O": [114.2174678, 22.3987589], "next_O": [114.2174678, 22.3987589]}, "geometry": {"type": "LineString", "coordinates": [[114.23077, 22.417795], [114.229863, 22.41817], [114.229655, 22.41763], [114.217541, 22.398333], [114.217536, 22.39834]]}}, {"type": "Feature", "properties": {"id": "ghost_UP9011_20240602091700", "plate_no": "UP9011", "gap_start_time": "2024-06-02T09:17:00", "gap_end_time": "2024-06-02T11:00:00", "gap_duration_min": 103.0, "wasted_distance_km": 3.154, "prev_trip": "DA240602002301", "next_trip": "DA240602022401", "prev_O": [114.2687672, 22.3166476], "next_O": [114.2291585, 22.3155811]}, "geometry": {"type": "LineString", "coordinates": [[114.25865, 22.307121], [114.229505, 22.315165], [114.22975, 22.315195]]}}, {"type": "Feature", "properties": {"id": "ghost_UP9011_20240602112700", "plate_no": "UP9011", "gap_start_time": "2024-06-02T11:27:00", "gap_end_time": "2024-06-02T15:40:00", "gap_duration_min": 253.0, "wasted_distance_km": 9.665, "prev_trip": "DA240602022401", "next_trip": "DA240602002302", "prev_O": [114.2291585, 22.3155811], "next_O": [114.2633643, 22.306645]}, "geometry": {"type": "LineString", "coordinates": [[114.175358, 22.336165], [114.26385, 22.307025], [114.263835, 22.307003]]}}, {"type": "Feature", "properties": {"id": "ghost_UR468_20240602103200", "plate_no": "UR468", "gap_start_time": "2024-06-02T10:32:00", "gap_end_time": "2024-06-02T12:45:00", "gap_duration_min": 133.0, "wasted_distance_km": 5.054, "prev_trip": "DA240602010301", "next_trip": "DA240602004202", "prev_O": [114.0285976, 22.4305301], "next_O": [113.9792362, 22.3877306]}, "geometry": {"type": "LineString", "coordinates": [[113.993618, 22.431295], [113.979301, 22.387875], [113.979253, 22.387835]]}}, {"type": "Feature", "properties": {"id": "ghost_UR468_20240602125300", "plate_no": "UR468", "gap_start_time": "2024-06-02T12:53:00", "gap_end_time": "2024-06-02T13:40:00", "gap_duration_min": 47.0, "wasted_distance_km": 5.498, "prev_trip": "DA240602004202", "next_trip": "DA240602018311", "prev_O": [113.9792362, 22.3877306], "next_O": [113.9961706, 22.4341317]}, "geometry": {"type": "LineString", "coordinates": [[113.979163, 22.387755], [113.99617, 22.43447], [113.99608, 22.434596]]}}, {"type": "Feature", "properties": {"id": "ghost_VE6920_20240602111500", "plate_no": "VE6920", "gap_start_time": "2024-06-02T11:15:00", "gap_end_time": "2024-06-02T14:00:00", "gap_duration_min": 165.0, "wasted_distance_km": 5.024, "prev_trip": "DA240602020411", "next_trip": "DA240602010711", "prev_O": [114.1926498, 22.374744], "next_O": [114.2240734, 22.3327511]}, "geometry": {"type": "LineString", "coordinates": [[114.267501, 22.316501], [114.22242, 22.331503], [114.221928, 22.33077]]}}, {"type": "Feature", "properties": {"id": "ghost_VE6920_20240602141200", "plate_no": "VE6920", "gap_start_time": "2024-06-02T14:12:00", "gap_end_time": "2024-06-02T16:00:00", "gap_duration_min": 108.0, "wasted_distance_km": 4.248, "prev_trip": "DA240602010711", "next_trip": "DA240602024102", "prev_O": [114.2240734, 22.3327511], "next_O": [114.2214997, 22.3107319]}, "geometry": {"type": "LineString", "coordinates": [[114.193501, 22.337145], [114.193828, 22.337835], [114.221873, 22.310831], [114.221873, 22.310831]]}}, {"type": "Feature", "properties": {"id": "ghost_VE7751_20240602172200", "plate_no": "VE7751", "gap_start_time": "2024-06-02T17:22:00", "gap_end_time": "2024-06-02T20:00:00", "gap_duration_min": 158.0, "wasted_distance_km": 0.534, "prev_trip": "DA240602023601", "next_trip": "DA240602023602", "prev_O": [114.23931, 22.306717], "next_O": [114.1694048, 22.2973512]}, "geometry": {"type": "LineString", "coordinates": [[114.172618, 22.294676], [114.171595, 22.294696], [114.168911, 22.29759], [114.168898, 22.297553]]}}, {"type": "Feature", "properties": {"id": "ghost_VE8110_20240602104600", "plate_no": "VE8110", "gap_start_time": "2024-06-02T10:46:00", "gap_end_time": "2024-06-02T12:46:00", "gap_duration_min": 120.0, "wasted_distance_km": 7.092, "prev_trip": "DA240602008011", "next_trip": "DA240602002001", "prev_O": [114.2419046, 22.42537], "next_O": [114.1751006, 22.4488917]}, "geometry": {"type": "LineString", "coordinates": [[114.208168, 22.39242], [114.175433, 22.448256], [114.175698, 22.44813]]}}, {"type": "Feature", "properties": {"id": "ghost_VE8500_20240602091100", "plate_no": "VE8500", "gap_start_time": "2024-06-02T09:11:00", "gap_end_time": "2024-06-02T10:15:00", "gap_duration_min": 64.0, "wasted_distance_km": 3.369, "prev_trip": "DA240602012801", "next_trip": "DA240602004601", "prev_O": [114.199602, 22.350058], "next_O": [114.2216835, 22.3196755]}, "geometry": {"type": "LineString", "coordinates": [[114.19178, 22.330635], [114.22219, 22.319666], [114.222225, 22.319571]]}}, {"type": "Feature", "properties": {"id": "ghost_VE8500_20240602103700", "plate_no": "VE8500", "gap_start_time": "2024-06-02T10:37:00", "gap_end_time": "2024-06-02T16:01:00", "gap_duration_min": 324.0, "wasted_distance_km": 8.943, "prev_trip": "DA240602004601", "next_trip": "DA240602022102", "prev_O": [114.2216835, 22.3196755], "next_O": [114.1977586, 22.2904115]}, "geometry": {"type": "LineString", "coordinates": [[114.180416, 22.369066], [114.195838, 22.289913]]}}, {"type": "Feature", "properties": {"id": "ghost_VF8574_20240602120800", "plate_no": "VF8574", "gap_start_time": "2024-06-02T12:08:00", "gap_end_time": "2024-06-02T14:06:00", "gap_duration_min": 118.0, "wasted_distance_km": 8.684, "prev_trip": "DA240602001002", "next_trip": "DA240602011302", "prev_O": [114.1133935, 22.3618124], "next_O": [114.1770247, 22.3151042]}, "geometry": {"type": "LineString", "coordinates": [[114.10474, 22.361435], [114.173823, 22.316536]]}}, {"type": "Feature", "properties": {"id": "ghost_VV6972_20240602083100", "plate_no": "VV6972", "gap_start_time": "2024-06-02T08:31:00", "gap_end_time": "2024-06-02T09:45:00", "gap_duration_min": 74.0, "wasted_distance_km": 3.299, "prev_trip": "DA240602022101", "next_trip": "DA240602021101", "prev_O": [114.2702546, 22.2944817], "next_O": [114.2303659, 22.2776466]}, "geometry": {"type": "LineString", "coordinates": [[114.201873, 22.291406], [114.230278, 22.27767], [114.230285, 22.277678]]}}, {"type": "Feature", "properties": {"id": "ghost_VW3047_20240602134800", "plate_no": "VW3047", "gap_start_time": "2024-06-02T13:48:00", "gap_end_time": "2024-06-02T16:00:00", "gap_duration_min": 132.0, "wasted_distance_km": 24.802, "prev_trip": "DA240602021602", "next_trip": "DA240602019602", "prev_O": [114.1999476, 22.3928624], "next_O": [113.9757874, 22.3986569]}, "geometry": {"type": "LineString", "coordinates": [[114.150746, 22.24446], [113.975625, 22.397733], [113.97566, 22.397716]]}}, {"type": "Feature", "properties": {"id": "ghost_VW3473_20240602121900", "plate_no": "VW3473", "gap_start_time": "2024-06-02T12:19:00", "gap_end_time": "2024-06-02T16:16:00", "gap_duration_min": 237.0, "wasted_distance_km": 12.242, "prev_trip": "DA240602004811", "next_trip": "DA240602002811", "prev_O": [114.2023161, 22.3470226], "next_O": [114.1941178, 22.2884225]}, "geometry": {"type": "LineString", "coordinates": [[114.112853, 22.369558], [114.191451, 22.28723], [114.191423, 22.287486]]}}, {"type": "Feature", "properties": {"id": "ghost_VW5222_20240602084600", "plate_no": "VW5222", "gap_start_time": "2024-06-02T08:46:00", "gap_end_time": "2024-06-02T10:50:00", "gap_duration_min": 124.0, "wasted_distance_km": 7.16, "prev_trip": "DA240602026001", "next_trip": "DA240602004501", "prev_O": [114.2572761, 22.3074503], "next_O": [114.233113, 22.306994]}, "geometry": {"type": "LineString", "coordinates": [[114.166673, 22.314593], [114.16635, 22.316738], [114.23269, 22.306471], [114.23269, 22.306471]]}}, {"type": "Feature", "properties": {"id": "ghost_VW5222_20240602110000", "plate_no": "VW5222", "gap_start_time": "2024-06-02T11:00:00", "gap_end_time": "2024-06-02T13:10:00", "gap_duration_min": 130.0, "wasted_distance_km": 0.602, "prev_trip": "DA240602004501", "next_trip": "DA240602004502", "prev_O": [114.233113, 22.306994], "next_O": [114.2066352, 22.2922452]}, "geometry": {"type": "LineString", "coordinates": [[114.205568, 22.29343], [114.20525, 22.293158], [114.20856, 22.29126], [114.207141, 22.291773]]}}, {"type": "Feature", "properties": {"id": "ghost_VW5222_20240602131900", "plate_no": "VW5222", "gap_start_time": "2024-06-02T13:19:00", "gap_end_time": "2024-06-02T16:45:00", "gap_duration_min": 206.0, "wasted_distance_km": 6.88, "prev_trip": "DA240602004502", "next_trip": "DA240602012002", "prev_O": [114.2066352, 22.2922452], "next_O": [114.1676695, 22.3069775]}, "geometry": {"type": "LineString", "coordinates": [[114.234346, 22.30512], [114.233441, 22.305746], [114.167756, 22.307351], [114.167726, 22.307325]]}}, {"type": "Feature", "properties": {"id": "ghost_VW7058_20240602093800", "plate_no": "VW7058", "gap_start_time": "2024-06-02T09:38:00", "gap_end_time": "2024-06-02T11:00:00", "gap_duration_min": 82.0, "wasted_distance_km": 6.266, "prev_trip": "DA240602007101", "next_trip": "DA240602024311", "prev_O": [113.9770187, 22.3878801], "next_O": [113.996696, 22.4334774]}, "geometry": {"type": "LineString", "coordinates": [[113.975245, 22.384266], [113.975206, 22.382786], [113.99689, 22.433855], [113.996885, 22.433846]]}}, {"type": "Feature", "properties": {"id": "ghost_VW7058_20240602111500", "plate_no": "VW7058", "gap_start_time": "2024-06-02T11:15:00", "gap_end_time": "2024-06-02T13:15:00", "gap_duration_min": 120.0, "wasted_distance_km": 0.389, "prev_trip": "DA240602024311", "next_trip": "DA240602024411", "prev_O": [113.996696, 22.4334774], "next_O": [113.979447, 22.408071]}, "geometry": {"type": "LineString", "coordinates": [[113.982313, 22.409838], [113.98198, 22.409203], [113.981125, 22.408703], [113.979558, 22.407583], [113.979531, 22.407588]]}}, {"type": "Feature", "properties": {"id": "ghost_VX2887_20240602133900", "plate_no": "VX2887", "gap_start_time": "2024-06-02T13:39:00", "gap_end_time": "2024-06-02T15:50:00", "gap_duration_min": 131.0, "wasted_distance_km": 4.114, "prev_trip": "DA240602025201", "next_trip": "DA240602015201", "prev_O": [114.1712922, 22.3307344], "next_O": [114.2030767, 22.3321093]}, "geometry": {"type": "LineString", "coordinates": [[114.166378, 22.316623], [114.203058, 22.331268], [114.20308, 22.331236]]}}, {"type": "Feature", "properties": {"id": "ghost_VX2887_20240602161200", "plate_no": "VX2887", "gap_start_time": "2024-06-02T16:12:00", "gap_end_time": "2024-06-02T17:25:00", "gap_duration_min": 73.0, "wasted_distance_km": 3.607, "prev_trip": "DA240602015201", "next_trip": "DA240602020102", "prev_O": [114.2030767, 22.3321093], "next_O": [114.159174, 22.249964]}, "geometry": {"type": "LineString", "coordinates": [[114.160586, 22.282333], [114.15937, 22.249918], [114.15937, 22.249921]]}}, {"type": "Feature", "properties": {"id": "ghost_VX2887_20240602172600", "plate_no": "VX2887", "gap_start_time": "2024-06-02T17:26:00", "gap_end_time": "2024-06-02T20:16:00", "gap_duration_min": 170.0, "wasted_distance_km": 22.891, "prev_trip": "DA240602020102", "next_trip": "DA240602017002", "prev_O": [114.159174, 22.249964], "next_O": [113.9424085, 22.2889466]}, "geometry": {"type": "LineString", "coordinates": [[114.159311, 22.24976], [113.940626, 22.287475], [113.940626, 22.287475]]}}, {"type": "Feature", "properties": {"id": "ghost_VY5967_20240602150200", "plate_no": "VY5967", "gap_start_time": "2024-06-02T15:02:00", "gap_end_time": "2024-06-02T16:45:00", "gap_duration_min": 103.0, "wasted_distance_km": 7.25, "prev_trip": "DA240602006102", "next_trip": "DA240602017702", "prev_O": [114.1747629, 22.2994605], "next_O": [114.1242953, 22.3595196]}, "geometry": {"type": "LineString", "coordinates": [[114.192121, 22.340951], [114.12455, 22.359196], [114.124595, 22.359108]]}}, {"type": "Feature", "properties": {"id": "ghost_VY8279_20240602091000", "plate_no": "VY8279", "gap_start_time": "2024-06-02T09:10:00", "gap_end_time": "2024-06-02T10:15:00", "gap_duration_min": 65.0, "wasted_distance_km": 1.069, "prev_trip": "DA240602012511", "next_trip": "DA240602020811", "prev_O": [114.2110747, 22.3283168], "next_O": [114.2288759, 22.3216011]}, "geometry": {"type": "LineString", "coordinates": [[114.222745, 22.313795], [114.229046, 22.321346], [114.229038, 22.321416]]}}, {"type": "Feature", "properties": {"id": "ghost_WP510_20240602130800", "plate_no": "WP510", "gap_start_time": "2024-06-02T13:08:00", "gap_end_time": "2024-06-02T15:10:00", "gap_duration_min": 122.0, "wasted_distance_km": 0.3, "prev_trip": "DA240602001901", "next_trip": "DA240602019911", "prev_O": [113.9831752, 22.4139964], "next_O": [114.2084355, 22.3871361]}, "geometry": {"type": "LineString", "coordinates": [[114.206725, 22.38588], [114.208813, 22.387718], [114.208798, 22.387688]]}}, {"type": "Feature", "properties": {"id": "ghost_WP510_20240602152000", "plate_no": "WP510", "gap_start_time": "2024-06-02T15:20:00", "gap_end_time": "2024-06-02T16:30:00", "gap_duration_min": 70.0, "wasted_distance_km": 3.952, "prev_trip": "DA240602019911", "next_trip": "DA240602002002", "prev_O": [114.2084355, 22.3871361], "next_O": [114.209342, 22.389428]}, "geometry": {"type": "LineString", "coordinates": [[114.229366, 22.419915], [114.20911, 22.389715], [114.20912, 22.389718]]}}, {"type": "Feature", "properties": {"id": "ghost_XE1372_20240602095900", "plate_no": "XE1372", "gap_start_time": "2024-06-02T09:59:00", "gap_end_time": "2024-06-02T12:30:00", "gap_duration_min": 151.0, "wasted_distance_km": 0.412, "prev_trip": "DA240602017901", "next_trip": "DA240602017902", "prev_O": [114.2541271, 22.3241653], "next_O": [114.1261909, 22.3574339]}, "geometry": {"type": "LineString", "coordinates": [[114.123358, 22.355396], [114.12705, 22.35683]]}}, {"type": "Feature", "properties": {"id": "ghost_XE1372_20240602130100", "plate_no": "XE1372", "gap_start_time": "2024-06-02T13:01:00", "gap_end_time": "2024-06-02T13:51:00", "gap_duration_min": 50.0, "wasted_distance_km": 8.027, "prev_trip": "DA240602017902", "next_trip": "DA240602011002", "prev_O": [114.1261909, 22.3574339], "next_O": [114.1770247, 22.3151042]}, "geometry": {"type": "LineString", "coordinates": [[114.254693, 22.322403], [114.17712, 22.315466], [114.177135, 22.315375]]}}, {"type": "Feature", "properties": {"id": "ghost_XE1372_20240602141200", "plate_no": "XE1372", "gap_start_time": "2024-06-02T14:12:00", "gap_end_time": "2024-06-02T15:30:00", "gap_duration_min": 78.0, "wasted_distance_km": 6.703, "prev_trip": "DA240602011002", "next_trip": "DA240602005402", "prev_O": [114.1770247, 22.3151042], "next_O": [114.2571136, 22.3216179]}, "geometry": {"type": "LineString", "coordinates": [[114.197701, 22.346626], [114.256635, 22.321606], [114.256348, 22.321745]]}}, {"type": "Feature", "properties": {"id": "ghost_XE1372_20240602153800", "plate_no": "XE1372", "gap_start_time": "2024-06-02T15:38:00", "gap_end_time": "2024-06-02T17:15:00", "gap_duration_min": 97.0, "wasted_distance_km": 2.193, "prev_trip": "DA240602005402", "next_trip": "DA240602018401", "prev_O": [114.2571136, 22.3216179], "next_O": [114.2363803, 22.3115025]}, "geometry": {"type": "LineString", "coordinates": [[114.257776, 22.31462], [114.23675, 22.311475], [114.236743, 22.311496]]}}, {"type": "Feature", "properties": {"id": "ghost_XE1886_20240602110100", "plate_no": "XE1886", "gap_start_time": "2024-06-02T11:01:00", "gap_end_time": "2024-06-02T13:00:00", "gap_duration_min": 119.0, "wasted_distance_km": 1.46, "prev_trip": "DA240602003901", "next_trip": "DA240602012202", "prev_O": [114.1977625, 22.2104264], "next_O": [114.1676248, 22.3069524]}, "geometry": {"type": "LineString", "coordinates": [[114.171745, 22.294586], [114.167878, 22.307103], [114.167825, 22.307203]]}}, {"type": "Feature", "properties": {"id": "ghost_XE2198_20240602085700", "plate_no": "XE2198", "gap_start_time": "2024-06-02T08:57:00", "gap_end_time": "2024-06-02T09:30:00", "gap_duration_min": 33.0, "wasted_distance_km": 6.893, "prev_trip": "DA240602001701", "next_trip": "DA240602001501", "prev_O": [114.196076, 22.388196], "next_O": [114.209362, 22.458109]}, "geometry": {"type": "LineString", "coordinates": [[114.199523, 22.396605], [114.209663, 22.457875], [114.20966, 22.457883]]}}, {"type": "Feature", "properties": {"id": "ghost_XE2198_20240602094200", "plate_no": "XE2198", "gap_start_time": "2024-06-02T09:42:00", "gap_end_time": "2024-06-02T12:00:00", "gap_duration_min": 138.0, "wasted_distance_km": 5.628, "prev_trip": "DA240602001501", "next_trip": "DA240602013511", "prev_O": [114.209362, 22.458109], "next_O": [114.2113817, 22.4136093]}, "geometry": {"type": "LineString", "coordinates": [[114.177481, 22.452301], [114.177191, 22.451113], [114.211426, 22.413186], [114.211426, 22.413186]]}}, {"type": "Feature", "properties": {"id": "ghost_XE2198_20240602121900", "plate_no": "XE2198", "gap_start_time": "2024-06-02T12:19:00", "gap_end_time": "2024-06-02T13:01:00", "gap_duration_min": 42.0, "wasted_distance_km": 1.495, "prev_trip": "DA240602013511", "next_trip": "DA240602001502", "prev_O": [114.2113817, 22.4136093], "next_O": [114.175653, 22.447208]}, "geometry": {"type": "LineString", "coordinates": [[114.174893, 22.460893], [114.175606, 22.447498], [114.175598, 22.447468]]}}, {"type": "Feature", "properties": {"id": "ghost_XE7168_20240602082100", "plate_no": "XE7168", "gap_start_time": "2024-06-02T08:21:00", "gap_end_time": "2024-06-02T10:20:00", "gap_duration_min": 119.0, "wasted_distance_km": 4.069, "prev_trip": "DA240602005711", "next_trip": "DA240602005811", "prev_O": [114.2168288, 22.3242203], "next_O": [114.1925768, 22.3420752]}, "geometry": {"type": "LineString", "coordinates": [[114.2183, 22.315141], [114.19333, 22.343523]]}}, {"type": "Feature", "properties": {"id": "ghost_XE953_20240602081600", "plate_no": "XE953", "gap_start_time": "2024-06-02T08:16:00", "gap_end_time": "2024-06-02T09:15:00", "gap_duration_min": 59.0, "wasted_distance_km": 7.416, "prev_trip": "DA240602017701", "next_trip": "DA240602006101", "prev_O": [114.20582, 22.462254], "next_O": [114.1949978, 22.3410081]}, "geometry": {"type": "LineString", "coordinates": [[114.124593, 22.359321], [114.193868, 22.341166], [114.193978, 22.341145]]}}, {"type": "Feature", "properties": {"id": "ghost_XE953_20240602103400", "plate_no": "XE953", "gap_start_time": "2024-06-02T10:34:00", "gap_end_time": "2024-06-02T12:20:00", "gap_duration_min": 106.0, "wasted_distance_km": 1.725, "prev_trip": "DA240602006101", "next_trip": "DA240602017802", "prev_O": [114.1949978, 22.3410081], "next_O": [114.1786768, 22.3122616]}, "geometry": {"type": "LineString", "coordinates": [[114.175376, 22.296865], [114.18007, 22.311735], [114.180078, 22.311755]]}}, {"type": "Feature", "properties": {"id": "ghost_XE953_20240602123500", "plate_no": "XE953", "gap_start_time": "2024-06-02T12:35:00", "gap_end_time": "2024-06-02T16:00:00", "gap_duration_min": 205.0, "wasted_distance_km": 5.261, "prev_trip": "DA240602017802", "next_trip": "DA240602015311", "prev_O": [114.1786768, 22.3122616], "next_O": [114.1245083, 22.3592431]}, "geometry": {"type": "LineString", "coordinates": [[114.162206, 22.327318], [114.124646, 22.359381], [114.124685, 22.359386]]}}, {"type": "Feature", "properties": {"id": "ghost_XM6122_20240602185900", "plate_no": "XM6122", "gap_start_time": "2024-06-02T18:59:00", "gap_end_time": "2024-06-02T21:55:00", "gap_duration_min": 176.0, "wasted_distance_km": 19.044, "prev_trip": "DA240602018511", "next_trip": "DA240602016402", "prev_O": [114.236331, 22.3055387], "next_O": [114.1616361, 22.2822389]}, "geometry": {"type": "LineString", "coordinates": [[114.250635, 22.43218], [114.160703, 22.282465], [114.160701, 22.282463]]}}, {"type": "Feature", "properties": {"id": "ghost_XV2836_20240602080900", "plate_no": "XV2836", "gap_start_time": "2024-06-02T08:09:00", "gap_end_time": "2024-06-02T10:45:00", "gap_duration_min": 156.0, "wasted_distance_km": 0.814, "prev_trip": "DA240602020101", "next_trip": "DA240602013601", "prev_O": [114.1585432, 22.247762], "next_O": [114.1509485, 22.2524044]}, "geometry": {"type": "LineString", "coordinates": [[114.159406, 22.2499], [114.15354, 22.249658], [114.155573, 22.249591]]}}, {"type": "Feature", "properties": {"id": "ghost_XV2836_20240602104600", "plate_no": "XV2836", "gap_start_time": "2024-06-02T10:46:00", "gap_end_time": "2024-06-02T12:50:00", "gap_duration_min": 124.0, "wasted_distance_km": 0.097, "prev_trip": "DA240602013601", "next_trip": "DA240602013602", "prev_O": [114.1509485, 22.2524044], "next_O": [114.155879, 22.249999]}, "geometry": {"type": "LineString", "coordinates": [[114.155741, 22.24952], [114.156498, 22.250041], [114.156498, 22.250041]]}}, {"type": "Feature", "properties": {"id": "ghost_XV2836_20240602130600", "plate_no": "XV2836", "gap_start_time": "2024-06-02T13:06:00", "gap_end_time": "2024-06-02T15:23:00", "gap_duration_min": 137.0, "wasted_distance_km": 13.994, "prev_trip": "DA240602013602", "next_trip": "DA240602013802", "prev_O": [114.155879, 22.249999], "next_O": [114.121075, 22.3684671]}, "geometry": {"type": "LineString", "coordinates": [[114.1577, 22.248443], [114.120343, 22.36896], [114.120475, 22.368501]]}}, {"type": "Feature", "properties": {"id": "ghost_XV7112_20240602114200", "plate_no": "XV7112", "gap_start_time": "2024-06-02T11:42:00", "gap_end_time": "2024-06-02T13:15:00", "gap_duration_min": 93.0, "wasted_distance_km": 4.407, "prev_trip": "DA240602008801", "next_trip": "DA240602010302", "prev_O": [114.1266854, 22.3621829], "next_O": [113.9934024, 22.431056]}, "geometry": {"type": "LineString", "coordinates": [[114.002716, 22.469988], [114.002866, 22.469511], [113.993616, 22.431326], [113.993613, 22.43132]]}}, {"type": "Feature", "properties": {"id": "ghost_XV7112_20240602133100", "plate_no": "XV7112", "gap_start_time": "2024-06-02T13:31:00", "gap_end_time": "2024-06-02T15:45:00", "gap_duration_min": 134.0, "wasted_distance_km": 4.531, "prev_trip": "DA240602010302", "next_trip": "DA240602008802", "prev_O": [113.9934024, 22.431056], "next_O": [114.005283, 22.4663873]}, "geometry": {"type": "LineString", "coordinates": [[114.028893, 22.434613], [114.003785, 22.468095], [114.003785, 22.468088]]}}, {"type": "Feature", "properties": {"id": "ghost_YJ4587_20240602144200", "plate_no": "YJ4587", "gap_start_time": "2024-06-02T14:42:00", "gap_end_time": "2024-06-02T20:36:00", "gap_duration_min": 354.0, "wasted_distance_km": 2.55, "prev_trip": "DA240602024701", "next_trip": "DA240602018402", "prev_O": [114.0064995, 22.4660622], "next_O": [114.13796, 22.3418625]}, "geometry": {"type": "LineString", "coordinates": [[114.124813, 22.357038], [114.141971, 22.340483]]}}, {"type": "Feature", "properties": {"id": "ghost_YK4725_20240602103400", "plate_no": "YK4725", "gap_start_time": "2024-06-02T10:34:00", "gap_end_time": "2024-06-02T15:40:00", "gap_duration_min": 306.0, "wasted_distance_km": 28.881, "prev_trip": "DA240602025011", "next_trip": "DA240602016201", "prev_O": [114.2248163, 22.3271692], "next_O": [113.9484888, 22.2915096]}, "geometry": {"type": "LineString", "coordinates": [[114.229528, 22.315061], [113.949871, 22.292608], [113.949893, 22.292626]]}}, {"type": "Feature", "properties": {"id": "ghost_YK6404_20240602092600", "plate_no": "YK6404", "gap_start_time": "2024-06-02T09:26:00", "gap_end_time": "2024-06-02T10:20:00", "gap_duration_min": 54.0, "wasted_distance_km": 3.264, "prev_trip": "DA240602003011", "next_trip": "DA240602002711", "prev_O": [114.1824387, 22.3166818], "next_O": [114.1547575, 22.3289815]}, "geometry": {"type": "LineString", "coordinates": [[114.182598, 22.316915], [114.182741, 22.316625], [114.154668, 22.329458], [114.154731, 22.329498]]}}, {"type": "Feature", "properties": {"id": "ghost_YK7541_20240602104100", "plate_no": "YK7541", "gap_start_time": "2024-06-02T10:41:00", "gap_end_time": "2024-06-02T15:00:00", "gap_duration_min": 259.0, "wasted_distance_km": 1.194, "prev_trip": "DA240602005601", "next_trip": "DA240602026202", "prev_O": [114.0134868, 22.3660613], "next_O": [114.1261909, 22.3574339]}, "geometry": {"type": "LineString", "coordinates": [[114.122245, 22.367938], [114.126388, 22.357945], [114.126346, 22.357946]]}}, {"type": "Feature", "properties": {"id": "ghost_YK7541_20240602151500", "plate_no": "YK7541", "gap_start_time": "2024-06-02T15:15:00", "gap_end_time": "2024-06-02T17:30:00", "gap_duration_min": 135.0, "wasted_distance_km": 0.975, "prev_trip": "DA240602026202", "next_trip": "DA240602024702", "prev_O": [114.1261909, 22.3574339], "next_O": [114.126192, 22.356899]}, "geometry": {"type": "LineString", "coordinates": [[114.126931, 22.365568], [114.127035, 22.356803], [114.127035, 22.356808]]}}, {"type": "Feature", "properties": {"id": "ghost_YK9198_20240602152800", "plate_no": "YK9198", "gap_start_time": "2024-06-02T15:28:00", "gap_end_time": "2024-06-02T16:40:00", "gap_duration_min": 72.0, "wasted_distance_km": 9.764, "prev_trip": "DA240602012302", "next_trip": "DA240602014801", "prev_O": [114.2320457, 22.4258174], "next_O": [114.23859, 22.2975332]}, "geometry": {"type": "LineString", "coordinates": [[114.20064, 22.377975], [114.238843, 22.297595], [114.23885, 22.297593]]}}, {"type": "Feature", "properties": {"id": "ghost_YK9198_20240602170200", "plate_no": "YK9198", "gap_start_time": "2024-06-02T17:02:00", "gap_end_time": "2024-06-02T20:20:00", "gap_duration_min": 198.0, "wasted_distance_km": 7.429, "prev_trip": "DA240602014801", "next_trip": "DA240602014111", "prev_O": [114.23859, 22.2975332], "next_O": [114.1861542, 22.3419036]}, "geometry": {"type": "LineString", "coordinates": [[114.160908, 22.281803], [114.15873, 22.282598], [114.185875, 22.342168], [114.185875, 22.342168]]}}, {"type": "Feature", "properties": {"id": "ghost_YK9198_20240602203600", "plate_no": "YK9198", "gap_start_time": "2024-06-02T20:36:00", "gap_end_time": "2024-06-02T22:10:00", "gap_duration_min": 94.0, "wasted_distance_km": 7.918, "prev_trip": "DA240602014111", "next_trip": "DA240602015611", "prev_O": [114.1861542, 22.3419036], "next_O": [114.1616361, 22.2822389]}, "geometry": {"type": "LineString", "coordinates": [[114.2284, 22.31099], [114.230345, 22.309848], [114.16165, 22.282861], [114.16167, 22.282846]]}}, {"type": "Feature", "properties": {"id": "ghost_YL1792_20240602113300", "plate_no": "YL1792", "gap_start_time": "2024-06-02T11:33:00", "gap_end_time": "2024-06-02T13:15:00", "gap_duration_min": 102.0, "wasted_distance_km": 3.007, "prev_trip": "DA240602001402", "next_trip": "DA240602022511", "prev_O": [114.137493, 22.2572259], "next_O": [114.1647967, 22.2491964]}, "geometry": {"type": "LineString", "coordinates": [[114.137316, 22.258135], [114.16475, 22.249423], [114.164693, 22.249233]]}}, {"type": "Feature", "properties": {"id": "ghost_YY6773_20240602073200", "plate_no": "YY6773", "gap_start_time": "2024-06-02T07:32:00", "gap_end_time": "2024-06-02T11:20:00", "gap_duration_min": 228.0, "wasted_distance_km": 0.341, "prev_trip": "DA240602010201", "next_trip": "DA240602010402", "prev_O": [114.136552, 22.250488], "next_O": [114.1478782, 22.2498261]}, "geometry": {"type": "LineString", "coordinates": [[114.147393, 22.249866], [114.150246, 22.251418]]}}, {"type": "Feature", "properties": {"id": "ghost_YY7632_20240602085700", "plate_no": "YY7632", "gap_start_time": "2024-06-02T08:57:00", "gap_end_time": "2024-06-02T12:16:00", "gap_duration_min": 199.0, "wasted_distance_km": 5.751, "prev_trip": "DA240602000901", "next_trip": "DA240602000302", "prev_O": [114.2294373, 22.4161286], "next_O": [114.1749415, 22.3700097]}, "geometry": {"type": "LineString", "coordinates": [[114.217386, 22.39848], [114.173975, 22.369276], [114.175646, 22.370665]]}}, {"type": "Feature", "properties": {"id": "ghost_YY7632_20240602122300", "plate_no": "YY7632", "gap_start_time": "2024-06-02T12:23:00", "gap_end_time": "2024-06-02T14:31:00", "gap_duration_min": 128.0, "wasted_distance_km": 8.018, "prev_trip": "DA240602000302", "next_trip": "DA240602002102", "prev_O": [114.1749415, 22.3700097], "next_O": [114.174763, 22.299489]}, "geometry": {"type": "LineString", "coordinates": [[114.182591, 22.370513], [114.18225, 22.370503], [114.175655, 22.3006], [114.176471, 22.302041]]}}, {"type": "Feature", "properties": {"id": "ghost_YZ2545_20240602085700", "plate_no": "YZ2545", "gap_start_time": "2024-06-02T08:57:00", "gap_end_time": "2024-06-02T11:15:00", "gap_duration_min": 138.0, "wasted_distance_km": 0.079, "prev_trip": "DA240602000701", "next_trip": "DA240602023211", "prev_O": [114.125774, 22.493591], "next_O": [114.2174678, 22.3987589]}, "geometry": {"type": "LineString", "coordinates": [[114.217586, 22.398338], [114.216828, 22.398278], [114.216833, 22.398271]]}}, {"type": "Feature", "properties": {"id": "ghost_YZ2545_20240602111800", "plate_no": "YZ2545", "gap_start_time": "2024-06-02T11:18:00", "gap_end_time": "2024-06-02T14:15:00", "gap_duration_min": 177.0, "wasted_distance_km": 0.08, "prev_trip": "DA240602023211", "next_trip": "DA240602000702", "prev_O": [114.2174678, 22.3987589], "next_O": [114.2174678, 22.3987589]}, "geometry": {"type": "LineString", "coordinates": [[114.216965, 22.398345], [114.217531, 22.398003], [114.217488, 22.398093]]}}, {"type": "Feature", "properties": {"id": "ghost_YZ2545_20240602143400", "plate_no": "YZ2545", "gap_start_time": "2024-06-02T14:34:00", "gap_end_time": "2024-06-02T16:30:00", "gap_duration_min": 116.0, "wasted_distance_km": 22.117, "prev_trip": "DA240602000702", "next_trip": "DA240602008411", "prev_O": [114.2174678, 22.3987589], "next_O": [113.9975793, 22.4672846]}, "geometry": {"type": "LineString", "coordinates": [[114.19518, 22.387106], [113.998286, 22.467276], [113.998308, 22.467288]]}}, {"type": "Feature", "properties": {"id": "ghost_ZA3406_20240602084200", "plate_no": "ZA3406", "gap_start_time": "2024-06-02T08:42:00", "gap_end_time": "2024-06-02T10:00:00", "gap_duration_min": 78.0, "wasted_distance_km": 3.632, "prev_trip": "DA240602021211", "next_trip": "DA240602001101", "prev_O": [114.1330251, 22.2871812], "next_O": [114.1927476, 22.2834462]}, "geometry": {"type": "LineString", "coordinates": [[114.167676, 22.30677], [114.191971, 22.283501], [114.191968, 22.283191]]}}, {"type": "Feature", "properties": {"id": "ghost_ZA3406_20240602100700", "plate_no": "ZA3406", "gap_start_time": "2024-06-02T10:07:00", "gap_end_time": "2024-06-02T12:50:00", "gap_duration_min": 163.0, "wasted_distance_km": 0.372, "prev_trip": "DA240602001101", "next_trip": "DA240602001102", "prev_O": [114.1927476, 22.2834462], "next_O": [114.1554024, 22.2796308]}, "geometry": {"type": "LineString", "coordinates": [[114.158788, 22.28257], [114.156493, 22.28099], [114.156576, 22.281685]]}}, {"type": "Feature", "properties": {"id": "ghost_ZA6941_20240602093300", "plate_no": "ZA6941", "gap_start_time": "2024-06-02T09:33:00", "gap_end_time": "2024-06-02T11:00:00", "gap_duration_min": 87.0, "wasted_distance_km": 7.297, "prev_trip": "DA240602022901", "next_trip": "DA240602012101", "prev_O": [114.1245247, 22.2709886], "next_O": [114.207791, 22.2206114]}, "geometry": {"type": "LineString", "coordinates": [[114.225003, 22.284006], [114.207316, 22.220568], [114.2072, 22.220548]]}}, {"type": "Feature", "properties": {"id": "ghost_ZA6941_20240602112400", "plate_no": "ZA6941", "gap_start_time": "2024-06-02T11:24:00", "gap_end_time": "2024-06-02T14:15:00", "gap_duration_min": 171.0, "wasted_distance_km": 9.494, "prev_trip": "DA240602012101", "next_trip": "DA240602012001", "prev_O": [114.207791, 22.2206114], "next_O": [114.231016, 22.2795488]}, "geometry": {"type": "LineString", "coordinates": [[114.139695, 22.288308], [114.231478, 22.279648], [114.23146, 22.279646]]}}]}