{"type": "FeatureCollection", "features": [{"type": "Feature", "properties": {"id": "ghost_RV3895_20240628142217", "plate_no": "RV3895", "gap_start_time": "2024-06-28T14:22:17", "gap_end_time": "2024-06-28T19:10:13", "gap_duration_min": 287.93, "wasted_distance_km": 4.945, "prev_trip": "DA240628037601", "next_trip": "DA240628028801", "prev_O": [114.2204976, 22.323161], "next_O": [114.1799737, 22.3301149]}, "geometry": {"type": "LineString", "coordinates": [[114.224565, 22.313225], [114.1802, 22.33036]]}}, {"type": "Feature", "properties": {"id": "ghost_RV4356_20240628074004", "plate_no": "RV4356", "gap_start_time": "2024-06-28T07:40:04", "gap_end_time": "2024-06-28T09:34:34", "gap_duration_min": 114.5, "wasted_distance_km": 5.159, "prev_trip": "DA240628042511", "next_trip": "DA240628020601", "prev_O": [114.1494949, 22.2441476], "next_O": [114.1430877, 22.2850022]}, "geometry": {"type": "LineString", "coordinates": [[114.175125, 22.251851], [114.14446, 22.28856]]}}, {"type": "Feature", "properties": {"id": "ghost_RV7493_20240628082848", "plate_no": "RV7493", "gap_start_time": "2024-06-28T08:28:48", "gap_end_time": "2024-06-28T10:10:05", "gap_duration_min": 101.28, "wasted_distance_km": 1.579, "prev_trip": "DA240628025711", "next_trip": "DA240628031311", "prev_O": [114.1888033, 22.3040823], "next_O": [114.1613838, 22.3200903]}, "geometry": {"type": "LineString", "coordinates": [[114.170666, 22.308575], [114.1615, 22.319965]]}}, {"type": "Feature", "properties": {"id": "ghost_RV7493_20240628102621", "plate_no": "RV7493", "gap_start_time": "2024-06-28T10:26:21", "gap_end_time": "2024-06-28T13:30:08", "gap_duration_min": 183.78, "wasted_distance_km": 3.681, "prev_trip": "DA240628031311", "next_trip": "DA240628013311", "prev_O": [114.1613838, 22.3200903], "next_O": [114.1910075, 22.3429899]}, "geometry": {"type": "LineString", "coordinates": [[114.172291, 22.314491], [114.191303, 22.342535]]}}, {"type": "Feature", "properties": {"id": "ghost_RX3329_20240628124040", "plate_no": "RX3329", "gap_start_time": "2024-06-28T12:40:40", "gap_end_time": "2024-06-28T13:15:09", "gap_duration_min": 34.48, "wasted_distance_km": 3.08, "prev_trip": "DA240628018511", "next_trip": "DA240628015701", "prev_O": [114.1712374, 22.3730379], "next_O": [114.192605, 22.338409]}, "geometry": {"type": "LineString", "coordinates": [[114.177961, 22.31469], [114.192566, 22.338871]]}}, {"type": "Feature", "properties": {"id": "ghost_RX5674_20240628093536", "plate_no": "RX5674", "gap_start_time": "2024-06-28T09:35:36", "gap_end_time": "2024-06-28T11:00:37", "gap_duration_min": 85.02, "wasted_distance_km": 0.551, "prev_trip": "DA240628006111", "next_trip": "DA240628033301", "prev_O": [114.1489636, 22.3309502], "next_O": [114.2284154, 22.314391]}, "geometry": {"type": "LineString", "coordinates": [[114.230151, 22.309831], [114.227843, 22.314306]]}}, {"type": "Feature", "properties": {"id": "ghost_RX5674_20240628112137", "plate_no": "RX5674", "gap_start_time": "2024-06-28T11:21:37", "gap_end_time": "2024-06-28T12:45:13", "gap_duration_min": 83.6, "wasted_distance_km": 11.654, "prev_trip": "DA240628033301", "next_trip": "DA240628026601", "prev_O": [114.2284154, 22.314391], "next_O": [114.229722, 22.425278]}, "geometry": {"type": "LineString", "coordinates": [[114.207281, 22.322706], [114.229701, 22.425441]]}}, {"type": "Feature", "properties": {"id": "ghost_SL9199_20240628085601", "plate_no": "SL9199", "gap_start_time": "2024-06-28T08:56:01", "gap_end_time": "2024-06-28T14:00:07", "gap_duration_min": 304.1, "wasted_distance_km": 12.693, "prev_trip": "DA240628009201", "next_trip": "DA240628053711", "prev_O": [114.1704097, 22.4442723], "next_O": [114.1026843, 22.356017]}, "geometry": {"type": "LineString", "coordinates": [[114.172078, 22.450916], [114.103193, 22.356186]]}}, {"type": "Feature", "properties": {"id": "ghost_SL9199_20240628142135", "plate_no": "SL9199", "gap_start_time": "2024-06-28T14:21:35", "gap_end_time": "2024-06-28T16:46:39", "gap_duration_min": 145.07, "wasted_distance_km": 5.738, "prev_trip": "DA240628053711", "next_trip": "DA240628009602", "prev_O": [114.1026843, 22.356017], "next_O": [114.1700846, 22.3760056]}, "geometry": {"type": "LineString", "coordinates": [[114.133998, 22.341411], [114.17378, 22.377598]]}}, {"type": "Feature", "properties": {"id": "ghost_SM140_20240628090239", "plate_no": "SM140", "gap_start_time": "2024-06-28T09:02:39", "gap_end_time": "2024-06-28T12:15:12", "gap_duration_min": 192.55, "wasted_distance_km": 8.486, "prev_trip": "DA240628019301", "next_trip": "DA240628050611", "prev_O": [114.1925099, 22.3394241], "next_O": [114.1178066, 22.3689762]}, "geometry": {"type": "LineString", "coordinates": [[114.184661, 22.325193], [114.11744, 22.369455]]}}, {"type": "Feature", "properties": {"id": "ghost_SM140_20240628122142", "plate_no": "SM140", "gap_start_time": "2024-06-28T12:21:42", "gap_end_time": "2024-06-28T13:20:10", "gap_duration_min": 58.47, "wasted_distance_km": 17.393, "prev_trip": "DA240628050611", "next_trip": "DA240628041601", "prev_O": [114.1178066, 22.3689762], "next_O": [114.2666792, 22.3063335]}, "geometry": {"type": "LineString", "coordinates": [[114.112888, 22.371725], [114.266598, 22.306513]]}}, {"type": "Feature", "properties": {"id": "ghost_TB7275_20240628082716", "plate_no": "TB7275", "gap_start_time": "2024-06-28T08:27:16", "gap_end_time": "2024-06-28T09:00:17", "gap_duration_min": 33.02, "wasted_distance_km": 1.999, "prev_trip": "DA240628025901", "next_trip": "DA240628051601", "prev_O": [114.2536773, 22.3225977], "next_O": [114.2389095, 22.3173983]}, "geometry": {"type": "LineString", "coordinates": [[114.257813, 22.314588], [114.238581, 22.317188]]}}, {"type": "Feature", "properties": {"id": "ghost_TC1655_20240628113445", "plate_no": "TC1655", "gap_start_time": "2024-06-28T11:34:45", "gap_end_time": "2024-06-28T14:50:24", "gap_duration_min": 195.65, "wasted_distance_km": 0.625, "prev_trip": "DA240628049601", "next_trip": "DA240628030602", "prev_O": [114.22004, 22.283011], "next_O": [114.1882198, 22.278467]}, "geometry": {"type": "LineString", "coordinates": [[114.18549, 22.283261], [114.184295, 22.277753]]}}, {"type": "Feature", "properties": {"id": "ghost_TD7860_20240628081739", "plate_no": "TD7860", "gap_start_time": "2024-06-28T08:17:39", "gap_end_time": "2024-06-28T12:00:08", "gap_duration_min": 222.48, "wasted_distance_km": 1.292, "prev_trip": "DA240628009701", "next_trip": "DA240628016102", "prev_O": [114.1819743, 22.3714238], "next_O": [114.1945989, 22.3874752]}, "geometry": {"type": "LineString", "coordinates": [[114.193641, 22.398991], [114.194946, 22.387433]]}}, {"type": "Feature", "properties": {"id": "ghost_TD7860_20240628122236", "plate_no": "TD7860", "gap_start_time": "2024-06-28T12:22:36", "gap_end_time": "2024-06-28T14:25:29", "gap_duration_min": 122.88, "wasted_distance_km": 5.772, "prev_trip": "DA240628016102", "next_trip": "DA240628006002", "prev_O": [114.1945989, 22.3874752], "next_O": [114.173077, 22.4611085]}, "geometry": {"type": "LineString", "coordinates": [[114.131225, 22.496135], [114.172988, 22.461418]]}}, {"type": "Feature", "properties": {"id": "ghost_TF2479_20240628130708", "plate_no": "TF2479", "gap_start_time": "2024-06-28T13:07:08", "gap_end_time": "2024-06-28T14:30:34", "gap_duration_min": 83.43, "wasted_distance_km": 12.53, "prev_trip": "DA240628038901", "next_trip": "DA240628022901", "prev_O": [114.2226563, 22.2846176], "next_O": [114.248237, 22.261925]}, "geometry": {"type": "LineString", "coordinates": [[114.126553, 22.273261], [114.247723, 22.262168]]}}, {"type": "Feature", "properties": {"id": "ghost_TF2479_20240628144633", "plate_no": "TF2479", "gap_start_time": "2024-06-28T14:46:33", "gap_end_time": "2024-06-28T20:45:09", "gap_duration_min": 358.6, "wasted_distance_km": 11.178, "prev_trip": "DA240628022901", "next_trip": "DA240628031602", "prev_O": [114.248237, 22.261925], "next_O": [114.1309546, 22.2711238]}, "geometry": {"type": "LineString", "coordinates": [[114.239275, 22.263258], [114.13094, 22.270651]]}}, {"type": "Feature", "properties": {"id": "ghost_TW274_20240628111546", "plate_no": "TW274", "gap_start_time": "2024-06-28T11:15:46", "gap_end_time": "2024-06-28T12:50:12", "gap_duration_min": 94.43, "wasted_distance_km": 0.958, "prev_trip": "DA240628027311", "next_trip": "DA240628012111", "prev_O": [114.1675619, 22.3064441], "next_O": [114.1687962, 22.3240273]}, "geometry": {"type": "LineString", "coordinates": [[114.172073, 22.316003], [114.168695, 22.324028]]}}, {"type": "Feature", "properties": {"id": "ghost_TW8217_20240628162942", "plate_no": "TW8217", "gap_start_time": "2024-06-28T16:29:42", "gap_end_time": "2024-06-28T19:05:50", "gap_duration_min": 156.13, "wasted_distance_km": 2.189, "prev_trip": "DA240628034011", "next_trip": "DA240628019801", "prev_O": [114.209468, 22.3152999], "next_O": [114.1715708, 22.3354862]}, "geometry": {"type": "LineString", "coordinates": [[114.151288, 22.33944], [114.172168, 22.335611]]}}, {"type": "Feature", "properties": {"id": "ghost_TX9739_20240628080522", "plate_no": "TX9739", "gap_start_time": "2024-06-28T08:05:22", "gap_end_time": "2024-06-28T09:00:23", "gap_duration_min": 55.02, "wasted_distance_km": 7.674, "prev_trip": "DA240628030901", "next_trip": "DA240628024401", "prev_O": [114.113115, 22.369607], "next_O": [114.1867442, 22.3754142]}, "geometry": {"type": "LineString", "coordinates": [[114.114475, 22.370796], [114.188843, 22.376633]]}}, {"type": "Feature", "properties": {"id": "ghost_TX9739_20240628092325", "plate_no": "TX9739", "gap_start_time": "2024-06-28T09:23:25", "gap_end_time": "2024-06-28T11:40:24", "gap_duration_min": 136.98, "wasted_distance_km": 1.665, "prev_trip": "DA240628024401", "next_trip": "DA240628001202", "prev_O": [114.1867442, 22.3754142], "next_O": [114.1831334, 22.3223645]}, "geometry": {"type": "LineString", "coordinates": [[114.189795, 22.308983], [114.183018, 22.322581]]}}, {"type": "Feature", "properties": {"id": "ghost_TX9739_20240628123357", "plate_no": "TX9739", "gap_start_time": "2024-06-28T12:33:57", "gap_end_time": "2024-06-28T15:30:14", "gap_duration_min": 176.28, "wasted_distance_km": 3.061, "prev_trip": "DA240628001202", "next_trip": "DA240628033802", "prev_O": [114.1831334, 22.3223645], "next_O": [114.158365, 22.280452]}, "geometry": {"type": "LineString", "coordinates": [[114.184935, 22.27048], [114.158108, 22.282386]]}}, {"type": "Feature", "properties": {"id": "ghost_TX9769_20240628085200", "plate_no": "TX9769", "gap_start_time": "2024-06-28T08:52:00", "gap_end_time": "2024-06-28T09:25:00", "gap_duration_min": 33.0, "wasted_distance_km": 1.53, "prev_trip": "DA240628007311", "next_trip": "DA240628042301", "prev_O": [114.2567421, 22.3113053], "next_O": [114.219702, 22.323118]}, "geometry": {"type": "LineString", "coordinates": [[114.229513, 22.311896], [114.22021, 22.322635]]}}, {"type": "Feature", "properties": {"id": "ghost_TX9769_20240628093900", "plate_no": "TX9769", "gap_start_time": "2024-06-28T09:39:00", "gap_end_time": "2024-06-28T10:15:00", "gap_duration_min": 36.0, "wasted_distance_km": 2.39, "prev_trip": "DA240628042301", "next_trip": "DA240628046701", "prev_O": [114.219702, 22.323118], "next_O": [114.186342, 22.317778]}, "geometry": {"type": "LineString", "coordinates": [[114.164631, 22.325283], [114.186413, 22.317805]]}}, {"type": "Feature", "properties": {"id": "ghost_TX9769_20240628103430", "plate_no": "TX9769", "gap_start_time": "2024-06-28T10:34:30", "gap_end_time": "2024-06-28T12:31:48", "gap_duration_min": 117.3, "wasted_distance_km": 8.885, "prev_trip": "DA240628046701", "next_trip": "DA240628013511", "prev_O": [114.186342, 22.317778], "next_O": [114.1953497, 22.3898836]}, "geometry": {"type": "LineString", "coordinates": [[114.16924, 22.313853], [114.195301, 22.390036]]}}, {"type": "Feature", "properties": {"id": "ghost_TX9769_20240628130519", "plate_no": "TX9769", "gap_start_time": "2024-06-28T13:05:19", "gap_end_time": "2024-06-28T18:50:20", "gap_duration_min": 345.02, "wasted_distance_km": 2.697, "prev_trip": "DA240628013511", "next_trip": "DA240628025211", "prev_O": [114.1953497, 22.3898836], "next_O": [114.230644, 22.308286]}, "geometry": {"type": "LineString", "coordinates": [[114.258838, 22.310678], [114.233148, 22.305823]]}}, {"type": "Feature", "properties": {"id": "ghost_TX9893_20240628082042", "plate_no": "TX9893", "gap_start_time": "2024-06-28T08:20:42", "gap_end_time": "2024-06-28T15:30:01", "gap_duration_min": 429.32, "wasted_distance_km": 3.611, "prev_trip": "DA240628037401", "next_trip": "DA240628035811", "prev_O": [114.1219651, 22.3751398], "next_O": [114.18052, 22.32278]}, "geometry": {"type": "LineString", "coordinates": [[114.149018, 22.33882], [114.179851, 22.323283]]}}, {"type": "Feature", "properties": {"id": "ghost_TX9893_20240628155631", "plate_no": "TX9893", "gap_start_time": "2024-06-28T15:56:31", "gap_end_time": "2024-06-28T18:00:08", "gap_duration_min": 123.62, "wasted_distance_km": 5.813, "prev_trip": "DA240628035811", "next_trip": "DA240628014002", "prev_O": [114.18052, 22.32278], "next_O": [114.1947109, 22.3873746]}, "geometry": {"type": "LineString", "coordinates": [[114.172078, 22.339645], [114.195021, 22.387428]]}}, {"type": "Feature", "properties": {"id": "ghost_TY3130_20240628095751", "plate_no": "TY3130", "gap_start_time": "2024-06-28T09:57:51", "gap_end_time": "2024-06-28T12:30:14", "gap_duration_min": 152.38, "wasted_distance_km": 8.023, "prev_trip": "DA240628025001", "next_trip": "DA240628008511", "prev_O": [114.1129538, 22.3728965], "next_O": [114.1245247, 22.2709886]}, "geometry": {"type": "LineString", "coordinates": [[114.131363, 22.342586], [114.12427, 22.270735]]}}, {"type": "Feature", "properties": {"id": "ghost_TY3130_20240628130942", "plate_no": "TY3130", "gap_start_time": "2024-06-28T13:09:42", "gap_end_time": "2024-06-28T14:50:15", "gap_duration_min": 100.55, "wasted_distance_km": 0.607, "prev_trip": "DA240628008511", "next_trip": "DA240628007111", "prev_O": [114.1245247, 22.2709886], "next_O": [114.192478, 22.338538]}, "geometry": {"type": "LineString", "coordinates": [[114.198053, 22.334538], [114.1941, 22.338595]]}}, {"type": "Feature", "properties": {"id": "ghost_TY3130_20240628150815", "plate_no": "TY3130", "gap_start_time": "2024-06-28T15:08:15", "gap_end_time": "2024-06-28T18:00:07", "gap_duration_min": 171.87, "wasted_distance_km": 6.557, "prev_trip": "DA240628007111", "next_trip": "DA240628008611", "prev_O": [114.192478, 22.338538], "next_O": [114.1304189, 22.3641261]}, "geometry": {"type": "LineString", "coordinates": [[114.188488, 22.340608], [114.130058, 22.364206]]}}, {"type": "Feature", "properties": {"id": "ghost_UL4469_20240628082314", "plate_no": "UL4469", "gap_start_time": "2024-06-28T08:23:14", "gap_end_time": "2024-06-28T09:00:29", "gap_duration_min": 37.25, "wasted_distance_km": 2.557, "prev_trip": "DA240628015411", "next_trip": "DA240628007811", "prev_O": [114.1323045, 22.3454373], "next_O": [114.2092476, 22.3320719]}, "geometry": {"type": "LineString", "coordinates": [[114.185083, 22.327085], [114.209371, 22.331998]]}}, {"type": "Feature", "properties": {"id": "ghost_UL4469_20240628094958", "plate_no": "UL4469", "gap_start_time": "2024-06-28T09:49:58", "gap_end_time": "2024-06-28T12:50:12", "gap_duration_min": 180.23, "wasted_distance_km": 1.717, "prev_trip": "DA240628007811", "next_trip": "DA240628008311", "prev_O": [114.2092476, 22.3320719], "next_O": [114.2286722, 22.3119194]}, "geometry": {"type": "LineString", "coordinates": [[114.217225, 22.322861], [114.228778, 22.311721]]}}, {"type": "Feature", "properties": {"id": "ghost_UM5134_20240628121815", "plate_no": "UM5134", "gap_start_time": "2024-06-28T12:18:15", "gap_end_time": "2024-06-28T16:00:27", "gap_duration_min": 222.2, "wasted_distance_km": 1.209, "prev_trip": "DA240628018401", "next_trip": "DA240628042602", "prev_O": [114.1902412, 22.287115], "next_O": [114.171654, 22.3303537]}, "geometry": {"type": "LineString", "coordinates": [[114.160048, 22.330955], [114.171795, 22.330461]]}}, {"type": "Feature", "properties": {"id": "ghost_UN9553_20240628161210", "plate_no": "UN9553", "gap_start_time": "2024-06-28T16:12:10", "gap_end_time": "2024-06-28T17:01:48", "gap_duration_min": 49.63, "wasted_distance_km": 3.976, "prev_trip": "DA240628030702", "next_trip": "DA240628035202", "prev_O": [114.2303424, 22.3079333], "next_O": [114.230235, 22.3080329]}, "geometry": {"type": "LineString", "coordinates": [[114.26593, 22.315455], [114.228706, 22.305833]]}}, {"type": "Feature", "properties": {"id": "ghost_UN9790_20240628084446", "plate_no": "UN9790", "gap_start_time": "2024-06-28T08:44:46", "gap_end_time": "2024-06-28T09:15:16", "gap_duration_min": 30.5, "wasted_distance_km": 1.845, "prev_trip": "DA240628009401", "next_trip": "DA240628001911", "prev_O": [114.113489, 22.361165], "next_O": [114.1236864, 22.362922]}, "geometry": {"type": "LineString", "coordinates": [[114.10571, 22.359835], [114.122945, 22.364438]]}}, {"type": "Feature", "properties": {"id": "ghost_UN9790_20240628093016", "plate_no": "UN9790", "gap_start_time": "2024-06-28T09:30:16", "gap_end_time": "2024-06-28T12:00:19", "gap_duration_min": 150.05, "wasted_distance_km": 12.988, "prev_trip": "DA240628001911", "next_trip": "DA240628031902", "prev_O": [114.1236864, 22.362922], "next_O": [114.228737, 22.311857]}, "geometry": {"type": "LineString", "coordinates": [[114.12179, 22.373826], [114.22873, 22.311703]]}}, {"type": "Feature", "properties": {"id": "ghost_UP4016_20240628084713", "plate_no": "UP4016", "gap_start_time": "2024-06-28T08:47:13", "gap_end_time": "2024-06-28T09:15:13", "gap_duration_min": 28.0, "wasted_distance_km": 0.564, "prev_trip": "DA240628000811", "next_trip": "DA240628034711", "prev_O": [114.217242, 22.322492], "next_O": [114.1887321, 22.3270469]}, "geometry": {"type": "LineString", "coordinates": [[114.184155, 22.324188], [114.188781, 22.326906]]}}, {"type": "Feature", "properties": {"id": "ghost_UP4016_20240628093543", "plate_no": "UP4016", "gap_start_time": "2024-06-28T09:35:43", "gap_end_time": "2024-06-28T11:40:05", "gap_duration_min": 124.37, "wasted_distance_km": 3.712, "prev_trip": "DA240628034711", "next_trip": "DA240628000911", "prev_O": [114.1887321, 22.3270469], "next_O": [114.1831334, 22.3223645]}, "geometry": {"type": "LineString", "coordinates": [[114.152911, 22.341095], [114.182931, 22.322566]]}}, {"type": "Feature", "properties": {"id": "ghost_VA7459_20240628132222", "plate_no": "VA7459", "gap_start_time": "2024-06-28T13:22:22", "gap_end_time": "2024-06-28T14:35:25", "gap_duration_min": 73.05, "wasted_distance_km": 3.863, "prev_trip": "DA240628007911", "next_trip": "DA240628039101", "prev_O": [114.2182917, 22.3260159], "next_O": [114.1975942, 22.2910608]}, "geometry": {"type": "LineString", "coordinates": [[114.228276, 22.311165], [114.197593, 22.291135]]}}, {"type": "Feature", "properties": {"id": "ghost_VD6386_20240628105402", "plate_no": "VD6386", "gap_start_time": "2024-06-28T10:54:02", "gap_end_time": "2024-06-28T14:45:14", "gap_duration_min": 231.2, "wasted_distance_km": 18.218, "prev_trip": "DA240628018901", "next_trip": "DA240628000302", "prev_O": [113.9964474, 22.445382], "next_O": [114.1283333, 22.3458333]}, "geometry": {"type": "LineString", "coordinates": [[114.00114, 22.460308], [114.128451, 22.346333]]}}, {"type": "Feature", "properties": {"id": "ghost_VD6386_20240628150015", "plate_no": "VD6386", "gap_start_time": "2024-06-28T15:00:15", "gap_end_time": "2024-06-28T16:31:45", "gap_duration_min": 91.5, "wasted_distance_km": 0.669, "prev_trip": "DA240628000302", "next_trip": "DA240628000402", "prev_O": [114.1283333, 22.3458333], "next_O": [114.1283333, 22.3458333]}, "geometry": {"type": "LineString", "coordinates": [[114.131413, 22.354388], [114.129848, 22.348546]]}}, {"type": "Feature", "properties": {"id": "ghost_VE7344_20240628105804", "plate_no": "VE7344", "gap_start_time": "2024-06-28T10:58:04", "gap_end_time": "2024-06-28T15:00:12", "gap_duration_min": 242.13, "wasted_distance_km": 11.451, "prev_trip": "DA240628025002", "next_trip": "DA240628017202", "prev_O": [114.1337709, 22.3417046], "next_O": [114.2076001, 22.3229979]}, "geometry": {"type": "LineString", "coordinates": [[114.110648, 22.372575], [114.207996, 22.322596]]}}, {"type": "Feature", "properties": {"id": "ghost_VE7344_20240628151442", "plate_no": "VE7344", "gap_start_time": "2024-06-28T15:14:42", "gap_end_time": "2024-06-28T16:15:26", "gap_duration_min": 60.73, "wasted_distance_km": 1.684, "prev_trip": "DA240628017202", "next_trip": "DA240628023811", "prev_O": [114.2076001, 22.3229979], "next_O": [114.2076009, 22.3229496]}, "geometry": {"type": "LineString", "coordinates": [[114.192921, 22.333048], [114.2061, 22.324065]]}}, {"type": "Feature", "properties": {"id": "ghost_VE7751_20240628140440", "plate_no": "VE7751", "gap_start_time": "2024-06-28T14:04:40", "gap_end_time": "2024-06-28T19:20:13", "gap_duration_min": 315.55, "wasted_distance_km": 5.29, "prev_trip": "DA240628032911", "next_trip": "DA240628020201", "prev_O": [114.1728895, 22.4569367], "next_O": [114.1942585, 22.3864175]}, "geometry": {"type": "LineString", "coordinates": [[114.17946, 22.340331], [114.194276, 22.385885]]}}, {"type": "Feature", "properties": {"id": "ghost_VE7751_20240628194713", "plate_no": "VE7751", "gap_start_time": "2024-06-28T19:47:13", "gap_end_time": "2024-06-28T21:30:07", "gap_duration_min": 102.9, "wasted_distance_km": 0.237, "prev_trip": "DA240628020201", "next_trip": "DA240628020202", "prev_O": [114.1942585, 22.3864175], "next_O": [114.1730979, 22.3316763]}, "geometry": {"type": "LineString", "coordinates": [[114.175056, 22.330261], [114.173241, 22.331575]]}}, {"type": "Feature", "properties": {"id": "ghost_VE8500_20240628112138", "plate_no": "VE8500", "gap_start_time": "2024-06-28T11:21:38", "gap_end_time": "2024-06-28T17:00:16", "gap_duration_min": 338.63, "wasted_distance_km": 11.005, "prev_trip": "DA240628040301", "next_trip": "DA240628022011", "prev_O": [114.208935, 22.341343], "next_O": [114.2286568, 22.3119002]}, "geometry": {"type": "LineString", "coordinates": [[114.132156, 22.266698], [114.227638, 22.311301]]}}, {"type": "Feature", "properties": {"id": "ghost_VV6972_20240628100346", "plate_no": "VV6972", "gap_start_time": "2024-06-28T10:03:46", "gap_end_time": "2024-06-28T10:45:25", "gap_duration_min": 41.65, "wasted_distance_km": 9.237, "prev_trip": "DA240628027111", "next_trip": "DA240628037311", "prev_O": [114.1868509, 22.3046948], "next_O": [114.1014571, 22.3485601]}, "geometry": {"type": "LineString", "coordinates": [[114.177731, 22.305946], [114.100703, 22.348648]]}}, {"type": "Feature", "properties": {"id": "ghost_VV6972_20240628105955", "plate_no": "VV6972", "gap_start_time": "2024-06-28T10:59:55", "gap_end_time": "2024-06-28T13:50:27", "gap_duration_min": 170.53, "wasted_distance_km": 4.895, "prev_trip": "DA240628037311", "next_trip": "DA240628047301", "prev_O": [114.1014571, 22.3485601], "next_O": [114.172113, 22.319023]}, "geometry": {"type": "LineString", "coordinates": [[114.131641, 22.342788], [114.171746, 22.31909]]}}, {"type": "Feature", "properties": {"id": "ghost_VV7298_20240628150150", "plate_no": "VV7298", "gap_start_time": "2024-06-28T15:01:50", "gap_end_time": "2024-06-28T17:01:25", "gap_duration_min": 119.58, "wasted_distance_km": 12.547, "prev_trip": "DA240628053502", "next_trip": "DA240628006511", "prev_O": [114.1747755, 22.4612811], "next_O": [114.2303424, 22.3079333]}, "geometry": {"type": "LineString", "coordinates": [[114.230108, 22.418201], [114.22901, 22.305371]]}}, {"type": "Feature", "properties": {"id": "ghost_VW3473_20240628105426", "plate_no": "VW3473", "gap_start_time": "2024-06-28T10:54:26", "gap_end_time": "2024-06-28T14:00:27", "gap_duration_min": 186.02, "wasted_distance_km": 16.705, "prev_trip": "DA240628030801", "next_trip": "DA240628028111", "prev_O": [114.1203858, 22.3670155], "next_O": [114.255644, 22.322861]}, "geometry": {"type": "LineString", "coordinates": [[114.167751, 22.451018], [114.255155, 22.324376]]}}, {"type": "Feature", "properties": {"id": "ghost_VW8372_20240628120612", "plate_no": "VW8372", "gap_start_time": "2024-06-28T12:06:12", "gap_end_time": "2024-06-28T15:30:13", "gap_duration_min": 204.02, "wasted_distance_km": 5.042, "prev_trip": "DA240628051602", "next_trip": "DA240628010701", "prev_O": [114.209468, 22.3152999], "next_O": [114.1944442, 22.338916]}, "geometry": {"type": "LineString", "coordinates": [[114.236181, 22.316441], [114.193705, 22.339065]]}}, {"type": "Feature", "properties": {"id": "ghost_VW8372_20240628154113", "plate_no": "VW8372", "gap_start_time": "2024-06-28T15:41:13", "gap_end_time": "2024-06-28T16:30:17", "gap_duration_min": 49.07, "wasted_distance_km": 5.521, "prev_trip": "DA240628010701", "next_trip": "DA240628036602", "prev_O": [114.1944442, 22.338916], "next_O": [114.230334, 22.307947]}, "geometry": {"type": "LineString", "coordinates": [[114.192893, 22.343563], [114.230538, 22.308171]]}}, {"type": "Feature", "properties": {"id": "ghost_VW8372_20240628164217", "plate_no": "VW8372", "gap_start_time": "2024-06-28T16:42:17", "gap_end_time": "2024-06-28T18:15:17", "gap_duration_min": 93.0, "wasted_distance_km": 0.87, "prev_trip": "DA240628036602", "next_trip": "DA240628008701", "prev_O": [114.230334, 22.307947], "next_O": [114.2306445, 22.3082856]}, "geometry": {"type": "LineString", "coordinates": [[114.236743, 22.302436], [114.230808, 22.30801]]}}, {"type": "Feature", "properties": {"id": "ghost_VW871_20240628145502", "plate_no": "VW871", "gap_start_time": "2024-06-28T14:55:02", "gap_end_time": "2024-06-28T15:51:31", "gap_duration_min": 56.48, "wasted_distance_km": 3.133, "prev_trip": "DA240628015211", "next_trip": "DA240628050711", "prev_O": [113.9770187, 22.3878801], "next_O": [114.1112, 22.375143]}, "geometry": {"type": "LineString", "coordinates": [[114.14218, 22.368188], [114.112625, 22.375051]]}}, {"type": "Feature", "properties": {"id": "ghost_VX2887_20240628133050", "plate_no": "VX2887", "gap_start_time": "2024-06-28T13:30:50", "gap_end_time": "2024-06-28T15:30:22", "gap_duration_min": 119.53, "wasted_distance_km": 7.204, "prev_trip": "DA240628042601", "next_trip": "DA240628030902", "prev_O": [114.1489571, 22.4689028], "next_O": [114.118883, 22.369655]}, "geometry": {"type": "LineString", "coordinates": [[114.172703, 22.326678], [114.119371, 22.368675]]}}, {"type": "Feature", "properties": {"id": "ghost_WN8723_20240628105312", "plate_no": "WN8723", "gap_start_time": "2024-06-28T10:53:12", "gap_end_time": "2024-06-28T12:15:11", "gap_duration_min": 81.98, "wasted_distance_km": 0.172, "prev_trip": "DA240628035901", "next_trip": "DA240628035902", "prev_O": [114.2385387, 22.3047746], "next_O": [114.1570799, 22.2806547]}, "geometry": {"type": "LineString", "coordinates": [[114.159826, 22.279718], [114.158215, 22.280116]]}}, {"type": "Feature", "properties": {"id": "ghost_WN8723_20240628125641", "plate_no": "WN8723", "gap_start_time": "2024-06-28T12:56:41", "gap_end_time": "2024-06-28T15:20:23", "gap_duration_min": 143.7, "wasted_distance_km": 6.161, "prev_trip": "DA240628035902", "next_trip": "DA240628042802", "prev_O": [114.1570799, 22.2806547], "next_O": [114.1832816, 22.3250389]}, "geometry": {"type": "LineString", "coordinates": [[114.240458, 22.302928], [114.18562, 22.325206]]}}, {"type": "Feature", "properties": {"id": "ghost_WN8723_20240628152653", "plate_no": "WN8723", "gap_start_time": "2024-06-28T15:26:53", "gap_end_time": "2024-06-28T16:40:28", "gap_duration_min": 73.58, "wasted_distance_km": 1.371, "prev_trip": "DA240628042802", "next_trip": "DA240628026602", "prev_O": [114.1832816, 22.3250389], "next_O": [114.1832816, 22.3250389]}, "geometry": {"type": "LineString", "coordinates": [[114.187558, 22.313121], [114.183178, 22.324768]]}}, {"type": "Feature", "properties": {"id": "ghost_WN9331_20240628091734", "plate_no": "WN9331", "gap_start_time": "2024-06-28T09:17:34", "gap_end_time": "2024-06-28T15:23:04", "gap_duration_min": 365.5, "wasted_distance_km": 14.072, "prev_trip": "DA240628008001", "next_trip": "DA240628041302", "prev_O": [114.1786768, 22.3729477], "next_O": [114.1309546, 22.2711238]}, "geometry": {"type": "LineString", "coordinates": [[114.19895, 22.380193], [114.130398, 22.270675]]}}, {"type": "Feature", "properties": {"id": "ghost_WN9331_20240628155005", "plate_no": "WN9331", "gap_start_time": "2024-06-28T15:50:05", "gap_end_time": "2024-06-28T16:01:04", "gap_duration_min": 10.98, "wasted_distance_km": 0.895, "prev_trip": "DA240628041302", "next_trip": "DA240628016402", "prev_O": [114.1309546, 22.2711238], "next_O": [114.1762882, 22.2781796]}, "geometry": {"type": "LineString", "coordinates": [[114.182766, 22.270313], [114.179725, 22.27785]]}}, {"type": "Feature", "properties": {"id": "ghost_WP2513_20240628102822", "plate_no": "WP2513", "gap_start_time": "2024-06-28T10:28:22", "gap_end_time": "2024-06-28T12:15:05", "gap_duration_min": 106.72, "wasted_distance_km": 0.161, "prev_trip": "DA240628044211", "next_trip": "DA240628036511", "prev_O": [114.2153917, 22.3342315], "next_O": [114.1832816, 22.3250389]}, "geometry": {"type": "LineString", "coordinates": [[114.18452, 22.325176], [114.183001, 22.324811]]}}, {"type": "Feature", "properties": {"id": "ghost_WP2513_20240628123431", "plate_no": "WP2513", "gap_start_time": "2024-06-28T12:34:31", "gap_end_time": "2024-06-28T13:00:27", "gap_duration_min": 25.93, "wasted_distance_km": 2.421, "prev_trip": "DA240628036511", "next_trip": "DA240628029211", "prev_O": [114.1832816, 22.3250389], "next_O": [114.2303424, 22.3079333]}, "geometry": {"type": "LineString", "coordinates": [[114.216505, 22.325258], [114.230786, 22.307953]]}}, {"type": "Feature", "properties": {"id": "ghost_WP3306_20240628133647", "plate_no": "WP3306", "gap_start_time": "2024-06-28T13:36:47", "gap_end_time": "2024-06-28T16:00:10", "gap_duration_min": 143.38, "wasted_distance_km": 0.223, "prev_trip": "DA240628002201", "next_trip": "DA240628002202", "prev_O": [114.077179, 22.428007], "next_O": [113.9649146, 22.3748696]}, "geometry": {"type": "LineString", "coordinates": [[113.965528, 22.373578], [113.9648, 22.37547]]}}, {"type": "Feature", "properties": {"id": "ghost_WP5387_20240628114802", "plate_no": "WP5387", "gap_start_time": "2024-06-28T11:48:02", "gap_end_time": "2024-06-28T13:15:22", "gap_duration_min": 87.33, "wasted_distance_km": 4.257, "prev_trip": "DA240628028911", "next_trip": "DA240628029811", "prev_O": [114.1323065, 22.2661136], "next_O": [114.1647636, 22.3152362]}, "geometry": {"type": "LineString", "coordinates": [[114.138935, 22.283985], [114.165608, 22.313258]]}}, {"type": "Feature", "properties": {"id": "ghost_WP5818_20240628105427", "plate_no": "WP5818", "gap_start_time": "2024-06-28T10:54:27", "gap_end_time": "2024-06-28T12:45:14", "gap_duration_min": 110.78, "wasted_distance_km": 0.422, "prev_trip": "DA240628046301", "next_trip": "DA240628046302", "prev_O": [113.97194, 22.38222], "next_O": [114.1712559, 22.3095925]}, "geometry": {"type": "LineString", "coordinates": [[114.169436, 22.312771], [114.171185, 22.309343]]}}, {"type": "Feature", "properties": {"id": "ghost_XE1372_20240628151008", "plate_no": "XE1372", "gap_start_time": "2024-06-28T15:10:08", "gap_end_time": "2024-06-28T20:51:06", "gap_duration_min": 340.97, "wasted_distance_km": 4.582, "prev_trip": "DA240628003911", "next_trip": "DA240628008702", "prev_O": [114.2336165, 22.2637098], "next_O": [114.2616715, 22.3024847]}, "geometry": {"type": "LineString", "coordinates": [[114.245353, 22.264965], [114.261638, 22.30332]]}}, {"type": "Feature", "properties": {"id": "ghost_XE1886_20240628124749", "plate_no": "XE1886", "gap_start_time": "2024-06-28T12:47:49", "gap_end_time": "2024-06-28T14:45:19", "gap_duration_min": 117.5, "wasted_distance_km": 3.566, "prev_trip": "DA240628023402", "next_trip": "DA240628028211", "prev_O": [114.1628717, 22.3221939], "next_O": [114.236331, 22.3055387]}, "geometry": {"type": "LineString", "coordinates": [[114.208918, 22.325523], [114.236595, 22.306213]]}}, {"type": "Feature", "properties": {"id": "ghost_XE1886_20240628150149", "plate_no": "XE1886", "gap_start_time": "2024-06-28T15:01:49", "gap_end_time": "2024-06-28T15:45:19", "gap_duration_min": 43.5, "wasted_distance_km": 2.409, "prev_trip": "DA240628028211", "next_trip": "DA240628028611", "prev_O": [114.236331, 22.3055387], "next_O": [114.18775, 22.341373]}, "geometry": {"type": "LineString", "coordinates": [[114.178476, 22.321461], [114.188228, 22.341161]]}}, {"type": "Feature", "properties": {"id": "ghost_XE1886_20240628155519", "plate_no": "XE1886", "gap_start_time": "2024-06-28T15:55:19", "gap_end_time": "2024-06-28T16:45:19", "gap_duration_min": 50.0, "wasted_distance_km": 0.871, "prev_trip": "DA240628028611", "next_trip": "DA240628028002", "prev_O": [114.18775, 22.341373], "next_O": [114.1710499, 22.3302949]}, "geometry": {"type": "LineString", "coordinates": [[114.163161, 22.334013], [114.170778, 22.3306]]}}, {"type": "Feature", "properties": {"id": "ghost_XE7053_20240628120628", "plate_no": "XE7053", "gap_start_time": "2024-06-28T12:06:28", "gap_end_time": "2024-06-28T14:25:31", "gap_duration_min": 139.05, "wasted_distance_km": 5.548, "prev_trip": "DA240628028401", "next_trip": "DA240628020602", "prev_O": [114.2165357, 22.3222887], "next_O": [114.1725229, 22.3019182]}, "geometry": {"type": "LineString", "coordinates": [[114.223525, 22.320435], [114.172035, 22.305575]]}}, {"type": "Feature", "properties": {"id": "ghost_XE7168_20240628091324", "plate_no": "XE7168", "gap_start_time": "2024-06-28T09:13:24", "gap_end_time": "2024-06-28T09:45:24", "gap_duration_min": 32.0, "wasted_distance_km": 1.321, "prev_trip": "DA240628031701", "next_trip": "DA240628023711", "prev_O": [114.1769402, 22.3199573], "next_O": [114.178114, 22.314217]}, "geometry": {"type": "LineString", "coordinates": [[114.183055, 22.324741], [114.179728, 22.313265]]}}, {"type": "Feature", "properties": {"id": "ghost_XE7168_20240628100224", "plate_no": "XE7168", "gap_start_time": "2024-06-28T10:02:24", "gap_end_time": "2024-06-28T12:30:24", "gap_duration_min": 148.0, "wasted_distance_km": 3.172, "prev_trip": "DA240628023711", "next_trip": "DA240628034411", "prev_O": [114.178114, 22.314217], "next_O": [114.227845, 22.304483]}, "geometry": {"type": "LineString", "coordinates": [[114.206161, 22.325405], [114.22741, 22.304733]]}}, {"type": "Feature", "properties": {"id": "ghost_XE7168_20240628124956", "plate_no": "XE7168", "gap_start_time": "2024-06-28T12:49:56", "gap_end_time": "2024-06-28T15:30:06", "gap_duration_min": 160.17, "wasted_distance_km": 8.188, "prev_trip": "DA240628034411", "next_trip": "DA240628020911", "prev_O": [114.227845, 22.304483], "next_O": [114.201222, 22.378404]}, "geometry": {"type": "LineString", "coordinates": [[114.175108, 22.30964], [114.201535, 22.379105]]}}, {"type": "Feature", "properties": {"id": "ghost_XF1493_20240628090423", "plate_no": "XF1493", "gap_start_time": "2024-06-28T09:04:23", "gap_end_time": "2024-06-28T12:30:09", "gap_duration_min": 205.77, "wasted_distance_km": 21.593, "prev_trip": "DA240628009501", "next_trip": "DA240628029602", "prev_O": [114.137108, 22.5004969], "next_O": [114.2303424, 22.3079333]}, "geometry": {"type": "LineString", "coordinates": [[114.13944, 22.48294], [114.230693, 22.308036]]}}, {"type": "Feature", "properties": {"id": "ghost_XM6122_20240628122222", "plate_no": "XM6122", "gap_start_time": "2024-06-28T12:22:22", "gap_end_time": "2024-06-28T15:40:10", "gap_duration_min": 197.8, "wasted_distance_km": 0.547, "prev_trip": "DA240628017302", "next_trip": "DA240628003002", "prev_O": [114.2082444, 22.3365664], "next_O": [114.212997, 22.3358478]}, "geometry": {"type": "LineString", "coordinates": [[114.208225, 22.33465], [114.213436, 22.335636]]}}, {"type": "Feature", "properties": {"id": "ghost_XM9877_20240628110548", "plate_no": "XM9877", "gap_start_time": "2024-06-28T11:05:48", "gap_end_time": "2024-06-28T18:30:08", "gap_duration_min": 444.33, "wasted_distance_km": 4.801, "prev_trip": "DA240628052811", "next_trip": "DA240628011111", "prev_O": [114.1940715, 22.3796208], "next_O": [114.184829, 22.3262591]}, "geometry": {"type": "LineString", "coordinates": [[114.230426, 22.318855], [114.18436, 22.3258]]}}, {"type": "Feature", "properties": {"id": "ghost_XV2836_20240628094821", "plate_no": "XV2836", "gap_start_time": "2024-06-28T09:48:21", "gap_end_time": "2024-06-28T12:45:21", "gap_duration_min": 177.0, "wasted_distance_km": 3.376, "prev_trip": "DA240628008911", "next_trip": "DA240628048801", "prev_O": [114.2365271, 22.2631632], "next_O": [114.1653848, 22.2434339]}, "geometry": {"type": "LineString", "coordinates": [[114.173955, 22.273566], [114.165718, 22.244175]]}}, {"type": "Feature", "properties": {"id": "ghost_XV2836_20240628133117", "plate_no": "XV2836", "gap_start_time": "2024-06-28T13:31:17", "gap_end_time": "2024-06-28T14:45:09", "gap_duration_min": 73.87, "wasted_distance_km": 2.401, "prev_trip": "DA240628048801", "next_trip": "DA240628001411", "prev_O": [114.1653848, 22.2434339], "next_O": [114.1734816, 22.2725317]}, "geometry": {"type": "LineString", "coordinates": [[114.14989, 22.270546], [114.173158, 22.27218]]}}, {"type": "Feature", "properties": {"id": "ghost_XV3002_20240628095818", "plate_no": "XV3002", "gap_start_time": "2024-06-28T09:58:18", "gap_end_time": "2024-06-28T16:02:13", "gap_duration_min": 363.92, "wasted_distance_km": 6.138, "prev_trip": "DA240628020311", "next_trip": "DA240628004511", "prev_O": [114.1430877, 22.2850022], "next_O": [114.173637, 22.2733649]}, "geometry": {"type": "LineString", "coordinates": [[114.23373, 22.269038], [114.174296, 22.273716]]}}, {"type": "Feature", "properties": {"id": "ghost_XV3002_20240628161259", "plate_no": "XV3002", "gap_start_time": "2024-06-28T16:12:59", "gap_end_time": "2024-06-28T17:02:29", "gap_duration_min": 49.5, "wasted_distance_km": 6.287, "prev_trip": "DA240628004511", "next_trip": "DA240628019602", "prev_O": [114.173637, 22.2733649], "next_O": [114.2356085, 22.2694621]}, "geometry": {"type": "LineString", "coordinates": [[114.173058, 22.27465], [114.233895, 22.26941]]}}, {"type": "Feature", "properties": {"id": "ghost_XV6358_20240628082652", "plate_no": "XV6358", "gap_start_time": "2024-06-28T08:26:52", "gap_end_time": "2024-06-28T11:30:01", "gap_duration_min": 183.15, "wasted_distance_km": 4.455, "prev_trip": "DA240628003501", "next_trip": "DA240628032111", "prev_O": [114.17302, 22.2774003], "next_O": [114.1476512, 22.243373]}, "geometry": {"type": "LineString", "coordinates": [[114.173193, 22.276125], [114.147001, 22.24423]]}}, {"type": "Feature", "properties": {"id": "ghost_XV6358_20240628115932", "plate_no": "XV6358", "gap_start_time": "2024-06-28T11:59:32", "gap_end_time": "2024-06-28T12:34:02", "gap_duration_min": 34.5, "wasted_distance_km": 2.558, "prev_trip": "DA240628032111", "next_trip": "DA240628004711", "prev_O": [114.1476512, 22.243373], "next_O": [114.1245247, 22.2709886]}, "geometry": {"type": "LineString", "coordinates": [[114.145443, 22.287713], [114.126188, 22.273166]]}}, {"type": "Feature", "properties": {"id": "ghost_YK4725_20240628105157", "plate_no": "YK4725", "gap_start_time": "2024-06-28T10:51:57", "gap_end_time": "2024-06-28T13:30:09", "gap_duration_min": 158.2, "wasted_distance_km": 1.793, "prev_trip": "DA240628016401", "next_trip": "DA240628038201", "prev_O": [114.1565225, 22.3342843], "next_O": [114.1909836, 22.2867373]}, "geometry": {"type": "LineString", "coordinates": [[114.174065, 22.281025], [114.190581, 22.286161]]}}, {"type": "Feature", "properties": {"id": "ghost_YK4725_20240628134258", "plate_no": "YK4725", "gap_start_time": "2024-06-28T13:42:58", "gap_end_time": "2024-06-28T15:46:58", "gap_duration_min": 124.0, "wasted_distance_km": 7.068, "prev_trip": "DA240628038201", "next_trip": "DA240628029002", "prev_O": [114.1909836, 22.2867373], "next_O": [114.2270078, 22.323232]}, "geometry": {"type": "LineString", "coordinates": [[114.179951, 22.275155], [114.227115, 22.32137]]}}, {"type": "Feature", "properties": {"id": "ghost_YK4856_20240628131042", "plate_no": "YK4856", "gap_start_time": "2024-06-28T13:10:42", "gap_end_time": "2024-06-28T15:00:40", "gap_duration_min": 109.97, "wasted_distance_km": 3.28, "prev_trip": "DA240628031111", "next_trip": "DA240628028001", "prev_O": [114.230334, 22.307947], "next_O": [114.2149902, 22.3254325]}, "geometry": {"type": "LineString", "coordinates": [[114.247931, 22.32417], [114.21605, 22.324636]]}}, {"type": "Feature", "properties": {"id": "ghost_YK6404_20240628115246", "plate_no": "YK6404", "gap_start_time": "2024-06-28T11:52:46", "gap_end_time": "2024-06-28T15:34:33", "gap_duration_min": 221.78, "wasted_distance_km": 7.949, "prev_trip": "DA240628026802", "next_trip": "DA240628044802", "prev_O": [114.1832816, 22.3250389], "next_O": [114.1845098, 22.3249163]}, "geometry": {"type": "LineString", "coordinates": [[114.109506, 22.342548], [114.18445, 22.325085], [114.18445, 22.325085]]}}, {"type": "Feature", "properties": {"id": "ghost_YK6682_20240628114209", "plate_no": "YK6682", "gap_start_time": "2024-06-28T11:42:09", "gap_end_time": "2024-06-28T12:15:08", "gap_duration_min": 32.98, "wasted_distance_km": 3.156, "prev_trip": "DA240628053801", "next_trip": "DA240628048201", "prev_O": [114.2695581, 22.2966399], "next_O": [114.193556, 22.341382]}, "geometry": {"type": "LineString", "coordinates": [[114.178525, 22.31702], [114.197548, 22.33929]]}}, {"type": "Feature", "properties": {"id": "ghost_YK6682_20240628121908", "plate_no": "YK6682", "gap_start_time": "2024-06-28T12:19:08", "gap_end_time": "2024-06-28T14:30:19", "gap_duration_min": 131.18, "wasted_distance_km": 0.299, "prev_trip": "DA240628048201", "next_trip": "DA240628048202", "prev_O": [114.193556, 22.341382], "next_O": [114.20193, 22.346706]}, "geometry": {"type": "LineString", "coordinates": [[114.199303, 22.345436], [114.201903, 22.346648]]}}, {"type": "Feature", "properties": {"id": "ghost_YK7874_20240628085255", "plate_no": "YK7874", "gap_start_time": "2024-06-28T08:52:55", "gap_end_time": "2024-06-28T09:20:18", "gap_duration_min": 27.38, "wasted_distance_km": 2.122, "prev_trip": "DA240628027211", "next_trip": "DA240628033711", "prev_O": [114.251481, 22.26659], "next_O": [114.2012365, 22.2911583]}, "geometry": {"type": "LineString", "coordinates": [[114.190093, 22.275131], [114.201116, 22.291261]]}}, {"type": "Feature", "properties": {"id": "ghost_YK7874_20240628092818", "plate_no": "YK7874", "gap_start_time": "2024-06-28T09:28:18", "gap_end_time": "2024-06-28T13:10:51", "gap_duration_min": 222.55, "wasted_distance_km": 0.475, "prev_trip": "DA240628033711", "next_trip": "DA240628049602", "prev_O": [114.2012365, 22.2911583], "next_O": [114.1841731, 22.2819499]}, "geometry": {"type": "LineString", "coordinates": [[114.187833, 22.2788], [114.184068, 22.281268]]}}, {"type": "Feature", "properties": {"id": "ghost_YK7874_20240628133523", "plate_no": "YK7874", "gap_start_time": "2024-06-28T13:35:23", "gap_end_time": "2024-06-28T17:00:26", "gap_duration_min": 205.05, "wasted_distance_km": 8.375, "prev_trip": "DA240628049602", "next_trip": "DA240628019911", "prev_O": [114.1841731, 22.2819499], "next_O": [114.1394532, 22.2865441]}, "geometry": {"type": "LineString", "coordinates": [[114.22077, 22.283973], [114.139435, 22.286866]]}}, {"type": "Feature", "properties": {"id": "ghost_YK8954_20240628105419", "plate_no": "YK8954", "gap_start_time": "2024-06-28T10:54:19", "gap_end_time": "2024-06-28T12:00:19", "gap_duration_min": 66.0, "wasted_distance_km": 14.759, "prev_trip": "DA240628039801", "next_trip": "DA240628006811", "prev_O": [114.137108, 22.5004969], "next_O": [114.2503388, 22.4318668]}, "geometry": {"type": "LineString", "coordinates": [[114.124758, 22.496401], [114.250413, 22.432116]]}}, {"type": "Feature", "properties": {"id": "ghost_YK905_20240628120913", "plate_no": "YK905", "gap_start_time": "2024-06-28T12:09:13", "gap_end_time": "2024-06-28T13:15:13", "gap_duration_min": 66.0, "wasted_distance_km": 0.545, "prev_trip": "DA240628031702", "next_trip": "DA240628045411", "prev_O": [114.1832816, 22.3250389], "next_O": [114.182692, 22.31886]}, "geometry": {"type": "LineString", "coordinates": [[114.177806, 22.321131], [114.182675, 22.319196]]}}, {"type": "Feature", "properties": {"id": "ghost_YK9198_20240628095523", "plate_no": "YK9198", "gap_start_time": "2024-06-28T09:55:23", "gap_end_time": "2024-06-28T13:15:37", "gap_duration_min": 200.23, "wasted_distance_km": 7.651, "prev_trip": "DA240628043711", "next_trip": "DA240628024701", "prev_O": [114.1816438, 22.3194383], "next_O": [114.1609022, 22.3245534]}, "geometry": {"type": "LineString", "coordinates": [[114.233136, 22.310456], [114.160255, 22.32421]]}}, {"type": "Feature", "properties": {"id": "ghost_YL1315_20240628070328", "plate_no": "YL1315", "gap_start_time": "2024-06-28T07:03:28", "gap_end_time": "2024-06-28T11:45:10", "gap_duration_min": 281.7, "wasted_distance_km": 3.49, "prev_trip": "DA240628017611", "next_trip": "DA240628015011", "prev_O": [114.179555, 22.276041], "next_O": [114.1544556, 22.2482557]}, "geometry": {"type": "LineString", "coordinates": [[114.131036, 22.270761], [114.154341, 22.247956]]}}, {"type": "Feature", "properties": {"id": "ghost_YL1315_20240628121140", "plate_no": "YL1315", "gap_start_time": "2024-06-28T12:11:40", "gap_end_time": "2024-06-28T13:00:10", "gap_duration_min": 48.5, "wasted_distance_km": 7.702, "prev_trip": "DA240628015011", "next_trip": "DA240628023601", "prev_O": [114.1544556, 22.2482557], "next_O": [114.204604, 22.291438]}, "geometry": {"type": "LineString", "coordinates": [[114.206856, 22.221615], [114.20464, 22.290853]]}}, {"type": "Feature", "properties": {"id": "ghost_YL1783_20240628113657", "plate_no": "YL1783", "gap_start_time": "2024-06-28T11:36:57", "gap_end_time": "2024-06-28T17:00:27", "gap_duration_min": 323.5, "wasted_distance_km": 5.1, "prev_trip": "DA240628045211", "next_trip": "DA240628006411", "prev_O": [114.1826383, 22.3142913], "next_O": [114.2303424, 22.3079333]}, "geometry": {"type": "LineString", "coordinates": [[114.182481, 22.319261], [114.230571, 22.30811]]}}, {"type": "Feature", "properties": {"id": "ghost_YY7632_20240628100638", "plate_no": "YY7632", "gap_start_time": "2024-06-28T10:06:38", "gap_end_time": "2024-06-28T12:15:07", "gap_duration_min": 128.48, "wasted_distance_km": 0.269, "prev_trip": "DA240628051911", "next_trip": "DA240628052011", "prev_O": [114.1888665, 22.3125821], "next_O": [114.230334, 22.307947]}, "geometry": {"type": "LineString", "coordinates": [[114.228583, 22.306533], [114.230635, 22.308035]]}}, {"type": "Feature", "properties": {"id": "ghost_YZ2545_20240628124641", "plate_no": "YZ2545", "gap_start_time": "2024-06-28T12:46:41", "gap_end_time": "2024-06-28T13:45:05", "gap_duration_min": 58.4, "wasted_distance_km": 4.529, "prev_trip": "DA240628026501", "next_trip": "DA240628025301", "prev_O": [114.1796289, 22.4663317], "next_O": [114.1827676, 22.3819893]}, "geometry": {"type": "LineString", "coordinates": [[114.211476, 22.41317], [114.18289, 22.38218]]}}, {"type": "Feature", "properties": {"id": "ghost_ZA3406_20240628122636", "plate_no": "ZA3406", "gap_start_time": "2024-06-28T12:26:36", "gap_end_time": "2024-06-28T14:30:10", "gap_duration_min": 123.57, "wasted_distance_km": 8.175, "prev_trip": "DA240628019411", "next_trip": "DA240628020411", "prev_O": [114.2222826, 22.2867775], "next_O": [114.2362653, 22.2695993]}, "geometry": {"type": "LineString", "coordinates": [[114.161816, 22.24869], [114.237303, 22.271581]]}}, {"type": "Feature", "properties": {"id": "ghost_ZA3650_20240628113650", "plate_no": "ZA3650", "gap_start_time": "2024-06-28T11:36:50", "gap_end_time": "2024-06-28T14:47:09", "gap_duration_min": 190.32, "wasted_distance_km": 4.125, "prev_trip": "DA240628044011", "next_trip": "DA240628034902", "prev_O": [114.158032, 22.3407391], "next_O": [114.17436, 22.277886]}, "geometry": {"type": "LineString", "coordinates": [[114.21425, 22.28255], [114.174208, 22.280696]]}}, {"type": "Feature", "properties": {"id": "ghost_ZA6585_20240628101352", "plate_no": "ZA6585", "gap_start_time": "2024-06-28T10:13:52", "gap_end_time": "2024-06-28T11:40:01", "gap_duration_min": 86.15, "wasted_distance_km": 1.91, "prev_trip": "DA240628044411", "next_trip": "DA240628000702", "prev_O": [114.2276028, 22.3043425], "next_O": [114.1831334, 22.3223645]}, "geometry": {"type": "LineString", "coordinates": [[114.177748, 22.305895], [114.182713, 22.322443]]}}, {"type": "Feature", "properties": {"id": "ghost_ZA7388_20240628110817", "plate_no": "ZA7388", "gap_start_time": "2024-06-28T11:08:17", "gap_end_time": "2024-06-28T14:59:12", "gap_duration_min": 230.92, "wasted_distance_km": 3.13, "prev_trip": "DA240628026002", "next_trip": "DA240628009011", "prev_O": [114.1762211, 22.2781659], "next_O": [114.1737442, 22.2736077]}, "geometry": {"type": "LineString", "coordinates": [[114.198391, 22.290808], [114.172076, 22.276685]]}}, {"type": "Feature", "properties": {"id": "ghost_ZB1369_20240628094646", "plate_no": "ZB1369", "gap_start_time": "2024-06-28T09:46:46", "gap_end_time": "2024-06-28T15:00:25", "gap_duration_min": 313.65, "wasted_distance_km": 6.758, "prev_trip": "DA240628014501", "next_trip": "DA240628048802", "prev_O": [114.1154861, 22.363882], "next_O": [114.1496575, 22.2701512]}, "geometry": {"type": "LineString", "coordinates": [[114.159146, 22.329906], [114.149676, 22.269768]]}}]}