{"type": "FeatureCollection", "features": [{"type": "Feature", "properties": {"id": "ghost_RV3895_20240613090825", "plate_no": "RV3895", "gap_start_time": "2024-06-13T09:08:25", "gap_end_time": "2024-06-13T10:15:21", "gap_duration_min": 66.93, "wasted_distance_km": 15.2, "prev_trip": "DA240613012001", "next_trip": "DA240613017401", "prev_O": [114.1371502, 22.4917323], "next_O": [114.1810454, 22.3182095]}, "geometry": {"type": "LineString", "coordinates": [[114.172271, 22.453616], [114.179676, 22.317093]]}}, {"type": "Feature", "properties": {"id": "ghost_RV3895_20240613103528", "plate_no": "RV3895", "gap_start_time": "2024-06-13T10:35:28", "gap_end_time": "2024-06-13T13:15:05", "gap_duration_min": 159.62, "wasted_distance_km": 10.789, "prev_trip": "DA240613017401", "next_trip": "DA240613037301", "prev_O": [114.1810454, 22.3182095], "next_O": [114.2642247, 22.3155765]}, "geometry": {"type": "LineString", "coordinates": [[114.160506, 22.331303], [114.264131, 22.316281]]}}, {"type": "Feature", "properties": {"id": "ghost_RV7493_20240613081809", "plate_no": "RV7493", "gap_start_time": "2024-06-13T08:18:09", "gap_end_time": "2024-06-13T08:45:09", "gap_duration_min": 27.0, "wasted_distance_km": 4.498, "prev_trip": "DA240613038601", "next_trip": "DA240613027901", "prev_O": [114.2037094, 22.3474998], "next_O": [114.232943, 22.307857]}, "geometry": {"type": "LineString", "coordinates": [[114.208188, 22.340396], [114.233428, 22.307361]]}}, {"type": "Feature", "properties": {"id": "ghost_RV7493_20240613090009", "plate_no": "RV7493", "gap_start_time": "2024-06-13T09:00:09", "gap_end_time": "2024-06-13T09:30:09", "gap_duration_min": 30.0, "wasted_distance_km": 2.994, "prev_trip": "DA240613027901", "next_trip": "DA240613038602", "prev_O": [114.232943, 22.307857], "next_O": [114.2078033, 22.3395928]}, "geometry": {"type": "LineString", "coordinates": [[114.227258, 22.319976], [114.207938, 22.34011]]}}, {"type": "Feature", "properties": {"id": "ghost_RV8266_20240613091113", "plate_no": "RV8266", "gap_start_time": "2024-06-13T09:11:13", "gap_end_time": "2024-06-13T10:00:43", "gap_duration_min": 49.5, "wasted_distance_km": 2.783, "prev_trip": "DA240613005611", "next_trip": "DA240613017001", "prev_O": [114.2076801, 22.3299812], "next_O": [114.2074247, 22.3290408]}, "geometry": {"type": "LineString", "coordinates": [[114.229605, 22.310303], [114.208646, 22.326136]]}}, {"type": "Feature", "properties": {"id": "ghost_RV8266_20240613100642", "plate_no": "RV8266", "gap_start_time": "2024-06-13T10:06:42", "gap_end_time": "2024-06-13T11:00:29", "gap_duration_min": 53.78, "wasted_distance_km": 1.264, "prev_trip": "DA240613017001", "next_trip": "DA240613007711", "prev_O": [114.2074247, 22.3290408], "next_O": [114.2286722, 22.3119194]}, "geometry": {"type": "LineString", "coordinates": [[114.22533, 22.32247], [114.228843, 22.311576]]}}, {"type": "Feature", "properties": {"id": "ghost_RW6544_20240613084028", "plate_no": "RW6544", "gap_start_time": "2024-06-13T08:40:28", "gap_end_time": "2024-06-13T10:45:29", "gap_duration_min": 125.02, "wasted_distance_km": 6.868, "prev_trip": "DA240613017301", "next_trip": "DA240613018711", "prev_O": [114.192957, 22.332628], "next_O": [114.129029, 22.3585969]}, "geometry": {"type": "LineString", "coordinates": [[114.185781, 22.326976], [114.128815, 22.3592]]}}, {"type": "Feature", "properties": {"id": "ghost_RW6544_20240613110659", "plate_no": "RW6544", "gap_start_time": "2024-06-13T11:06:59", "gap_end_time": "2024-06-13T13:30:05", "gap_duration_min": 143.1, "wasted_distance_km": 1.947, "prev_trip": "DA240613018711", "next_trip": "DA240613029911", "prev_O": [114.129029, 22.3585969], "next_O": [114.1215006, 22.3607344]}, "geometry": {"type": "LineString", "coordinates": [[114.111171, 22.375326], [114.1219, 22.360895]]}}, {"type": "Feature", "properties": {"id": "ghost_RW6544_20240613134835", "plate_no": "RW6544", "gap_start_time": "2024-06-13T13:48:35", "gap_end_time": "2024-06-13T16:00:08", "gap_duration_min": 131.55, "wasted_distance_km": 0.019, "prev_trip": "DA240613029911", "next_trip": "DA240613030011", "prev_O": [114.1215006, 22.3607344], "next_O": [114.13489, 22.341561]}, "geometry": {"type": "LineString", "coordinates": [[114.13422, 22.341403], [114.134038, 22.341366]]}}, {"type": "Feature", "properties": {"id": "ghost_RW6544_20240613161937", "plate_no": "RW6544", "gap_start_time": "2024-06-13T16:19:37", "gap_end_time": "2024-06-13T18:20:09", "gap_duration_min": 120.53, "wasted_distance_km": 6.322, "prev_trip": "DA240613030011", "next_trip": "DA240613040101", "prev_O": [114.13489, 22.341561], "next_O": [114.1745683, 22.3669042]}, "geometry": {"type": "LineString", "coordinates": [[114.113121, 22.369248], [114.174545, 22.366751]]}}, {"type": "Feature", "properties": {"id": "ghost_RX3329_20240613063129", "plate_no": "RX3329", "gap_start_time": "2024-06-13T06:31:29", "gap_end_time": "2024-06-13T12:00:05", "gap_duration_min": 328.6, "wasted_distance_km": 1.063, "prev_trip": "DA240613016201", "next_trip": "DA240613017302", "prev_O": [114.167627, 22.316376], "next_O": [114.1832816, 22.3250389]}, "geometry": {"type": "LineString", "coordinates": [[114.175301, 22.318431], [114.183065, 22.324735]]}}, {"type": "Feature", "properties": {"id": "ghost_RX5674_20240613125734", "plate_no": "RX5674", "gap_start_time": "2024-06-13T12:57:34", "gap_end_time": "2024-06-13T13:45:29", "gap_duration_min": 47.92, "wasted_distance_km": 1.811, "prev_trip": "DA240613040511", "next_trip": "DA240613021301", "prev_O": [114.2175719, 22.2864438], "next_O": [114.219604, 22.2802848]}, "geometry": {"type": "LineString", "coordinates": [[114.23339, 22.271201], [114.220956, 22.282728]]}}, {"type": "Feature", "properties": {"id": "ghost_SL9336_20240613081826", "plate_no": "SL9336", "gap_start_time": "2024-06-13T08:18:26", "gap_end_time": "2024-06-13T11:17:45", "gap_duration_min": 179.32, "wasted_distance_km": 2.38, "prev_trip": "DA240613000301", "next_trip": "DA240613032402", "prev_O": [114.1266489, 22.3476314], "next_O": [114.1225225, 22.3665044]}, "geometry": {"type": "LineString", "coordinates": [[114.128991, 22.346733], [114.124486, 22.367731]]}}, {"type": "Feature", "properties": {"id": "ghost_SL9703_20240613103107", "plate_no": "SL9703", "gap_start_time": "2024-06-13T10:31:07", "gap_end_time": "2024-06-13T12:10:00", "gap_duration_min": 98.88, "wasted_distance_km": 3.776, "prev_trip": "DA240613024301", "next_trip": "DA240613024402", "prev_O": [114.2089158, 22.385752], "next_O": [114.2579494, 22.3113757]}, "geometry": {"type": "LineString", "coordinates": [[114.221363, 22.307456], [114.257871, 22.310976]]}}, {"type": "Feature", "properties": {"id": "ghost_TB7382_20240613114028", "plate_no": "TB7382", "gap_start_time": "2024-06-13T11:40:28", "gap_end_time": "2024-06-13T14:05:47", "gap_duration_min": 145.32, "wasted_distance_km": 0.33, "prev_trip": "DA240613021601", "next_trip": "DA240613045011", "prev_O": [114.2023553, 22.2909586], "next_O": [114.1508027, 22.2873385]}, "geometry": {"type": "LineString", "coordinates": [[114.144865, 22.288176], [114.148053, 22.288461]]}}, {"type": "Feature", "properties": {"id": "ghost_TB9578_20240613081658", "plate_no": "TB9578", "gap_start_time": "2024-06-13T08:16:58", "gap_end_time": "2024-06-13T13:30:10", "gap_duration_min": 313.2, "wasted_distance_km": 5.6, "prev_trip": "DA240613014511", "next_trip": "DA240613043101", "prev_O": [114.1395591, 22.3391912], "next_O": [114.2243979, 22.332996]}, "geometry": {"type": "LineString", "coordinates": [[114.17644, 22.311636], [114.226876, 22.330606]]}}, {"type": "Feature", "properties": {"id": "ghost_TC1655_20240613114742", "plate_no": "TC1655", "gap_start_time": "2024-06-13T11:47:42", "gap_end_time": "2024-06-13T12:15:43", "gap_duration_min": 28.02, "wasted_distance_km": 3.605, "prev_trip": "DA240613033911", "next_trip": "DA240613026102", "prev_O": [114.1178066, 22.3689762], "next_O": [114.1963966, 22.345608]}, "geometry": {"type": "LineString", "coordinates": [[114.178655, 22.317493], [114.196205, 22.345561]]}}, {"type": "Feature", "properties": {"id": "ghost_TD7860_20240613081547", "plate_no": "TD7860", "gap_start_time": "2024-06-13T08:15:47", "gap_end_time": "2024-06-13T14:00:08", "gap_duration_min": 344.35, "wasted_distance_km": 9.928, "prev_trip": "DA240613013801", "next_trip": "DA240613019802", "prev_O": [114.1819743, 22.3714238], "next_O": [114.2215353, 22.3107053]}, "geometry": {"type": "LineString", "coordinates": [[114.195823, 22.395908], [114.222775, 22.31017]]}}, {"type": "Feature", "properties": {"id": "ghost_TF1503_20240613105522", "plate_no": "TF1503", "gap_start_time": "2024-06-13T10:55:22", "gap_end_time": "2024-06-13T15:00:13", "gap_duration_min": 244.85, "wasted_distance_km": 8.776, "prev_trip": "DA240613023501", "next_trip": "DA240613032802", "prev_O": [114.209362, 22.458109], "next_O": [114.2014147, 22.3788502]}, "geometry": {"type": "LineString", "coordinates": [[114.167561, 22.450998], [114.201565, 22.378606]]}}, {"type": "Feature", "properties": {"id": "ghost_TF1503_20240613153238", "plate_no": "TF1503", "gap_start_time": "2024-06-13T15:32:38", "gap_end_time": "2024-06-13T16:30:15", "gap_duration_min": 57.62, "wasted_distance_km": 4.997, "prev_trip": "DA240613032802", "next_trip": "DA240613016302", "prev_O": [114.2014147, 22.3788502], "next_O": [114.1795766, 22.3045634]}, "geometry": {"type": "LineString", "coordinates": [[114.228288, 22.31117], [114.180115, 22.305378]]}}, {"type": "Feature", "properties": {"id": "ghost_TF2479_20240613071245", "plate_no": "TF2479", "gap_start_time": "2024-06-13T07:12:45", "gap_end_time": "2024-06-13T08:00:25", "gap_duration_min": 47.67, "wasted_distance_km": 6.394, "prev_trip": "DA240613024901", "next_trip": "DA240613003011", "prev_O": [114.204565, 22.2898326], "next_O": [114.2365271, 22.2631632]}, "geometry": {"type": "LineString", "coordinates": [[114.176185, 22.277705], [114.236333, 22.263278]]}}, {"type": "Feature", "properties": {"id": "ghost_TV9732_20240613094710", "plate_no": "TV9732", "gap_start_time": "2024-06-13T09:47:10", "gap_end_time": "2024-06-13T10:50:09", "gap_duration_min": 62.98, "wasted_distance_km": 4.659, "prev_trip": "DA240613028501", "next_trip": "DA240613032601", "prev_O": [114.1744015, 22.276511], "next_O": [114.22004, 22.283011]}, "geometry": {"type": "LineString", "coordinates": [[114.174855, 22.277195], [114.219673, 22.283181]]}}, {"type": "Feature", "properties": {"id": "ghost_TV9732_20240613111209", "plate_no": "TV9732", "gap_start_time": "2024-06-13T11:12:09", "gap_end_time": "2024-06-13T12:15:22", "gap_duration_min": 63.22, "wasted_distance_km": 3.504, "prev_trip": "DA240613032601", "next_trip": "DA240613023301", "prev_O": [114.22004, 22.283011], "next_O": [114.1932142, 22.2882597]}, "geometry": {"type": "LineString", "coordinates": [[114.161091, 22.281901], [114.194328, 22.28875]]}}, {"type": "Feature", "properties": {"id": "ghost_TX9739_20240613132950", "plate_no": "TX9739", "gap_start_time": "2024-06-13T13:29:50", "gap_end_time": "2024-06-13T15:45:06", "gap_duration_min": 135.27, "wasted_distance_km": 6.976, "prev_trip": "DA240613041401", "next_trip": "DA240613004211", "prev_O": [114.2422539, 22.2990415], "next_O": [114.173637, 22.2733649]}, "geometry": {"type": "LineString", "coordinates": [[114.22879, 22.310601], [114.17397, 22.273683]]}}, {"type": "Feature", "properties": {"id": "ghost_TX9769_20240613095143", "plate_no": "TX9769", "gap_start_time": "2024-06-13T09:51:43", "gap_end_time": "2024-06-13T10:30:14", "gap_duration_min": 38.52, "wasted_distance_km": 1.872, "prev_trip": "DA240613013211", "next_trip": "DA240613028401", "prev_O": [114.2371957, 22.3060262], "next_O": [114.13917, 22.258037]}, "geometry": {"type": "LineString", "coordinates": [[114.130413, 22.270875], [114.139356, 22.256216]]}}, {"type": "Feature", "properties": {"id": "ghost_TX9769_20240613104543", "plate_no": "TX9769", "gap_start_time": "2024-06-13T10:45:43", "gap_end_time": "2024-06-13T13:15:45", "gap_duration_min": 150.03, "wasted_distance_km": 8.552, "prev_trip": "DA240613028401", "next_trip": "DA240613014401", "prev_O": [114.13917, 22.258037], "next_O": [114.2388176, 22.3074294]}, "geometry": {"type": "LineString", "coordinates": [[114.179701, 22.254093], [114.239198, 22.307793]]}}, {"type": "Feature", "properties": {"id": "ghost_TY3864_20240613104250", "plate_no": "TY3864", "gap_start_time": "2024-06-13T10:42:50", "gap_end_time": "2024-06-13T13:00:24", "gap_duration_min": 137.57, "wasted_distance_km": 6.116, "prev_trip": "DA240613012301", "next_trip": "DA240613026502", "prev_O": [114.1031061, 22.3533382], "next_O": [114.2286568, 22.3119002]}, "geometry": {"type": "LineString", "coordinates": [[114.170021, 22.319393], [114.228931, 22.311931]]}}, {"type": "Feature", "properties": {"id": "ghost_UL3556_20240613071127", "plate_no": "UL3556", "gap_start_time": "2024-06-13T07:11:27", "gap_end_time": "2024-06-13T08:15:18", "gap_duration_min": 63.85, "wasted_distance_km": 5.204, "prev_trip": "DA240613020211", "next_trip": "DA240613028301", "prev_O": [114.1917521, 22.3405523], "next_O": [114.2269991, 22.2807278]}, "geometry": {"type": "LineString", "coordinates": [[114.180436, 22.29919], [114.227393, 22.281793]]}}, {"type": "Feature", "properties": {"id": "ghost_UL3556_20240613082918", "plate_no": "UL3556", "gap_start_time": "2024-06-13T08:29:18", "gap_end_time": "2024-06-13T09:15:21", "gap_duration_min": 46.05, "wasted_distance_km": 1.46, "prev_trip": "DA240613028301", "next_trip": "DA240613018301", "prev_O": [114.2269991, 22.2807278], "next_O": [114.21883, 22.279802]}, "geometry": {"type": "LineString", "coordinates": [[114.231048, 22.275736], [114.217776, 22.280378]]}}, {"type": "Feature", "properties": {"id": "ghost_UL3556_20240613094551", "plate_no": "UL3556", "gap_start_time": "2024-06-13T09:45:51", "gap_end_time": "2024-06-13T13:20:22", "gap_duration_min": 214.52, "wasted_distance_km": 1.615, "prev_trip": "DA240613018301", "next_trip": "DA240613015401", "prev_O": [114.21883, 22.279802], "next_O": [114.1331919, 22.2850741]}, "geometry": {"type": "LineString", "coordinates": [[114.125996, 22.273135], [114.133498, 22.285888]]}}, {"type": "Feature", "properties": {"id": "ghost_UL6685_20240613122637", "plate_no": "UL6685", "gap_start_time": "2024-06-13T12:26:37", "gap_end_time": "2024-06-13T13:00:22", "gap_duration_min": 33.75, "wasted_distance_km": 3.116, "prev_trip": "DA240613037511", "next_trip": "DA240613044102", "prev_O": [114.1992046, 22.3382294], "next_O": [114.207831, 22.32266]}, "geometry": {"type": "LineString", "coordinates": [[114.232681, 22.307798], [114.207345, 22.323163]]}}, {"type": "Feature", "properties": {"id": "ghost_UL6685_20240613131222", "plate_no": "UL6685", "gap_start_time": "2024-06-13T13:12:22", "gap_end_time": "2024-06-13T15:16:50", "gap_duration_min": 124.47, "wasted_distance_km": 7.32, "prev_trip": "DA240613044102", "next_trip": "DA240613019902", "prev_O": [114.207831, 22.32266], "next_O": [114.1475191, 22.2870175]}, "geometry": {"type": "LineString", "coordinates": [[114.183396, 22.339998], [114.148123, 22.28283]]}}, {"type": "Feature", "properties": {"id": "ghost_UL6685_20240613151950", "plate_no": "UL6685", "gap_start_time": "2024-06-13T15:19:50", "gap_end_time": "2024-06-13T16:00:20", "gap_duration_min": 40.5, "wasted_distance_km": 3.043, "prev_trip": "DA240613019902", "next_trip": "DA240613020111", "prev_O": [114.1475191, 22.2870175], "next_O": [114.1242972, 22.2706361]}, "geometry": {"type": "LineString", "coordinates": [[114.149338, 22.282523], [114.122466, 22.2711]]}}, {"type": "Feature", "properties": {"id": "ghost_UL7617_20240613095732", "plate_no": "UL7617", "gap_start_time": "2024-06-13T09:57:32", "gap_end_time": "2024-06-13T14:00:03", "gap_duration_min": 242.52, "wasted_distance_km": 21.626, "prev_trip": "DA240613013001", "next_trip": "DA240613040301", "prev_O": [114.2265277, 22.3145538], "next_O": [113.984618, 22.378734]}, "geometry": {"type": "LineString", "coordinates": [[114.175603, 22.297428], [113.984361, 22.378256]]}}, {"type": "Feature", "properties": {"id": "ghost_UL7804_20240613112937", "plate_no": "UL7804", "gap_start_time": "2024-06-13T11:29:37", "gap_end_time": "2024-06-13T16:50:04", "gap_duration_min": 320.45, "wasted_distance_km": 6.561, "prev_trip": "DA240613047601", "next_trip": "DA240613021011", "prev_O": [114.159871, 22.336948], "next_O": [114.2087918, 22.3157859]}, "geometry": {"type": "LineString", "coordinates": [[114.154651, 22.285473], [114.209488, 22.315588]]}}, {"type": "Feature", "properties": {"id": "ghost_UM5926_20240613103739", "plate_no": "UM5926", "gap_start_time": "2024-06-13T10:37:39", "gap_end_time": "2024-06-13T12:45:23", "gap_duration_min": 127.73, "wasted_distance_km": 5.865, "prev_trip": "DA240613031611", "next_trip": "DA240613012201", "prev_O": [114.1899693, 22.3235682], "next_O": [114.233113, 22.306994]}, "geometry": {"type": "LineString", "coordinates": [[114.175631, 22.308521], [114.232618, 22.30693]]}}, {"type": "Feature", "properties": {"id": "ghost_UN9790_20240613094254", "plate_no": "UN9790", "gap_start_time": "2024-06-13T09:42:54", "gap_end_time": "2024-06-13T10:40:36", "gap_duration_min": 57.7, "wasted_distance_km": 9.273, "prev_trip": "DA240613010001", "next_trip": "DA240613037001", "prev_O": [114.0308909, 22.4417158], "next_O": [114.014558, 22.307181]}, "geometry": {"type": "LineString", "coordinates": [[113.966826, 22.377776], [114.014321, 22.30689]]}}, {"type": "Feature", "properties": {"id": "ghost_UN9790_20240613111135", "plate_no": "UN9790", "gap_start_time": "2024-06-13T11:11:35", "gap_end_time": "2024-06-13T12:00:06", "gap_duration_min": 48.52, "wasted_distance_km": 1.22, "prev_trip": "DA240613037001", "next_trip": "DA240613030501", "prev_O": [114.014558, 22.307181], "next_O": [114.1203858, 22.3670155]}, "geometry": {"type": "LineString", "coordinates": [[114.126361, 22.355821], [114.12071, 22.365463]]}}, {"type": "Feature", "properties": {"id": "ghost_UR468_20240613105740", "plate_no": "UR468", "gap_start_time": "2024-06-13T10:57:40", "gap_end_time": "2024-06-13T15:30:09", "gap_duration_min": 272.48, "wasted_distance_km": 4.841, "prev_trip": "DA240613029611", "next_trip": "DA240613040302", "prev_O": [113.9676328, 22.3869056], "next_O": [114.14655, 22.3364312]}, "geometry": {"type": "LineString", "coordinates": [[114.190895, 22.322283], [114.146448, 22.336593]]}}, {"type": "Feature", "properties": {"id": "ghost_UR468_20240613160236", "plate_no": "UR468", "gap_start_time": "2024-06-13T16:02:36", "gap_end_time": "2024-06-13T16:30:05", "gap_duration_min": 27.48, "wasted_distance_km": 8.211, "prev_trip": "DA240613040302", "next_trip": "DA240613042402", "prev_O": [114.14655, 22.3364312], "next_O": [114.0047107, 22.4494339]}, "geometry": {"type": "LineString", "coordinates": [[113.984856, 22.37873], [114.003948, 22.450436]]}}, {"type": "Feature", "properties": {"id": "ghost_VA7459_20240613122117", "plate_no": "VA7459", "gap_start_time": "2024-06-13T12:21:17", "gap_end_time": "2024-06-13T13:00:14", "gap_duration_min": 38.95, "wasted_distance_km": 1.648, "prev_trip": "DA240613040001", "next_trip": "DA240613039902", "prev_O": [114.1861654, 22.3276635], "next_O": [114.171654, 22.3303537]}, "geometry": {"type": "LineString", "coordinates": [[114.178455, 22.316955], [114.171798, 22.330436]]}}, {"type": "Feature", "properties": {"id": "ghost_VA7986_20240613100522", "plate_no": "VA7986", "gap_start_time": "2024-06-13T10:05:22", "gap_end_time": "2024-06-13T12:45:12", "gap_duration_min": 159.83, "wasted_distance_km": 8.041, "prev_trip": "DA240613020801", "next_trip": "DA240613047111", "prev_O": [114.1430877, 22.2850022], "next_O": [114.24422, 22.321446]}, "geometry": {"type": "LineString", "coordinates": [[114.16877, 22.302908], [114.244231, 22.321771]]}}, {"type": "Feature", "properties": {"id": "ghost_VD1562_20240613120334", "plate_no": "VD1562", "gap_start_time": "2024-06-13T12:03:34", "gap_end_time": "2024-06-13T12:45:04", "gap_duration_min": 41.5, "wasted_distance_km": 0.356, "prev_trip": "DA240613034301", "next_trip": "DA240613009701", "prev_O": [114.140359, 22.36439], "next_O": [114.1283752, 22.3593896]}, "geometry": {"type": "LineString", "coordinates": [[114.127375, 22.36244], [114.128803, 22.359523]]}}, {"type": "Feature", "properties": {"id": "ghost_VD1562_20240613131228", "plate_no": "VD1562", "gap_start_time": "2024-06-13T13:12:28", "gap_end_time": "2024-06-13T13:45:28", "gap_duration_min": 33.0, "wasted_distance_km": 2.062, "prev_trip": "DA240613009701", "next_trip": "DA240613027611", "prev_O": [114.1283752, 22.3593896], "next_O": [114.192812, 22.308068]}, "geometry": {"type": "LineString", "coordinates": [[114.182968, 22.324606], [114.192061, 22.30808]]}}, {"type": "Feature", "properties": {"id": "ghost_VE7538_20240613102035", "plate_no": "VE7538", "gap_start_time": "2024-06-13T10:20:35", "gap_end_time": "2024-06-13T13:31:28", "gap_duration_min": 190.88, "wasted_distance_km": 4.776, "prev_trip": "DA240613002101", "next_trip": "DA240613021801", "prev_O": [114.0245029, 22.4512088], "next_O": [113.9853822, 22.4133667]}, "geometry": {"type": "LineString", "coordinates": [[113.964813, 22.375238], [113.98548, 22.41371]]}}, {"type": "Feature", "properties": {"id": "ghost_VE7751_20240613135409", "plate_no": "VE7751", "gap_start_time": "2024-06-13T13:54:09", "gap_end_time": "2024-06-13T21:01:47", "gap_duration_min": 427.63, "wasted_distance_km": 4.867, "prev_trip": "DA240613036101", "next_trip": "DA240613023402", "prev_O": [114.1371202, 22.5004908], "next_O": [114.179118, 22.27986]}, "geometry": {"type": "LineString", "coordinates": [[114.189038, 22.324885], [114.178316, 22.282256]]}}, {"type": "Feature", "properties": {"id": "ghost_VG427_20240613135043", "plate_no": "VG427", "gap_start_time": "2024-06-13T13:50:43", "gap_end_time": "2024-06-13T17:17:54", "gap_duration_min": 207.18, "wasted_distance_km": 1.939, "prev_trip": "DA240613041001", "next_trip": "DA240613012811", "prev_O": [114.1300706, 22.350379], "next_O": [114.13489, 22.341561]}, "geometry": {"type": "LineString", "coordinates": [[114.128253, 22.360011], [114.131776, 22.342878]]}}, {"type": "Feature", "properties": {"id": "ghost_VW3047_20240613125617", "plate_no": "VW3047", "gap_start_time": "2024-06-13T12:56:17", "gap_end_time": "2024-06-13T13:30:17", "gap_duration_min": 34.0, "wasted_distance_km": 5.442, "prev_trip": "DA240613032101", "next_trip": "DA240613029411", "prev_O": [114.2393516, 22.2942923], "next_O": [114.2710157, 22.2961486]}, "geometry": {"type": "LineString", "coordinates": [[114.22659, 22.321058], [114.27251, 22.296768]]}}, {"type": "Feature", "properties": {"id": "ghost_VX2887_20240613112244", "plate_no": "VX2887", "gap_start_time": "2024-06-13T11:22:44", "gap_end_time": "2024-06-13T13:30:04", "gap_duration_min": 127.33, "wasted_distance_km": 7.08, "prev_trip": "DA240613033202", "next_trip": "DA240613037201", "prev_O": [114.1743747, 22.3091816], "next_O": [114.2640324, 22.3147268]}, "geometry": {"type": "LineString", "coordinates": [[114.20399, 22.34656], [114.265441, 22.317875]]}}, {"type": "Feature", "properties": {"id": "ghost_VX2887_20240613134430", "plate_no": "VX2887", "gap_start_time": "2024-06-13T13:44:30", "gap_end_time": "2024-06-13T14:35:07", "gap_duration_min": 50.62, "wasted_distance_km": 0.147, "prev_trip": "DA240613037201", "next_trip": "DA240613035202", "prev_O": [114.2640324, 22.3147268], "next_O": [114.2285538, 22.3079624]}, "geometry": {"type": "LineString", "coordinates": [[114.230636, 22.308053], [114.22921, 22.307988]]}}, {"type": "Feature", "properties": {"id": "ghost_VX2887_20240613144007", "plate_no": "VX2887", "gap_start_time": "2024-06-13T14:40:07", "gap_end_time": "2024-06-13T15:15:37", "gap_duration_min": 35.5, "wasted_distance_km": 0.55, "prev_trip": "DA240613035202", "next_trip": "DA240613043102", "prev_O": [114.2285538, 22.3079624], "next_O": [114.2287366, 22.3118568]}, "geometry": {"type": "LineString", "coordinates": [[114.228753, 22.310711], [114.229361, 22.315625]]}}, {"type": "Feature", "properties": {"id": "ghost_VY5967_20240613112357", "plate_no": "VY5967", "gap_start_time": "2024-06-13T11:23:57", "gap_end_time": "2024-06-13T13:45:23", "gap_duration_min": 141.43, "wasted_distance_km": 0.079, "prev_trip": "DA240613008001", "next_trip": "DA240613008002", "prev_O": [114.209362, 22.458109], "next_O": [114.1423238, 22.4879941]}, "geometry": {"type": "LineString", "coordinates": [[114.14333, 22.487458], [114.142936, 22.488063]]}}, {"type": "Feature", "properties": {"id": "ghost_VY5967_20240613142149", "plate_no": "VY5967", "gap_start_time": "2024-06-13T14:21:49", "gap_end_time": "2024-06-13T15:45:13", "gap_duration_min": 83.4, "wasted_distance_km": 3.646, "prev_trip": "DA240613008002", "next_trip": "DA240613012002", "prev_O": [114.1423238, 22.4879941], "next_O": [114.1754722, 22.4530181]}, "geometry": {"type": "LineString", "coordinates": [[114.210503, 22.457896], [114.175486, 22.45264]]}}, {"type": "Feature", "properties": {"id": "ghost_WN9330_20240613125957", "plate_no": "WN9330", "gap_start_time": "2024-06-13T12:59:57", "gap_end_time": "2024-06-13T14:20:10", "gap_duration_min": 80.22, "wasted_distance_km": 17.567, "prev_trip": "DA240613037902", "next_trip": "DA240613005302", "prev_O": [113.979399, 22.39098], "next_O": [114.173077, 22.4611085]}, "geometry": {"type": "LineString", "coordinates": [[114.002463, 22.450558], [114.173006, 22.461438]]}}, {"type": "Feature", "properties": {"id": "ghost_WP3895_20240613055219", "plate_no": "WP3895", "gap_start_time": "2024-06-13T05:52:19", "gap_end_time": "2024-06-13T10:00:21", "gap_duration_min": 248.03, "wasted_distance_km": 23.781, "prev_trip": "DA240613020501", "next_trip": "DA240613020301", "prev_O": [114.0979333, 22.3489429], "next_O": [113.9405304, 22.2884302]}, "geometry": {"type": "LineString", "coordinates": [[114.174741, 22.280566], [113.943788, 22.289018]]}}, {"type": "Feature", "properties": {"id": "ghost_XE612_20240613121336", "plate_no": "XE612", "gap_start_time": "2024-06-13T12:13:36", "gap_end_time": "2024-06-13T14:45:02", "gap_duration_min": 151.43, "wasted_distance_km": 10.602, "prev_trip": "DA240613013402", "next_trip": "DA240613012611", "prev_O": [114.1832816, 22.3250389], "next_O": [114.2077187, 22.3228659]}, "geometry": {"type": "LineString", "coordinates": [[114.225398, 22.417016], [114.207133, 22.323181]]}}, {"type": "Feature", "properties": {"id": "ghost_XE7053_20240613082410", "plate_no": "XE7053", "gap_start_time": "2024-06-13T08:24:10", "gap_end_time": "2024-06-13T08:34:40", "gap_duration_min": 10.5, "wasted_distance_km": 2.672, "prev_trip": "DA240613040601", "next_trip": "DA240613036001", "prev_O": [114.190706, 22.342478], "next_O": [114.2726925, 22.2937258]}, "geometry": {"type": "LineString", "coordinates": [[114.256201, 22.31428], [114.27317, 22.296083]]}}, {"type": "Feature", "properties": {"id": "ghost_XE7053_20240613084910", "plate_no": "XE7053", "gap_start_time": "2024-06-13T08:49:10", "gap_end_time": "2024-06-13T14:30:40", "gap_duration_min": 341.5, "wasted_distance_km": 10.191, "prev_trip": "DA240613036001", "next_trip": "DA240613020802", "prev_O": [114.2726925, 22.2937258], "next_O": [114.1725229, 22.3019182]}, "geometry": {"type": "LineString", "coordinates": [[114.269643, 22.316986], [114.171943, 22.301803]]}}, {"type": "Feature", "properties": {"id": "ghost_XE7053_20240613144912", "plate_no": "XE7053", "gap_start_time": "2024-06-13T14:49:12", "gap_end_time": "2024-06-13T17:50:27", "gap_duration_min": 181.25, "wasted_distance_km": 9.193, "prev_trip": "DA240613020802", "next_trip": "DA240613011411", "prev_O": [114.1725229, 22.3019182], "next_O": [114.2303424, 22.3079333]}, "geometry": {"type": "LineString", "coordinates": [[114.143606, 22.289175], [114.2306, 22.308053]]}}, {"type": "Feature", "properties": {"id": "ghost_XE7168_20240613115843", "plate_no": "XE7168", "gap_start_time": "2024-06-13T11:58:43", "gap_end_time": "2024-06-13T17:05:43", "gap_duration_min": 307.0, "wasted_distance_km": 3.556, "prev_trip": "DA240613012511", "next_trip": "DA240613012202", "prev_O": [114.2570907, 22.3071306], "next_O": [114.1743747, 22.3091816]}, "geometry": {"type": "LineString", "coordinates": [[114.209211, 22.318801], [114.177516, 22.30604]]}}, {"type": "Feature", "properties": {"id": "ghost_XM6122_20240613103744", "plate_no": "XM6122", "gap_start_time": "2024-06-13T10:37:44", "gap_end_time": "2024-06-13T13:00:16", "gap_duration_min": 142.53, "wasted_distance_km": 4.93, "prev_trip": "DA240613037611", "next_trip": "DA240613035201", "prev_O": [114.1675766, 22.3389067], "next_O": [114.2284154, 22.314391]}, "geometry": {"type": "LineString", "coordinates": [[114.189418, 22.340733], [114.22785, 22.314233]]}}, {"type": "Feature", "properties": {"id": "ghost_XM9877_20240613113553", "plate_no": "XM9877", "gap_start_time": "2024-06-13T11:35:53", "gap_end_time": "2024-06-13T13:00:04", "gap_duration_min": 84.18, "wasted_distance_km": 9.762, "prev_trip": "DA240613014701", "next_trip": "DA240613044001", "prev_O": [113.9392882, 22.2888401], "next_O": [114.253937, 22.307157]}, "geometry": {"type": "LineString", "coordinates": [[114.163185, 22.333795], [114.25356, 22.307015]]}}, {"type": "Feature", "properties": {"id": "ghost_XM9877_20240613131334", "plate_no": "XM9877", "gap_start_time": "2024-06-13T13:13:34", "gap_end_time": "2024-06-13T15:30:04", "gap_duration_min": 136.5, "wasted_distance_km": 10.609, "prev_trip": "DA240613044001", "next_trip": "DA240613026602", "prev_O": [114.253937, 22.307157], "next_O": [114.1777194, 22.2755944]}, "geometry": {"type": "LineString", "coordinates": [[114.269613, 22.318391], [114.178046, 22.274521]]}}, {"type": "Feature", "properties": {"id": "ghost_XM9877_20240613163114", "plate_no": "XM9877", "gap_start_time": "2024-06-13T16:31:14", "gap_end_time": "2024-06-13T18:00:00", "gap_duration_min": 88.77, "wasted_distance_km": 0.416, "prev_trip": "DA240613026602", "next_trip": "DA240613028901", "prev_O": [114.1777194, 22.2755944], "next_O": [114.2269991, 22.2807278]}, "geometry": {"type": "LineString", "coordinates": [[114.224618, 22.28435], [114.227003, 22.281331]]}}, {"type": "Feature", "properties": {"id": "ghost_XN7430_20240613135925", "plate_no": "XN7430", "gap_start_time": "2024-06-13T13:59:25", "gap_end_time": "2024-06-13T14:40:27", "gap_duration_min": 41.03, "wasted_distance_km": 1.4, "prev_trip": "DA240613030701", "next_trip": "DA240613000702", "prev_O": [114.2025251, 22.3443523], "next_O": [114.1831334, 22.3223645]}, "geometry": {"type": "LineString", "coordinates": [[114.172355, 22.314401], [114.182825, 22.322441]]}}, {"type": "Feature", "properties": {"id": "ghost_XN7430_20240613152157", "plate_no": "XN7430", "gap_start_time": "2024-06-13T15:21:57", "gap_end_time": "2024-06-13T16:30:57", "gap_duration_min": 69.0, "wasted_distance_km": 5.572, "prev_trip": "DA240613000702", "next_trip": "DA240613049511", "prev_O": [114.1831334, 22.3223645], "next_O": [114.183354, 22.277441]}, "geometry": {"type": "LineString", "coordinates": [[114.129301, 22.275506], [114.183403, 22.27757]]}}, {"type": "Feature", "properties": {"id": "ghost_XU8126_20240613101352", "plate_no": "XU8126", "gap_start_time": "2024-06-13T10:13:52", "gap_end_time": "2024-06-13T13:02:18", "gap_duration_min": 168.43, "wasted_distance_km": 5.095, "prev_trip": "DA240613045802", "next_trip": "DA240613035911", "prev_O": [114.18052, 22.32278], "next_O": [114.2303424, 22.3079333]}, "geometry": {"type": "LineString", "coordinates": [[114.198638, 22.343058], [114.230666, 22.308103]]}}, {"type": "Feature", "properties": {"id": "ghost_XV2836_20240613084454", "plate_no": "XV2836", "gap_start_time": "2024-06-13T08:44:54", "gap_end_time": "2024-06-13T15:15:20", "gap_duration_min": 390.43, "wasted_distance_km": 14.979, "prev_trip": "DA240613035101", "next_trip": "DA240613046502", "prev_O": [114.2541271, 22.3241653], "next_O": [114.1042874, 22.3767395]}, "geometry": {"type": "LineString", "coordinates": [[114.228278, 22.306115], [114.104433, 22.377008]]}}, {"type": "Feature", "properties": {"id": "ghost_XV3002_20240613093808", "plate_no": "XV3002", "gap_start_time": "2024-06-13T09:38:08", "gap_end_time": "2024-06-13T13:36:31", "gap_duration_min": 238.38, "wasted_distance_km": 9.341, "prev_trip": "DA240613026211", "next_trip": "DA240613019901", "prev_O": [114.2295647, 22.2779318], "next_O": [114.1476266, 22.2833771]}, "geometry": {"type": "LineString", "coordinates": [[114.234471, 22.264701], [114.146973, 22.287083]]}}, {"type": "Feature", "properties": {"id": "ghost_XV3002_20240613134431", "plate_no": "XV3002", "gap_start_time": "2024-06-13T13:44:31", "gap_end_time": "2024-06-13T17:00:07", "gap_duration_min": 195.6, "wasted_distance_km": 1.136, "prev_trip": "DA240613019901", "next_trip": "DA240613020411", "prev_O": [114.1476266, 22.2833771], "next_O": [114.1394532, 22.2865441]}, "geometry": {"type": "LineString", "coordinates": [[114.150241, 22.284883], [114.139391, 22.286758]]}}, {"type": "Feature", "properties": {"id": "ghost_XV4803_20240613210641", "plate_no": "XV4803", "gap_start_time": "2024-06-13T21:06:41", "gap_end_time": "2024-06-13T22:00:11", "gap_duration_min": 53.5, "wasted_distance_km": 4.17, "prev_trip": "DA240613015111", "next_trip": "DA240613040102", "prev_O": [114.1792109, 22.3210928], "next_O": [114.2005523, 22.3359719]}, "geometry": {"type": "LineString", "coordinates": [[114.184105, 22.302145], [114.20054, 22.336425]]}}, {"type": "Feature", "properties": {"id": "ghost_XV6358_20240613090411", "plate_no": "XV6358", "gap_start_time": "2024-06-13T09:04:11", "gap_end_time": "2024-06-13T13:45:20", "gap_duration_min": 281.15, "wasted_distance_km": 2.254, "prev_trip": "DA240613006801", "next_trip": "DA240613026411", "prev_O": [114.2270772, 22.2780082], "next_O": [114.23366, 22.26308]}, "geometry": {"type": "LineString", "coordinates": [[114.225721, 22.282205], [114.233873, 22.26339]]}}, {"type": "Feature", "properties": {"id": "ghost_XV7468_20240613100910", "plate_no": "XV7468", "gap_start_time": "2024-06-13T10:09:10", "gap_end_time": "2024-06-13T13:15:21", "gap_duration_min": 186.18, "wasted_distance_km": 3.835, "prev_trip": "DA240613008602", "next_trip": "DA240613015011", "prev_O": [114.1795503, 22.2762828], "next_O": [114.182962, 22.269562]}, "geometry": {"type": "LineString", "coordinates": [[114.157588, 22.243495], [114.18358, 22.268206]]}}, {"type": "Feature", "properties": {"id": "ghost_YK4725_20240613123207", "plate_no": "YK4725", "gap_start_time": "2024-06-13T12:32:07", "gap_end_time": "2024-06-13T13:40:07", "gap_duration_min": 68.0, "wasted_distance_km": 5.725, "prev_trip": "DA240613032201", "next_trip": "DA240613008401", "prev_O": [114.1307673, 22.3630464], "next_O": [114.2168753, 22.3806145]}, "geometry": {"type": "LineString", "coordinates": [[114.183368, 22.339936], [114.21734, 22.380726]]}}, {"type": "Feature", "properties": {"id": "ghost_YK6404_20240613112834", "plate_no": "YK6404", "gap_start_time": "2024-06-13T11:28:34", "gap_end_time": "2024-06-13T14:40:09", "gap_duration_min": 191.58, "wasted_distance_km": 5.246, "prev_trip": "DA240613034511", "next_trip": "DA240613000611", "prev_O": [114.1613761, 22.3200828], "next_O": [114.1831334, 22.3223645]}, "geometry": {"type": "LineString", "coordinates": [[114.160541, 22.279946], [114.182878, 22.322355]]}}, {"type": "Feature", "properties": {"id": "ghost_YK7398_20240613124800", "plate_no": "YK7398", "gap_start_time": "2024-06-13T12:48:00", "gap_end_time": "2024-06-13T14:25:21", "gap_duration_min": 97.35, "wasted_distance_km": 4.745, "prev_trip": "DA240613032302", "next_trip": "DA240613020702", "prev_O": [114.230334, 22.307947], "next_O": [114.2362653, 22.2695993]}, "geometry": {"type": "LineString", "coordinates": [[114.193791, 22.285608], [114.237355, 22.271613]]}}, {"type": "Feature", "properties": {"id": "ghost_YK7541_20240613092958", "plate_no": "YK7541", "gap_start_time": "2024-06-13T09:29:58", "gap_end_time": "2024-06-13T12:45:28", "gap_duration_min": 195.5, "wasted_distance_km": 2.289, "prev_trip": "DA240613001911", "next_trip": "DA240613037002", "prev_O": [114.1236864, 22.362922], "next_O": [114.127946, 22.352165]}, "geometry": {"type": "LineString", "coordinates": [[114.12094, 22.374775], [114.127415, 22.355076]]}}, {"type": "Feature", "properties": {"id": "ghost_YK9007_20240613133151", "plate_no": "YK9007", "gap_start_time": "2024-06-13T13:31:51", "gap_end_time": "2024-06-13T15:00:03", "gap_duration_min": 88.2, "wasted_distance_km": 1.81, "prev_trip": "DA240613034901", "next_trip": "DA240613003301", "prev_O": [114.1759245, 22.2508551], "next_O": [114.1734921, 22.2726294]}, "geometry": {"type": "LineString", "coordinates": [[114.189936, 22.274815], [114.172501, 22.272691]]}}, {"type": "Feature", "properties": {"id": "ghost_YK9007_20240613150903", "plate_no": "YK9007", "gap_start_time": "2024-06-13T15:09:03", "gap_end_time": "2024-06-13T16:30:03", "gap_duration_min": 81.0, "wasted_distance_km": 0.202, "prev_trip": "DA240613003301", "next_trip": "DA240613003302", "prev_O": [114.1734921, 22.2726294], "next_O": [114.1734921, 22.2726294]}, "geometry": {"type": "LineString", "coordinates": [[114.175225, 22.274186], [114.173655, 22.273098]]}}, {"type": "Feature", "properties": {"id": "ghost_YL1792_20240613124909", "plate_no": "YL1792", "gap_start_time": "2024-06-13T12:49:09", "gap_end_time": "2024-06-13T17:01:33", "gap_duration_min": 252.4, "wasted_distance_km": 2.348, "prev_trip": "DA240613017611", "next_trip": "DA240613021302", "prev_O": [114.177838, 22.275293], "next_O": [114.2362653, 22.2695993]}, "geometry": {"type": "LineString", "coordinates": [[114.218426, 22.28628], [114.233546, 22.27047]]}}, {"type": "Feature", "properties": {"id": "ghost_YL7929_20240613064226", "plate_no": "YL7929", "gap_start_time": "2024-06-13T06:42:26", "gap_end_time": "2024-06-13T12:15:03", "gap_duration_min": 332.62, "wasted_distance_km": 8.77, "prev_trip": "DA240613022511", "next_trip": "DA240613018811", "prev_O": [114.2018517, 22.3360239], "next_O": [114.1112, 22.375143]}, "geometry": {"type": "LineString", "coordinates": [[114.169458, 22.318161], [114.111188, 22.375748]]}}, {"type": "Feature", "properties": {"id": "ghost_YY8058_20240613103341", "plate_no": "YY8058", "gap_start_time": "2024-06-13T10:33:41", "gap_end_time": "2024-06-13T12:45:15", "gap_duration_min": 131.57, "wasted_distance_km": 6.35, "prev_trip": "DA240613019202", "next_trip": "DA240613012302", "prev_O": [114.119485, 22.369918], "next_O": [114.1677748, 22.3170666]}, "geometry": {"type": "LineString", "coordinates": [[114.142153, 22.3683], [114.167813, 22.316355]]}}, {"type": "Feature", "properties": {"id": "ghost_YZ9431_20240613094945", "plate_no": "YZ9431", "gap_start_time": "2024-06-13T09:49:45", "gap_end_time": "2024-06-13T13:33:45", "gap_duration_min": 224.0, "wasted_distance_km": 10.837, "prev_trip": "DA240613024401", "next_trip": "DA240613025101", "prev_O": [114.139128, 22.2504021], "next_O": [114.1542931, 22.3294035]}, "geometry": {"type": "LineString", "coordinates": [[114.258175, 22.31139], [114.154726, 22.329838]]}}, {"type": "Feature", "properties": {"id": "ghost_ZA394_20240613145503", "plate_no": "ZA394", "gap_start_time": "2024-06-13T14:55:03", "gap_end_time": "2024-06-13T16:19:34", "gap_duration_min": 84.52, "wasted_distance_km": 0.641, "prev_trip": "DA240613003611", "next_trip": "DA240613003711", "prev_O": [114.2336165, 22.2637098], "next_O": [114.2336165, 22.2637098]}, "geometry": {"type": "LineString", "coordinates": [[114.239458, 22.263483], [114.234581, 22.267066]]}}, {"type": "Feature", "properties": {"id": "ghost_ZA6941_20240613082740", "plate_no": "ZA6941", "gap_start_time": "2024-06-13T08:27:40", "gap_end_time": "2024-06-13T12:52:37", "gap_duration_min": 264.95, "wasted_distance_km": 4.395, "prev_trip": "DA240613003201", "next_trip": "DA240613033111", "prev_O": [114.17302, 22.2774003], "next_O": [114.1323065, 22.2661136]}, "geometry": {"type": "LineString", "coordinates": [[114.173368, 22.276583], [114.132001, 22.266743]]}}, {"type": "Feature", "properties": {"id": "ghost_ZA7388_20240613082227", "plate_no": "ZA7388", "gap_start_time": "2024-06-13T08:22:27", "gap_end_time": "2024-06-13T13:30:38", "gap_duration_min": 308.18, "wasted_distance_km": 8.065, "prev_trip": "DA240613004511", "next_trip": "DA240613032901", "prev_O": [114.192092, 22.281794], "next_O": [114.167205, 22.3332974]}, "geometry": {"type": "LineString", "coordinates": [[114.123926, 22.272433], [114.167175, 22.332925]]}}, {"type": "Feature", "properties": {"id": "ghost_ZA7388_20240613134336", "plate_no": "ZA7388", "gap_start_time": "2024-06-13T13:43:36", "gap_end_time": "2024-06-13T15:50:01", "gap_duration_min": 126.42, "wasted_distance_km": 7.392, "prev_trip": "DA240613032901", "next_trip": "DA240613004611", "prev_O": [114.167205, 22.3332974], "next_O": [114.1245247, 22.2709886]}, "geometry": {"type": "LineString", "coordinates": [[114.177881, 22.315153], [114.124425, 22.270735]]}}]}