{"type": "FeatureCollection", "features": [{"type": "Feature", "properties": {"id": "ghost_RV7493_20240617094357", "plate_no": "RV7493", "gap_start_time": "2024-06-17T09:43:57", "gap_end_time": "2024-06-17T13:00:28", "gap_duration_min": 196.52, "wasted_distance_km": 4.477, "prev_trip": "DA240617035701", "next_trip": "DA240617048501", "prev_O": [114.15078, 22.329662], "next_O": [114.1872329, 22.3383244]}, "geometry": {"type": "LineString", "coordinates": [[114.176578, 22.303185], [114.187763, 22.3421]]}}, {"type": "Feature", "properties": {"id": "ghost_RV8266_20240617080305", "plate_no": "RV8266", "gap_start_time": "2024-06-17T08:03:05", "gap_end_time": "2024-06-17T10:00:09", "gap_duration_min": 117.07, "wasted_distance_km": 25.717, "prev_trip": "DA240617039101", "next_trip": "DA240617029601", "prev_O": [114.2575215, 22.3214718], "next_O": [113.9401169, 22.2889261]}, "geometry": {"type": "LineString", "coordinates": [[114.186396, 22.325401], [113.939531, 22.288966]]}}, {"type": "Feature", "properties": {"id": "ghost_RV8266_20240617103710", "plate_no": "RV8266", "gap_start_time": "2024-06-17T10:37:10", "gap_end_time": "2024-06-17T12:15:49", "gap_duration_min": 98.65, "wasted_distance_km": 6.971, "prev_trip": "DA240617029601", "next_trip": "DA240617014501", "prev_O": [113.9401169, 22.2889261], "next_O": [114.2163021, 22.3244614]}, "geometry": {"type": "LineString", "coordinates": [[114.149668, 22.337158], [114.21595, 22.32406]]}}, {"type": "Feature", "properties": {"id": "ghost_RX5674_20240617082015", "plate_no": "RX5674", "gap_start_time": "2024-06-17T08:20:15", "gap_end_time": "2024-06-17T12:30:00", "gap_duration_min": 249.75, "wasted_distance_km": 6.428, "prev_trip": "DA240617031001", "next_trip": "DA240617013301", "prev_O": [114.1917274, 22.3748517], "next_O": [114.2384343, 22.2980792]}, "geometry": {"type": "LineString", "coordinates": [[114.18502, 22.327173], [114.238791, 22.29773]]}}, {"type": "Feature", "properties": {"id": "ghost_RX5674_20240617123930", "plate_no": "RX5674", "gap_start_time": "2024-06-17T12:39:30", "gap_end_time": "2024-06-17T15:50:22", "gap_duration_min": 190.87, "wasted_distance_km": 11.651, "prev_trip": "DA240617013301", "next_trip": "DA240617004911", "prev_O": [114.2384343, 22.2980792], "next_O": [114.1245247, 22.2709886]}, "geometry": {"type": "LineString", "coordinates": [[114.228891, 22.310735], [114.124156, 22.270888]]}}, {"type": "Feature", "properties": {"id": "ghost_TC1655_20240617103616", "plate_no": "TC1655", "gap_start_time": "2024-06-17T10:36:16", "gap_end_time": "2024-06-17T12:05:24", "gap_duration_min": 89.13, "wasted_distance_km": 4.041, "prev_trip": "DA240617038001", "next_trip": "DA240617043902", "prev_O": [114.2518599, 22.2626752], "next_O": [114.1440672, 22.286157]}, "geometry": {"type": "LineString", "coordinates": [[114.179948, 22.274955], [114.14377, 22.289108]]}}, {"type": "Feature", "properties": {"id": "ghost_TD7860_20240617081733", "plate_no": "TD7860", "gap_start_time": "2024-06-17T08:17:33", "gap_end_time": "2024-06-17T11:15:06", "gap_duration_min": 177.55, "wasted_distance_km": 13.759, "prev_trip": "DA240617011701", "next_trip": "DA240617041801", "prev_O": [114.1819743, 22.3714238], "next_O": [114.2726925, 22.2937258]}, "geometry": {"type": "LineString", "coordinates": [[114.195636, 22.39612], [114.273283, 22.295356]]}}, {"type": "Feature", "properties": {"id": "ghost_TD7860_20240617114406", "plate_no": "TD7860", "gap_start_time": "2024-06-17T11:44:06", "gap_end_time": "2024-06-17T14:25:22", "gap_duration_min": 161.27, "wasted_distance_km": 2.843, "prev_trip": "DA240617041801", "next_trip": "DA240617021002", "prev_O": [114.2726925, 22.2937258], "next_O": [114.1725229, 22.3019182]}, "geometry": {"type": "LineString", "coordinates": [[114.191845, 22.319608], [114.172036, 22.301785]]}}, {"type": "Feature", "properties": {"id": "ghost_TE7832_20240617140746", "plate_no": "TE7832", "gap_start_time": "2024-06-17T14:07:46", "gap_end_time": "2024-06-17T17:55:14", "gap_duration_min": 227.47, "wasted_distance_km": 6.499, "prev_trip": "DA240617034801", "next_trip": "DA240617012402", "prev_O": [114.2204772, 22.287643], "next_O": [114.2435956, 22.2730305]}, "geometry": {"type": "LineString", "coordinates": [[114.180438, 22.275448], [114.243518, 22.272573]]}}, {"type": "Feature", "properties": {"id": "ghost_TW274_20240617095538", "plate_no": "TW274", "gap_start_time": "2024-06-17T09:55:38", "gap_end_time": "2024-06-17T11:20:21", "gap_duration_min": 84.72, "wasted_distance_km": 0.533, "prev_trip": "DA240617020901", "next_trip": "DA240617046311", "prev_O": [114.1430877, 22.2850022], "next_O": [114.1676248, 22.3069524]}, "geometry": {"type": "LineString", "coordinates": [[114.171046, 22.303148], [114.167903, 22.30696]]}}, {"type": "Feature", "properties": {"id": "ghost_TW274_20240617113821", "plate_no": "TW274", "gap_start_time": "2024-06-17T11:38:21", "gap_end_time": "2024-06-17T13:50:22", "gap_duration_min": 132.02, "wasted_distance_km": 10.321, "prev_trip": "DA240617046311", "next_trip": "DA240617008902", "prev_O": [114.1676248, 22.3069524], "next_O": [114.2697606, 22.3182761]}, "geometry": {"type": "LineString", "coordinates": [[114.172203, 22.33965], [114.268988, 22.315163]]}}, {"type": "Feature", "properties": {"id": "ghost_TW7410_20240617103719", "plate_no": "TW7410", "gap_start_time": "2024-06-17T10:37:19", "gap_end_time": "2024-06-17T13:00:18", "gap_duration_min": 142.98, "wasted_distance_km": 3.805, "prev_trip": "DA240617039601", "next_trip": "DA240617007511", "prev_O": [114.260083, 22.3209665], "next_O": [114.2289959, 22.3067374]}, "geometry": {"type": "LineString", "coordinates": [[114.266235, 22.311016], [114.229558, 22.306586]]}}, {"type": "Feature", "properties": {"id": "ghost_TW7410_20240617133155", "plate_no": "TW7410", "gap_start_time": "2024-06-17T13:31:55", "gap_end_time": "2024-06-17T16:45:08", "gap_duration_min": 193.22, "wasted_distance_km": 0.094, "prev_trip": "DA240617007511", "next_trip": "DA240617007611", "prev_O": [114.2289959, 22.3067374], "next_O": [114.2182917, 22.3260159]}, "geometry": {"type": "LineString", "coordinates": [[114.216535, 22.322618], [114.216798, 22.323423]]}}, {"type": "Feature", "properties": {"id": "ghost_TX9893_20240617085004", "plate_no": "TX9893", "gap_start_time": "2024-06-17T08:50:04", "gap_end_time": "2024-06-17T12:15:01", "gap_duration_min": 204.95, "wasted_distance_km": 3.694, "prev_trip": "DA240617007801", "next_trip": "DA240617029901", "prev_O": [114.23134, 22.42554], "next_O": [114.2025251, 22.3443523]}, "geometry": {"type": "LineString", "coordinates": [[114.201761, 22.377533], [114.202745, 22.344323]]}}, {"type": "Feature", "properties": {"id": "ghost_TX9893_20240617123101", "plate_no": "TX9893", "gap_start_time": "2024-06-17T12:31:01", "gap_end_time": "2024-06-17T13:30:01", "gap_duration_min": 59.0, "wasted_distance_km": 2.255, "prev_trip": "DA240617029901", "next_trip": "DA240617047911", "prev_O": [114.2025251, 22.3443523], "next_O": [114.229125, 22.315551]}, "geometry": {"type": "LineString", "coordinates": [[114.208825, 22.324111], [114.22891, 22.315983]]}}, {"type": "Feature", "properties": {"id": "ghost_TX9893_20240617134201", "plate_no": "TX9893", "gap_start_time": "2024-06-17T13:42:01", "gap_end_time": "2024-06-17T15:00:24", "gap_duration_min": 78.38, "wasted_distance_km": 3.314, "prev_trip": "DA240617047911", "next_trip": "DA240617045611", "prev_O": [114.229125, 22.315551], "next_O": [114.2097714, 22.3329283]}, "geometry": {"type": "LineString", "coordinates": [[114.230371, 22.309566], [114.210103, 22.332728]]}}, {"type": "Feature", "properties": {"id": "ghost_TX9893_20240617152123", "plate_no": "TX9893", "gap_start_time": "2024-06-17T15:21:23", "gap_end_time": "2024-06-17T18:05:35", "gap_duration_min": 164.2, "wasted_distance_km": 9.257, "prev_trip": "DA240617045611", "next_trip": "DA240617014202", "prev_O": [114.2097714, 22.3329283], "next_O": [114.1947109, 22.3873746]}, "geometry": {"type": "LineString", "coordinates": [[114.169773, 22.307538], [114.19484, 22.387496]]}}, {"type": "Feature", "properties": {"id": "ghost_UL3556_20240617062400", "plate_no": "UL3556", "gap_start_time": "2024-06-17T06:24:00", "gap_end_time": "2024-06-17T06:38:49", "gap_duration_min": 14.82, "wasted_distance_km": 3.97, "prev_trip": "DA240617017101", "next_trip": "DA240617019711", "prev_O": [114.227417, 22.3259462], "next_O": [114.1917521, 22.3405523]}, "geometry": {"type": "LineString", "coordinates": [[114.17435, 22.306918], [114.193376, 22.337981]]}}, {"type": "Feature", "properties": {"id": "ghost_UL4469_20240617095650", "plate_no": "UL4469", "gap_start_time": "2024-06-17T09:56:50", "gap_end_time": "2024-06-17T13:30:24", "gap_duration_min": 213.57, "wasted_distance_km": 9.504, "prev_trip": "DA240617030501", "next_trip": "DA240617046711", "prev_O": [113.9815364, 22.4243768], "next_O": [114.2009292, 22.3511279]}, "geometry": {"type": "LineString", "coordinates": [[114.111183, 22.375376], [114.199656, 22.350665]]}}, {"type": "Feature", "properties": {"id": "ghost_UL6685_20240617124803", "plate_no": "UL6685", "gap_start_time": "2024-06-17T12:48:03", "gap_end_time": "2024-06-17T16:00:27", "gap_duration_min": 192.4, "wasted_distance_km": 7.948, "prev_trip": "DA240617012201", "next_trip": "DA240617026202", "prev_O": [114.2287366, 22.3118568], "next_O": [114.2372851, 22.2701475]}, "geometry": {"type": "LineString", "coordinates": [[114.175691, 22.313065], [114.236816, 22.269356]]}}, {"type": "Feature", "properties": {"id": "ghost_UL6685_20240617161927", "plate_no": "UL6685", "gap_start_time": "2024-06-17T16:19:27", "gap_end_time": "2024-06-17T17:47:07", "gap_duration_min": 87.67, "wasted_distance_km": 4.084, "prev_trip": "DA240617026202", "next_trip": "DA240617026101", "prev_O": [114.2372851, 22.2701475], "next_O": [114.2364055, 22.310251]}, "geometry": {"type": "LineString", "coordinates": [[114.213903, 22.284485], [114.239293, 22.312723]]}}, {"type": "Feature", "properties": {"id": "ghost_UL7617_20240617105644", "plate_no": "UL7617", "gap_start_time": "2024-06-17T10:56:44", "gap_end_time": "2024-06-17T12:15:01", "gap_duration_min": 78.28, "wasted_distance_km": 8.285, "prev_trip": "DA240617023801", "next_trip": "DA240617013501", "prev_O": [114.049219, 22.473131], "next_O": [113.9781339, 22.3820316]}, "geometry": {"type": "LineString", "coordinates": [[114.007365, 22.451185], [113.976908, 22.382198]]}}, {"type": "Feature", "properties": {"id": "ghost_UL7804_20240617143006", "plate_no": "UL7804", "gap_start_time": "2024-06-17T14:30:06", "gap_end_time": "2024-06-17T16:00:06", "gap_duration_min": 90.0, "wasted_distance_km": 0.054, "prev_trip": "DA240617026801", "next_trip": "DA240617026802", "prev_O": [114.209362, 22.458109], "next_O": [114.1701204, 22.4563832]}, "geometry": {"type": "LineString", "coordinates": [[114.167565, 22.455178], [114.168058, 22.455]]}}, {"type": "Feature", "properties": {"id": "ghost_UL7804_20240617162806", "plate_no": "UL7804", "gap_start_time": "2024-06-17T16:28:06", "gap_end_time": "2024-06-17T17:30:02", "gap_duration_min": 61.93, "wasted_distance_km": 14.467, "prev_trip": "DA240617026802", "next_trip": "DA240617013502", "prev_O": [114.1701204, 22.4563832], "next_O": [114.1527997, 22.3407325]}, "geometry": {"type": "LineString", "coordinates": [[114.209606, 22.457948], [114.150395, 22.339923]]}}, {"type": "Feature", "properties": {"id": "ghost_UM4207_20240617120634", "plate_no": "UM4207", "gap_start_time": "2024-06-17T12:06:34", "gap_end_time": "2024-06-17T12:50:02", "gap_duration_min": 43.47, "wasted_distance_km": 2.729, "prev_trip": "DA240617016902", "next_trip": "DA240617011611", "prev_O": [114.1832816, 22.3250389], "next_O": [114.1687962, 22.3240273]}, "geometry": {"type": "LineString", "coordinates": [[114.193991, 22.332916], [114.169233, 22.324096]]}}, {"type": "Feature", "properties": {"id": "ghost_UM5134_20240617110747", "plate_no": "UM5134", "gap_start_time": "2024-06-17T11:07:47", "gap_end_time": "2024-06-17T13:00:12", "gap_duration_min": 112.42, "wasted_distance_km": 0.442, "prev_trip": "DA240617046501", "next_trip": "DA240617046502", "prev_O": [114.2561858, 22.3144592], "next_O": [114.1845751, 22.279725]}, "geometry": {"type": "LineString", "coordinates": [[114.188321, 22.279751], [114.18403, 22.279775]]}}, {"type": "Feature", "properties": {"id": "ghost_UM7167_20240617090757", "plate_no": "UM7167", "gap_start_time": "2024-06-17T09:07:57", "gap_end_time": "2024-06-17T13:30:04", "gap_duration_min": 262.12, "wasted_distance_km": 6.79, "prev_trip": "DA240617007701", "next_trip": "DA240617045301", "prev_O": [114.1786768, 22.3729477], "next_O": [114.1579159, 22.3295301]}, "geometry": {"type": "LineString", "coordinates": [[114.193998, 22.380605], [114.157985, 22.329428]]}}, {"type": "Feature", "properties": {"id": "ghost_UP3870_20240617140157", "plate_no": "UP3870", "gap_start_time": "2024-06-17T14:01:57", "gap_end_time": "2024-06-17T17:16:56", "gap_duration_min": 194.98, "wasted_distance_km": 0.607, "prev_trip": "DA240617010401", "next_trip": "DA240617027702", "prev_O": [114.2347311, 22.3181867], "next_O": [114.1762153, 22.3188841]}, "geometry": {"type": "LineString", "coordinates": [[114.175903, 22.312931], [114.176861, 22.318313]]}}, {"type": "Feature", "properties": {"id": "ghost_UP4016_20240617084654", "plate_no": "UP4016", "gap_start_time": "2024-06-17T08:46:54", "gap_end_time": "2024-06-17T14:00:21", "gap_duration_min": 313.45, "wasted_distance_km": 6.02, "prev_trip": "DA240617000911", "next_trip": "DA240617037401", "prev_O": [114.217242, 22.322492], "next_O": [114.2382603, 22.3032465]}, "geometry": {"type": "LineString", "coordinates": [[114.184121, 22.324113], [114.238326, 22.303696]]}}, {"type": "Feature", "properties": {"id": "ghost_UP6525_20240617130557", "plate_no": "UP6525", "gap_start_time": "2024-06-17T13:05:57", "gap_end_time": "2024-06-17T17:00:26", "gap_duration_min": 234.48, "wasted_distance_km": 10.123, "prev_trip": "DA240617036011", "next_trip": "DA240617022302", "prev_O": [114.1744025, 22.3092602], "next_O": [114.1753051, 22.2758454]}, "geometry": {"type": "LineString", "coordinates": [[114.265438, 22.312213], [114.175215, 22.275885]]}}, {"type": "Feature", "properties": {"id": "ghost_VD6128_20240617125452", "plate_no": "VD6128", "gap_start_time": "2024-06-17T12:54:52", "gap_end_time": "2024-06-17T14:30:10", "gap_duration_min": 95.3, "wasted_distance_km": 6.809, "prev_trip": "DA240617045811", "next_trip": "DA240617045401", "prev_O": [114.24422, 22.321446], "next_O": [114.1899693, 22.3235682]}, "geometry": {"type": "LineString", "coordinates": [[114.192625, 22.386438], [114.187128, 22.325413]]}}, {"type": "Feature", "properties": {"id": "ghost_VE7344_20240617123722", "plate_no": "VE7344", "gap_start_time": "2024-06-17T12:37:22", "gap_end_time": "2024-06-17T14:45:22", "gap_duration_min": 128.0, "wasted_distance_km": 7.273, "prev_trip": "DA240617031201", "next_trip": "DA240617004511", "prev_O": [114.1307673, 22.3630464], "next_O": [114.1200839, 22.3703121]}, "geometry": {"type": "LineString", "coordinates": [[114.18273, 22.339305], [114.120603, 22.37056]]}}, {"type": "Feature", "properties": {"id": "ghost_VE7751_20240617135050", "plate_no": "VE7751", "gap_start_time": "2024-06-17T13:50:50", "gap_end_time": "2024-06-17T20:00:20", "gap_duration_min": 369.5, "wasted_distance_km": 1.636, "prev_trip": "DA240617008601", "next_trip": "DA240617040811", "prev_O": [114.2168753, 22.3806145], "next_O": [114.2020238, 22.3946617]}, "geometry": {"type": "LineString", "coordinates": [[114.200488, 22.377938], [114.200366, 22.39265]]}}, {"type": "Feature", "properties": {"id": "ghost_VE8500_20240617103637", "plate_no": "VE8500", "gap_start_time": "2024-06-17T10:36:37", "gap_end_time": "2024-06-17T12:30:19", "gap_duration_min": 113.7, "wasted_distance_km": 9.742, "prev_trip": "DA240617020101", "next_trip": "DA240617039602", "prev_O": [114.2183988, 22.3955359], "next_O": [114.2667855, 22.3075063]}, "geometry": {"type": "LineString", "coordinates": [[114.172336, 22.326601], [114.265603, 22.311366]]}}, {"type": "Feature", "properties": {"id": "ghost_VE8500_20240617124219", "plate_no": "VE8500", "gap_start_time": "2024-06-17T12:42:19", "gap_end_time": "2024-06-17T17:00:10", "gap_duration_min": 257.85, "wasted_distance_km": 3.398, "prev_trip": "DA240617039602", "next_trip": "DA240617006411", "prev_O": [114.2667855, 22.3075063], "next_O": [114.230334, 22.307947]}, "geometry": {"type": "LineString", "coordinates": [[114.26062, 22.320905], [114.230598, 22.308153]]}}, {"type": "Feature", "properties": {"id": "ghost_VW3047_20240617115335", "plate_no": "VW3047", "gap_start_time": "2024-06-17T11:53:35", "gap_end_time": "2024-06-17T14:00:28", "gap_duration_min": 126.88, "wasted_distance_km": 7.649, "prev_trip": "DA240617026011", "next_trip": "DA240617032201", "prev_O": [114.231082, 22.325573], "next_O": [114.2286709, 22.3119317]}, "geometry": {"type": "LineString", "coordinates": [[114.16301, 22.334266], [114.233256, 22.311686]]}}, {"type": "Feature", "properties": {"id": "ghost_VW3047_20240617142054", "plate_no": "VW3047", "gap_start_time": "2024-06-17T14:20:54", "gap_end_time": "2024-06-17T17:15:24", "gap_duration_min": 174.5, "wasted_distance_km": 7.924, "prev_trip": "DA240617032201", "next_trip": "DA240617002111", "prev_O": [114.2286709, 22.3119317], "next_O": [114.1228036, 22.3745621]}, "geometry": {"type": "LineString", "coordinates": [[114.171805, 22.31973], [114.123676, 22.37538]]}}, {"type": "Feature", "properties": {"id": "ghost_VW3473_20240617105524", "plate_no": "VW3473", "gap_start_time": "2024-06-17T10:55:24", "gap_end_time": "2024-06-17T14:30:23", "gap_duration_min": 214.98, "wasted_distance_km": 11.072, "prev_trip": "DA240617030401", "next_trip": "DA240617037701", "prev_O": [114.1203858, 22.3670155], "next_O": [114.1215006, 22.3607344]}, "geometry": {"type": "LineString", "coordinates": [[114.167535, 22.451006], [114.121933, 22.360796]]}}, {"type": "Feature", "properties": {"id": "ghost_VX2887_20240617143739", "plate_no": "VX2887", "gap_start_time": "2024-06-17T14:37:39", "gap_end_time": "2024-06-17T17:00:07", "gap_duration_min": 142.47, "wasted_distance_km": 8.929, "prev_trip": "DA240617045101", "next_trip": "DA240617006511", "prev_O": [114.1827676, 22.3819893], "next_O": [114.230334, 22.307947]}, "geometry": {"type": "LineString", "coordinates": [[114.196593, 22.379286], [114.230293, 22.305278]]}}, {"type": "Feature", "properties": {"id": "ghost_WN9330_20240617134601", "plate_no": "WN9330", "gap_start_time": "2024-06-17T13:46:01", "gap_end_time": "2024-06-17T15:45:06", "gap_duration_min": 119.08, "wasted_distance_km": 8.685, "prev_trip": "DA240617031701", "next_trip": "DA240617010002", "prev_O": [114.1409181, 22.4910234], "next_O": [114.1754722, 22.4530181]}, "geometry": {"type": "LineString", "coordinates": [[114.204885, 22.37903], [114.175355, 22.452211]]}}, {"type": "Feature", "properties": {"id": "ghost_WN9331_20240617161623", "plate_no": "WN9331", "gap_start_time": "2024-06-17T16:16:23", "gap_end_time": "2024-06-17T17:00:29", "gap_duration_min": 44.1, "wasted_distance_km": 3.547, "prev_trip": "DA240617030802", "next_trip": "DA240617006311", "prev_O": [114.2303424, 22.3079333], "next_O": [114.230334, 22.307947]}, "geometry": {"type": "LineString", "coordinates": [[114.263998, 22.316176], [114.230653, 22.308046]]}}, {"type": "Feature", "properties": {"id": "ghost_WP1681_20240617103741", "plate_no": "WP1681", "gap_start_time": "2024-06-17T10:37:41", "gap_end_time": "2024-06-17T13:45:01", "gap_duration_min": 187.33, "wasted_distance_km": 4.616, "prev_trip": "DA240617034411", "next_trip": "DA240617027111", "prev_O": [114.2667488, 22.3080872], "next_O": [114.192812, 22.308068]}, "geometry": {"type": "LineString", "coordinates": [[114.156153, 22.28194], [114.190711, 22.308416]]}}, {"type": "Feature", "properties": {"id": "ghost_WP2513_20240617084006", "plate_no": "WP2513", "gap_start_time": "2024-06-17T08:40:06", "gap_end_time": "2024-06-17T12:02:44", "gap_duration_min": 202.63, "wasted_distance_km": 1.012, "prev_trip": "DA240617011201", "next_trip": "DA240617039411", "prev_O": [114.113489, 22.361165], "next_O": [114.1014571, 22.3485601]}, "geometry": {"type": "LineString", "coordinates": [[114.101753, 22.357923], [114.097323, 22.349796]]}}, {"type": "Feature", "properties": {"id": "ghost_WP2513_20240617122813", "plate_no": "WP2513", "gap_start_time": "2024-06-17T12:28:13", "gap_end_time": "2024-06-17T14:00:06", "gap_duration_min": 91.88, "wasted_distance_km": 4.202, "prev_trip": "DA240617039411", "next_trip": "DA240617013211", "prev_O": [114.1014571, 22.3485601], "next_O": [114.1344783, 22.3791587]}, "geometry": {"type": "LineString", "coordinates": [[114.13429, 22.34145], [114.134938, 22.379235]]}}, {"type": "Feature", "properties": {"id": "ghost_WP2513_20240617140906", "plate_no": "WP2513", "gap_start_time": "2024-06-17T14:09:06", "gap_end_time": "2024-06-17T15:40:00", "gap_duration_min": 90.9, "wasted_distance_km": 7.538, "prev_trip": "DA240617013211", "next_trip": "DA240617021511", "prev_O": [114.1344783, 22.3791587], "next_O": [114.2000621, 22.3394461]}, "geometry": {"type": "LineString", "coordinates": [[114.130316, 22.357395], [114.200845, 22.338928]]}}, {"type": "Feature", "properties": {"id": "ghost_WP2513_20240617160458", "plate_no": "WP2513", "gap_start_time": "2024-06-17T16:04:58", "gap_end_time": "2024-06-17T16:32:31", "gap_duration_min": 27.55, "wasted_distance_km": 2.659, "prev_trip": "DA240617021511", "next_trip": "DA240617045102", "prev_O": [114.2000621, 22.3394461], "next_O": [114.201222, 22.378404]}, "geometry": {"type": "LineString", "coordinates": [[114.2048, 22.403435], [114.202025, 22.379663]]}}, {"type": "Feature", "properties": {"id": "ghost_WP3825_20240617095425", "plate_no": "WP3825", "gap_start_time": "2024-06-17T09:54:25", "gap_end_time": "2024-06-17T12:02:46", "gap_duration_min": 128.35, "wasted_distance_km": 6.937, "prev_trip": "DA240617034911", "next_trip": "DA240617036202", "prev_O": [114.19728, 22.340631], "next_O": [114.191793, 22.383667]}, "geometry": {"type": "LineString", "coordinates": [[114.179091, 22.321851], [114.192136, 22.383061]]}}, {"type": "Feature", "properties": {"id": "ghost_WP3895_20240617060120", "plate_no": "WP3895", "gap_start_time": "2024-06-17T06:01:20", "gap_end_time": "2024-06-17T06:25:20", "gap_duration_min": 24.0, "wasted_distance_km": 2.23, "prev_trip": "DA240617039901", "next_trip": "DA240617015601", "prev_O": [114.2021245, 22.343312], "next_O": [114.167627, 22.316376]}, "geometry": {"type": "LineString", "coordinates": [[114.163193, 22.3337], [114.170025, 22.31467]]}}, {"type": "Feature", "properties": {"id": "ghost_WP3895_20240617063217", "plate_no": "WP3895", "gap_start_time": "2024-06-17T06:32:17", "gap_end_time": "2024-06-17T07:15:21", "gap_duration_min": 43.07, "wasted_distance_km": 0.884, "prev_trip": "DA240617015601", "next_trip": "DA240617042101", "prev_O": [114.167627, 22.316376], "next_O": [114.1710186, 22.312812]}, "geometry": {"type": "LineString", "coordinates": [[114.178456, 22.316971], [114.170938, 22.313128]]}}, {"type": "Feature", "properties": {"id": "ghost_WP3895_20240617073919", "plate_no": "WP3895", "gap_start_time": "2024-06-17T07:39:19", "gap_end_time": "2024-06-17T11:00:14", "gap_duration_min": 200.92, "wasted_distance_km": 5.802, "prev_trip": "DA240617042101", "next_trip": "DA240617048701", "prev_O": [114.1710186, 22.312812], "next_O": [114.1938405, 22.3788114]}, "geometry": {"type": "LineString", "coordinates": [[114.15378, 22.341085], [114.193108, 22.378498]]}}, {"type": "Feature", "properties": {"id": "ghost_WP3895_20240617110543", "plate_no": "WP3895", "gap_start_time": "2024-06-17T11:05:43", "gap_end_time": "2024-06-17T14:15:01", "gap_duration_min": 189.3, "wasted_distance_km": 6.64, "prev_trip": "DA240617048701", "next_trip": "DA240617040201", "prev_O": [114.1938405, 22.3788114], "next_O": [114.2204976, 22.323161]}, "geometry": {"type": "LineString", "coordinates": [[114.19889, 22.37851], [114.220703, 22.322306]]}}, {"type": "Feature", "properties": {"id": "ghost_WP4172_20240617160955", "plate_no": "WP4172", "gap_start_time": "2024-06-17T16:09:55", "gap_end_time": "2024-06-17T18:30:22", "gap_duration_min": 140.45, "wasted_distance_km": 13.991, "prev_trip": "DA240617043202", "next_trip": "DA240617020701", "prev_O": [114.1246908, 22.4968697], "next_O": [114.1942585, 22.3864175]}, "geometry": {"type": "LineString", "coordinates": [[114.134215, 22.500323], [114.192336, 22.386546]]}}, {"type": "Feature", "properties": {"id": "ghost_WP5387_20240617130027", "plate_no": "WP5387", "gap_start_time": "2024-06-17T13:00:27", "gap_end_time": "2024-06-17T16:45:19", "gap_duration_min": 224.87, "wasted_distance_km": 3.317, "prev_trip": "DA240617018411", "next_trip": "DA240617012802", "prev_O": [114.1868509, 22.3046948], "next_O": [114.1611131, 22.3341651]}, "geometry": {"type": "LineString", "coordinates": [[114.174461, 22.306975], [114.161048, 22.3341]]}}, {"type": "Feature", "properties": {"id": "ghost_XE1372_20240617133828", "plate_no": "XE1372", "gap_start_time": "2024-06-17T13:38:28", "gap_end_time": "2024-06-17T16:00:06", "gap_duration_min": 141.63, "wasted_distance_km": 7.477, "prev_trip": "DA240617016801", "next_trip": "DA240617025802", "prev_O": [114.1745295, 22.4612402], "next_O": [114.1234441, 22.2711318]}, "geometry": {"type": "LineString", "coordinates": [[114.17497, 22.317758], [114.121598, 22.272113]]}}, {"type": "Feature", "properties": {"id": "ghost_XE1886_20240617101147", "plate_no": "XE1886", "gap_start_time": "2024-06-17T10:11:47", "gap_end_time": "2024-06-17T14:00:27", "gap_duration_min": 228.67, "wasted_distance_km": 4.137, "prev_trip": "DA240617020501", "next_trip": "DA240617018101", "prev_O": [114.1708277, 22.3073518], "next_O": [114.1866201, 22.3146669]}, "geometry": {"type": "LineString", "coordinates": [[114.227268, 22.31977], [114.187596, 22.313648]]}}, {"type": "Feature", "properties": {"id": "ghost_XE7053_20240617083008", "plate_no": "XE7053", "gap_start_time": "2024-06-17T08:30:08", "gap_end_time": "2024-06-17T09:27:36", "gap_duration_min": 57.47, "wasted_distance_km": 2.765, "prev_trip": "DA240617003101", "next_trip": "DA240617029401", "prev_O": [114.1890105, 22.3079943], "next_O": [114.2399321, 22.3366271]}, "geometry": {"type": "LineString", "coordinates": [[114.213221, 22.335678], [114.240058, 22.337166]]}}, {"type": "Feature", "properties": {"id": "ghost_XE7053_20240617100508", "plate_no": "XE7053", "gap_start_time": "2024-06-17T10:05:08", "gap_end_time": "2024-06-17T14:31:09", "gap_duration_min": 266.02, "wasted_distance_km": 2.957, "prev_trip": "DA240617029401", "next_trip": "DA240617020902", "prev_O": [114.2399321, 22.3366271], "next_O": [114.1725229, 22.3019182]}, "geometry": {"type": "LineString", "coordinates": [[114.158445, 22.280311], [114.171925, 22.303798]]}}, {"type": "Feature", "properties": {"id": "ghost_XE7168_20240617095556", "plate_no": "XE7168", "gap_start_time": "2024-06-17T09:55:56", "gap_end_time": "2024-06-17T12:00:28", "gap_duration_min": 124.53, "wasted_distance_km": 0.401, "prev_trip": "DA240617019901", "next_trip": "DA240617019902", "prev_O": [114.1083277, 22.3563201], "next_O": [114.1716857, 22.3301776]}, "geometry": {"type": "LineString", "coordinates": [[114.171693, 22.326728], [114.171916, 22.330325]]}}, {"type": "Feature", "properties": {"id": "ghost_XE7595_20240617114950", "plate_no": "XE7595", "gap_start_time": "2024-06-17T11:49:50", "gap_end_time": "2024-06-17T13:00:27", "gap_duration_min": 70.62, "wasted_distance_km": 0.274, "prev_trip": "DA240617033911", "next_trip": "DA240617024711", "prev_O": [114.1178066, 22.3689762], "next_O": [114.178114, 22.314217]}, "geometry": {"type": "LineString", "coordinates": [[114.178436, 22.317091], [114.179723, 22.314938]]}}, {"type": "Feature", "properties": {"id": "ghost_XE7595_20240617131457", "plate_no": "XE7595", "gap_start_time": "2024-06-17T13:14:57", "gap_end_time": "2024-06-17T16:45:13", "gap_duration_min": 210.27, "wasted_distance_km": 11.935, "prev_trip": "DA240617024711", "next_trip": "DA240617023702", "prev_O": [114.178114, 22.314217], "next_O": [114.1078444, 22.3781035]}, "geometry": {"type": "LineString", "coordinates": [[114.207961, 22.32445], [114.108071, 22.379083]]}}, {"type": "Feature", "properties": {"id": "ghost_XE7898_20240617144544", "plate_no": "XE7898", "gap_start_time": "2024-06-17T14:45:44", "gap_end_time": "2024-06-17T16:00:14", "gap_duration_min": 74.5, "wasted_distance_km": 1.536, "prev_trip": "DA240617048102", "next_trip": "DA240617047111", "prev_O": [114.2376661, 22.2627788], "next_O": [114.1653875, 22.2776878]}, "geometry": {"type": "LineString", "coordinates": [[114.178656, 22.274705], [114.164685, 22.279571]]}}, {"type": "Feature", "properties": {"id": "ghost_XE8451_20240617133406", "plate_no": "XE8451", "gap_start_time": "2024-06-17T13:34:06", "gap_end_time": "2024-06-17T16:05:17", "gap_duration_min": 151.18, "wasted_distance_km": 7.363, "prev_trip": "DA240617044101", "next_trip": "DA240617008602", "prev_O": [114.185168, 22.3394295], "next_O": [114.199216, 22.380851]}, "geometry": {"type": "LineString", "coordinates": [[114.169616, 22.318016], [114.196888, 22.379245]]}}, {"type": "Feature", "properties": {"id": "ghost_XF1493_20240617114050", "plate_no": "XF1493", "gap_start_time": "2024-06-17T11:40:50", "gap_end_time": "2024-06-17T13:03:36", "gap_duration_min": 82.77, "wasted_distance_km": 0.007, "prev_trip": "DA240617041401", "next_trip": "DA240617041402", "prev_O": [113.9805732, 22.4022714], "next_O": [113.933829, 22.2773523]}, "geometry": {"type": "LineString", "coordinates": [[113.933916, 22.277345], [113.933978, 22.277326]]}}, {"type": "Feature", "properties": {"id": "ghost_XM6122_20240617131414", "plate_no": "XM6122", "gap_start_time": "2024-06-17T13:14:14", "gap_end_time": "2024-06-17T15:40:19", "gap_duration_min": 146.08, "wasted_distance_km": 3.946, "prev_trip": "DA240617008011", "next_trip": "DA240617003102", "prev_O": [114.2286722, 22.3119194], "next_O": [114.212997, 22.3358478]}, "geometry": {"type": "LineString", "coordinates": [[114.249266, 22.323801], [114.2132, 22.335895]]}}, {"type": "Feature", "properties": {"id": "ghost_XN6179_20240617153205", "plate_no": "XN6179", "gap_start_time": "2024-06-17T15:32:05", "gap_end_time": "2024-06-17T16:15:06", "gap_duration_min": 43.02, "wasted_distance_km": 2.895, "prev_trip": "DA240617042911", "next_trip": "DA240617027611", "prev_O": [114.1215006, 22.3607344], "next_O": [114.1069151, 22.3488135]}, "geometry": {"type": "LineString", "coordinates": [[114.134123, 22.3417], [114.107218, 22.349343]]}}, {"type": "Feature", "properties": {"id": "ghost_XN7430_20240617124759", "plate_no": "XN7430", "gap_start_time": "2024-06-17T12:47:59", "gap_end_time": "2024-06-17T15:15:06", "gap_duration_min": 147.12, "wasted_distance_km": 5.015, "prev_trip": "DA240617038501", "next_trip": "DA240617007411", "prev_O": [114.227845, 22.304483], "next_O": [114.222657, 22.3205314]}, "geometry": {"type": "LineString", "coordinates": [[114.175083, 22.309711], [114.222555, 22.319991]]}}, {"type": "Feature", "properties": {"id": "ghost_XV2836_20240617101543", "plate_no": "XV2836", "gap_start_time": "2024-06-17T10:15:43", "gap_end_time": "2024-06-17T15:00:22", "gap_duration_min": 284.65, "wasted_distance_km": 9.75, "prev_trip": "DA240617038311", "next_trip": "DA240617029902", "prev_O": [114.1736904, 22.2811659], "next_O": [114.2074729, 22.3226262]}, "geometry": {"type": "LineString", "coordinates": [[114.211138, 22.413258], [114.208478, 22.325608]]}}, {"type": "Feature", "properties": {"id": "ghost_XV3928_20240617125838", "plate_no": "XV3928", "gap_start_time": "2024-06-17T12:58:38", "gap_end_time": "2024-06-17T15:00:18", "gap_duration_min": 121.67, "wasted_distance_km": 19.645, "prev_trip": "DA240617045002", "next_trip": "DA240617011402", "prev_O": [113.9255746, 22.4227821], "next_O": [114.1372631, 22.4824241]}, "geometry": {"type": "LineString", "coordinates": [[113.9647, 22.406333], [114.137423, 22.482013]]}}, {"type": "Feature", "properties": {"id": "ghost_YK4725_20240617105103", "plate_no": "YK4725", "gap_start_time": "2024-06-17T10:51:03", "gap_end_time": "2024-06-17T12:40:13", "gap_duration_min": 109.17, "wasted_distance_km": 4.631, "prev_trip": "DA240617008801", "next_trip": "DA240617033011", "prev_O": [114.1565225, 22.3342843], "next_O": [114.1323065, 22.2661136]}, "geometry": {"type": "LineString", "coordinates": [[114.17457, 22.28052], [114.132128, 22.26667]]}}, {"type": "Feature", "properties": {"id": "ghost_YK4725_20240617130842", "plate_no": "YK4725", "gap_start_time": "2024-06-17T13:08:42", "gap_end_time": "2024-06-17T15:45:12", "gap_duration_min": 156.5, "wasted_distance_km": 2.351, "prev_trip": "DA240617033011", "next_trip": "DA240617007202", "prev_O": [114.1323065, 22.2661136], "next_O": [114.2253505, 22.2821867]}, "geometry": {"type": "LineString", "coordinates": [[114.236651, 22.263733], [114.226033, 22.282451]]}}, {"type": "Feature", "properties": {"id": "ghost_YK4725_20240617155212", "plate_no": "YK4725", "gap_start_time": "2024-06-17T15:52:12", "gap_end_time": "2024-06-17T16:08:12", "gap_duration_min": 16.0, "wasted_distance_km": 5.262, "prev_trip": "DA240617007202", "next_trip": "DA240617008802", "prev_O": [114.2253505, 22.2821867], "next_O": [114.1762882, 22.2781796]}, "geometry": {"type": "LineString", "coordinates": [[114.226351, 22.280756], [114.175211, 22.281016]]}}, {"type": "Feature", "properties": {"id": "ghost_YK5072_20240617084039", "plate_no": "YK5072", "gap_start_time": "2024-06-17T08:40:39", "gap_end_time": "2024-06-17T14:50:00", "gap_duration_min": 369.35, "wasted_distance_km": 1.555, "prev_trip": "DA240617016901", "next_trip": "DA240617006811", "prev_O": [114.192957, 22.332628], "next_O": [114.192478, 22.338538]}, "geometry": {"type": "LineString", "coordinates": [[114.185691, 22.327045], [114.194136, 22.338648]]}}, {"type": "Feature", "properties": {"id": "ghost_YK7262_20240617103849", "plate_no": "YK7262", "gap_start_time": "2024-06-17T10:38:49", "gap_end_time": "2024-06-17T12:20:30", "gap_duration_min": 101.68, "wasted_distance_km": 5.457, "prev_trip": "DA240617017601", "next_trip": "DA240617025801", "prev_O": [114.189496, 22.303286], "next_O": [114.1759376, 22.3731611]}, "geometry": {"type": "LineString", "coordinates": [[114.183411, 22.3241], [114.177408, 22.372865]]}}, {"type": "Feature", "properties": {"id": "ghost_YK7398_20240617095351", "plate_no": "YK7398", "gap_start_time": "2024-06-17T09:53:51", "gap_end_time": "2024-06-17T16:36:47", "gap_duration_min": 402.93, "wasted_distance_km": 5.498, "prev_trip": "DA240617035911", "next_trip": "DA240617029211", "prev_O": [114.2640324, 22.3147268], "next_O": [114.2303424, 22.3079333]}, "geometry": {"type": "LineString", "coordinates": [[114.174403, 22.306985], [114.227833, 22.305761]]}}, {"type": "Feature", "properties": {"id": "ghost_YK7541_20240617100301", "plate_no": "YK7541", "gap_start_time": "2024-06-17T10:03:01", "gap_end_time": "2024-06-17T13:20:34", "gap_duration_min": 197.55, "wasted_distance_km": 23.343, "prev_trip": "DA240617028801", "next_trip": "DA240617035101", "prev_O": [114.1572491, 22.4488973], "next_O": [113.9842671, 22.4131051]}, "geometry": {"type": "LineString", "coordinates": [[114.211443, 22.413008], [113.984366, 22.412416]]}}, {"type": "Feature", "properties": {"id": "ghost_YK7874_20240617093923", "plate_no": "YK7874", "gap_start_time": "2024-06-17T09:39:23", "gap_end_time": "2024-06-17T17:00:26", "gap_duration_min": 441.05, "wasted_distance_km": 4.185, "prev_trip": "DA240617015501", "next_trip": "DA240617020211", "prev_O": [114.1627867, 22.316468], "next_O": [114.1394532, 22.2865441]}, "geometry": {"type": "LineString", "coordinates": [[114.168693, 22.3126], [114.139251, 22.286633]]}}, {"type": "Feature", "properties": {"id": "ghost_YK905_20240617095243", "plate_no": "YK905", "gap_start_time": "2024-06-17T09:52:43", "gap_end_time": "2024-06-17T15:40:00", "gap_duration_min": 347.28, "wasted_distance_km": 5.519, "prev_trip": "DA240617041601", "next_trip": "DA240617003002", "prev_O": [114.190706, 22.342478], "next_O": [114.212997, 22.3358478]}, "geometry": {"type": "LineString", "coordinates": [[114.184361, 22.377571], [114.213241, 22.335736]]}}, {"type": "Feature", "properties": {"id": "ghost_YL6700_20240617101009", "plate_no": "YL6700", "gap_start_time": "2024-06-17T10:10:09", "gap_end_time": "2024-06-17T16:25:14", "gap_duration_min": 375.08, "wasted_distance_km": 10.702, "prev_trip": "DA240617041101", "next_trip": "DA240617015102", "prev_O": [114.2278602, 22.4167292], "next_O": [114.1113314, 22.3751831]}, "geometry": {"type": "LineString", "coordinates": [[114.212298, 22.398615], [114.111326, 22.375248]]}}, {"type": "Feature", "properties": {"id": "ghost_YL714_20240617110415", "plate_no": "YL714", "gap_start_time": "2024-06-17T11:04:15", "gap_end_time": "2024-06-17T13:00:00", "gap_duration_min": 115.75, "wasted_distance_km": 0.312, "prev_trip": "DA240617026401", "next_trip": "DA240617026402", "prev_O": [114.2220997, 22.317307], "next_O": [114.1615929, 22.3167357]}, "geometry": {"type": "LineString", "coordinates": [[114.162956, 22.313903], [114.16204, 22.316578]]}}, {"type": "Feature", "properties": {"id": "ghost_YL9716_20240617080848", "plate_no": "YL9716", "gap_start_time": "2024-06-17T08:08:48", "gap_end_time": "2024-06-17T12:30:23", "gap_duration_min": 261.58, "wasted_distance_km": 6.324, "prev_trip": "DA240617001411", "next_trip": "DA240617014802", "prev_O": [114.1728298, 22.2766709], "next_O": [114.2362653, 22.2695993]}, "geometry": {"type": "LineString", "coordinates": [[114.174601, 22.276743], [114.235468, 22.268891]]}}, {"type": "Feature", "properties": {"id": "ghost_YL9716_20240617124223", "plate_no": "YL9716", "gap_start_time": "2024-06-17T12:42:23", "gap_end_time": "2024-06-17T14:02:53", "gap_duration_min": 80.5, "wasted_distance_km": 9.126, "prev_trip": "DA240617014802", "next_trip": "DA240617012711", "prev_O": [114.2362653, 22.2695993], "next_O": [114.1466459, 22.2447339]}, "geometry": {"type": "LineString", "coordinates": [[114.2242, 22.283895], [114.146428, 22.244458]]}}, {"type": "Feature", "properties": {"id": "ghost_YY7490_20240617095555", "plate_no": "YY7490", "gap_start_time": "2024-06-17T09:55:55", "gap_end_time": "2024-06-17T11:20:26", "gap_duration_min": 84.52, "wasted_distance_km": 0.015, "prev_trip": "DA240617027201", "next_trip": "DA240617027202", "prev_O": [114.191186, 22.284962], "next_O": [114.1861849, 22.2780679]}, "geometry": {"type": "LineString", "coordinates": [[114.186101, 22.278305], [114.185965, 22.27826]]}}, {"type": "Feature", "properties": {"id": "ghost_YY7490_20240617112556", "plate_no": "YY7490", "gap_start_time": "2024-06-17T11:25:56", "gap_end_time": "2024-06-17T15:00:00", "gap_duration_min": 214.07, "wasted_distance_km": 2.112, "prev_trip": "DA240617027202", "next_trip": "DA240617003901", "prev_O": [114.1861849, 22.2780679], "next_O": [114.1734921, 22.2726294]}, "geometry": {"type": "LineString", "coordinates": [[114.190955, 22.281765], [114.172988, 22.27259]]}}, {"type": "Feature", "properties": {"id": "ghost_YY7490_20240617153430", "plate_no": "YY7490", "gap_start_time": "2024-06-17T15:34:30", "gap_end_time": "2024-06-17T16:30:00", "gap_duration_min": 55.5, "wasted_distance_km": 1.22, "prev_trip": "DA240617003901", "next_trip": "DA240617003902", "prev_O": [114.1734921, 22.2726294], "next_O": [114.1734921, 22.2726294]}, "geometry": {"type": "LineString", "coordinates": [[114.184571, 22.2701], [114.173188, 22.273176]]}}, {"type": "Feature", "properties": {"id": "ghost_YY7632_20240617120440", "plate_no": "YY7632", "gap_start_time": "2024-06-17T12:04:40", "gap_end_time": "2024-06-17T14:00:10", "gap_duration_min": 115.5, "wasted_distance_km": 13.435, "prev_trip": "DA240617034311", "next_trip": "DA240617016301", "prev_O": [114.230334, 22.307947], "next_O": [114.2253605, 22.4230226]}, "geometry": {"type": "LineString", "coordinates": [[114.171288, 22.312848], [114.22616, 22.422501]]}}, {"type": "Feature", "properties": {"id": "ghost_ZA2376_20240617122912", "plate_no": "ZA2376", "gap_start_time": "2024-06-17T12:29:12", "gap_end_time": "2024-06-17T13:15:25", "gap_duration_min": 46.22, "wasted_distance_km": 4.355, "prev_trip": "DA240617035702", "next_trip": "DA240617012001", "prev_O": [114.1795767, 22.3045633], "next_O": [114.192605, 22.338409]}, "geometry": {"type": "LineString", "coordinates": [[114.151511, 22.329791], [114.192661, 22.339001]]}}, {"type": "Feature", "properties": {"id": "ghost_ZA3406_20240617131324", "plate_no": "ZA3406", "gap_start_time": "2024-06-17T13:13:24", "gap_end_time": "2024-06-17T14:31:28", "gap_duration_min": 78.07, "wasted_distance_km": 5.734, "prev_trip": "DA240617046011", "next_trip": "DA240617016611", "prev_O": [114.1245247, 22.2709886], "next_O": [114.149743, 22.243881]}, "geometry": {"type": "LineString", "coordinates": [[114.193553, 22.27706], [114.151218, 22.243526]]}}, {"type": "Feature", "properties": {"id": "ghost_ZA3805_20240617100005", "plate_no": "ZA3805", "gap_start_time": "2024-06-17T10:00:05", "gap_end_time": "2024-06-17T16:29:17", "gap_duration_min": 389.2, "wasted_distance_km": 13.518, "prev_trip": "DA240617023701", "next_trip": "DA240617023802", "prev_O": [114.110796, 22.367541], "next_O": [114.0036885, 22.4500309]}, "geometry": {"type": "LineString", "coordinates": [[114.110666, 22.376481], [114.004648, 22.448411]]}}, {"type": "Feature", "properties": {"id": "ghost_ZA394_20240617103440", "plate_no": "ZA394", "gap_start_time": "2024-06-17T10:34:40", "gap_end_time": "2024-06-17T13:15:10", "gap_duration_min": 160.5, "wasted_distance_km": 8.115, "prev_trip": "DA240617014401", "next_trip": "DA240617010901", "prev_O": [114.2009377, 22.2920835], "next_O": [114.2518599, 22.2626752]}, "geometry": {"type": "LineString", "coordinates": [[114.174553, 22.278401], [114.251916, 22.264218]]}}, {"type": "Feature", "properties": {"id": "ghost_ZA394_20240617135108", "plate_no": "ZA394", "gap_start_time": "2024-06-17T13:51:08", "gap_end_time": "2024-06-17T14:38:39", "gap_duration_min": 47.52, "wasted_distance_km": 2.049, "prev_trip": "DA240617010901", "next_trip": "DA240617003711", "prev_O": [114.2518599, 22.2626752], "next_O": [114.173637, 22.2733649]}, "geometry": {"type": "LineString", "coordinates": [[114.190673, 22.285641], [114.175171, 22.274076]]}}, {"type": "Feature", "properties": {"id": "ghost_ZA6585_20240617082906", "plate_no": "ZA6585", "gap_start_time": "2024-06-17T08:29:06", "gap_end_time": "2024-06-17T09:20:29", "gap_duration_min": 51.38, "wasted_distance_km": 3.899, "prev_trip": "DA240617001301", "next_trip": "DA240617040911", "prev_O": [114.1645223, 22.2794233], "next_O": [114.1498105, 22.334746]}, "geometry": {"type": "LineString", "coordinates": [[114.182746, 22.322233], [114.14697, 22.333821]]}}, {"type": "Feature", "properties": {"id": "ghost_ZA6585_20240617095426", "plate_no": "ZA6585", "gap_start_time": "2024-06-17T09:54:26", "gap_end_time": "2024-06-17T12:18:32", "gap_duration_min": 144.1, "wasted_distance_km": 3.383, "prev_trip": "DA240617040911", "next_trip": "DA240617049111", "prev_O": [114.1498105, 22.334746], "next_O": [114.1923776, 22.3079644]}, "geometry": {"type": "LineString", "coordinates": [[114.224181, 22.313405], [114.191763, 22.308281]]}}, {"type": "Feature", "properties": {"id": "ghost_ZB3274_20240617133705", "plate_no": "ZB3274", "gap_start_time": "2024-06-17T13:37:05", "gap_end_time": "2024-06-17T15:45:04", "gap_duration_min": 127.98, "wasted_distance_km": 13.277, "prev_trip": "DA240617037911", "next_trip": "DA240617035802", "prev_O": [114.1234441, 22.2711318], "next_O": [114.1251469, 22.3684239]}, "geometry": {"type": "LineString", "coordinates": [[114.238266, 22.304091], [114.129403, 22.368258]]}}]}