{"type": "FeatureCollection", "features": [{"type": "Feature", "properties": {"id": "ghost_RV3895_20240626083709", "plate_no": "RV3895", "gap_start_time": "2024-06-26T08:37:09", "gap_end_time": "2024-06-26T09:30:40", "gap_duration_min": 53.52, "wasted_distance_km": 13.832, "prev_trip": "DA240626016501", "next_trip": "DA240626013601", "prev_O": [114.1370345, 22.3651323], "next_O": [114.040729, 22.362266]}, "geometry": {"type": "LineString", "coordinates": [[114.168325, 22.315011], [114.043876, 22.36216]]}}, {"type": "Feature", "properties": {"id": "ghost_RV3895_20240626095841", "plate_no": "RV3895", "gap_start_time": "2024-06-26T09:58:41", "gap_end_time": "2024-06-26T15:45:03", "gap_duration_min": 346.37, "wasted_distance_km": 1.046, "prev_trip": "DA240626013601", "next_trip": "DA240626023002", "prev_O": [114.040729, 22.362266], "next_O": [114.1762153, 22.3188841]}, "geometry": {"type": "LineString", "coordinates": [[114.165131, 22.32265], [114.174046, 22.318121]]}}, {"type": "Feature", "properties": {"id": "ghost_RV3895_20240626160603", "plate_no": "RV3895", "gap_start_time": "2024-06-26T16:06:03", "gap_end_time": "2024-06-26T17:00:04", "gap_duration_min": 54.02, "wasted_distance_km": 4.728, "prev_trip": "DA240626023002", "next_trip": "DA240626006311", "prev_O": [114.1762153, 22.3188841], "next_O": [114.2303424, 22.3079333]}, "geometry": {"type": "LineString", "coordinates": [[114.194441, 22.334301], [114.230621, 22.30807]]}}, {"type": "Feature", "properties": {"id": "ghost_RV4210_20240626090259", "plate_no": "RV4210", "gap_start_time": "2024-06-26T09:02:59", "gap_end_time": "2024-06-26T13:30:02", "gap_duration_min": 267.05, "wasted_distance_km": 5.764, "prev_trip": "DA240626000201", "next_trip": "DA240626011801", "prev_O": [114.1266489, 22.3476314], "next_O": [114.1737752, 22.3192759]}, "geometry": {"type": "LineString", "coordinates": [[114.127486, 22.347863], [114.17349, 22.318265]]}}, {"type": "Feature", "properties": {"id": "ghost_RV7493_20240626082617", "plate_no": "RV7493", "gap_start_time": "2024-06-26T08:26:17", "gap_end_time": "2024-06-26T11:10:18", "gap_duration_min": 164.02, "wasted_distance_km": 9.65, "prev_trip": "DA240626044001", "next_trip": "DA240626026002", "prev_O": [114.2278602, 22.4167292], "next_O": [114.1763226, 22.3187944]}, "geometry": {"type": "LineString", "coordinates": [[114.212895, 22.399538], [114.176903, 22.31939]]}}, {"type": "Feature", "properties": {"id": "ghost_SL9199_20240626103236", "plate_no": "SL9199", "gap_start_time": "2024-06-26T10:32:36", "gap_end_time": "2024-06-26T15:10:03", "gap_duration_min": 277.45, "wasted_distance_km": 8.827, "prev_trip": "DA240626042501", "next_trip": "DA240626007502", "prev_O": [114.1688084, 22.4426526], "next_O": [114.1987643, 22.3804685]}, "geometry": {"type": "LineString", "coordinates": [[114.171806, 22.304943], [114.198851, 22.380285]]}}, {"type": "Feature", "properties": {"id": "ghost_SL9199_20240626152906", "plate_no": "SL9199", "gap_start_time": "2024-06-26T15:29:06", "gap_end_time": "2024-06-26T16:45:04", "gap_duration_min": 75.97, "wasted_distance_km": 1.279, "prev_trip": "DA240626007502", "next_trip": "DA240626008802", "prev_O": [114.1987643, 22.3804685], "next_O": [114.1700846, 22.3760056]}, "geometry": {"type": "LineString", "coordinates": [[114.181658, 22.373235], [114.169643, 22.376221]]}}, {"type": "Feature", "properties": {"id": "ghost_SM140_20240626091714", "plate_no": "SM140", "gap_start_time": "2024-06-26T09:17:14", "gap_end_time": "2024-06-26T10:00:16", "gap_duration_min": 43.03, "wasted_distance_km": 3.888, "prev_trip": "DA240626035801", "next_trip": "DA240626043811", "prev_O": [114.2584138, 22.3126095], "next_O": [114.234206, 22.3071441]}, "geometry": {"type": "LineString", "coordinates": [[114.269588, 22.318235], [114.234205, 22.305951]]}}, {"type": "Feature", "properties": {"id": "ghost_SM453_20240626093855", "plate_no": "SM453", "gap_start_time": "2024-06-26T09:38:55", "gap_end_time": "2024-06-26T12:35:20", "gap_duration_min": 176.42, "wasted_distance_km": 11.78, "prev_trip": "DA240626040011", "next_trip": "DA240626024411", "prev_O": [114.2267341, 22.3248602], "next_O": [114.1323065, 22.2661136]}, "geometry": {"type": "LineString", "coordinates": [[114.227315, 22.325551], [114.132183, 22.266593]]}}, {"type": "Feature", "properties": {"id": "ghost_SM453_20240626125521", "plate_no": "SM453", "gap_start_time": "2024-06-26T12:55:21", "gap_end_time": "2024-06-26T19:00:11", "gap_duration_min": 364.83, "wasted_distance_km": 5.721, "prev_trip": "DA240626024411", "next_trip": "DA240626032902", "prev_O": [114.1323065, 22.2661136], "next_O": [114.1743747, 22.3091816]}, "geometry": {"type": "LineString", "coordinates": [[114.22219, 22.282183], [114.175111, 22.309568]]}}, {"type": "Feature", "properties": {"id": "ghost_TC6931_20240626133130", "plate_no": "TC6931", "gap_start_time": "2024-06-26T13:31:30", "gap_end_time": "2024-06-26T21:20:27", "gap_duration_min": 468.95, "wasted_distance_km": 12.707, "prev_trip": "DA240626043501", "next_trip": "DA240626005602", "prev_O": [114.1613537, 22.3357962], "next_O": [114.1141803, 22.3747338]}, "geometry": {"type": "LineString", "coordinates": [[114.225873, 22.324191], [114.115, 22.374623]]}}, {"type": "Feature", "properties": {"id": "ghost_TD7860_20240626081913", "plate_no": "TD7860", "gap_start_time": "2024-06-26T08:19:13", "gap_end_time": "2024-06-26T12:00:03", "gap_duration_min": 220.83, "wasted_distance_km": 1.386, "prev_trip": "DA240626009601", "next_trip": "DA240626014102", "prev_O": [114.1819743, 22.3714238], "next_O": [114.1945989, 22.3874752]}, "geometry": {"type": "LineString", "coordinates": [[114.192806, 22.399668], [114.194925, 22.387355]]}}, {"type": "Feature", "properties": {"id": "ghost_TD7860_20240626122333", "plate_no": "TD7860", "gap_start_time": "2024-06-26T12:23:33", "gap_end_time": "2024-06-26T14:25:09", "gap_duration_min": 121.6, "wasted_distance_km": 5.628, "prev_trip": "DA240626014102", "next_trip": "DA240626005702", "prev_O": [114.1945989, 22.3874752], "next_O": [114.173077, 22.4611085]}, "geometry": {"type": "LineString", "coordinates": [[114.132671, 22.495653], [114.173031, 22.461438]]}}, {"type": "Feature", "properties": {"id": "ghost_TF6298_20240626134609", "plate_no": "TF6298", "gap_start_time": "2024-06-26T13:46:09", "gap_end_time": "2024-06-26T15:30:00", "gap_duration_min": 103.85, "wasted_distance_km": 13.682, "prev_trip": "DA240626029601", "next_trip": "DA240626030702", "prev_O": [114.140359, 22.36439], "next_O": [114.1757239, 22.2466607]}, "geometry": {"type": "LineString", "coordinates": [[114.126378, 22.362661], [114.174005, 22.247776]]}}, {"type": "Feature", "properties": {"id": "ghost_TF6298_20240626155830", "plate_no": "TF6298", "gap_start_time": "2024-06-26T15:58:30", "gap_end_time": "2024-06-26T16:31:30", "gap_duration_min": 33.0, "wasted_distance_km": 0.734, "prev_trip": "DA240626030702", "next_trip": "DA240626022202", "prev_O": [114.1757239, 22.2466607], "next_O": [114.1743747, 22.3091816]}, "geometry": {"type": "LineString", "coordinates": [[114.17872, 22.31742], [114.175851, 22.31138]]}}, {"type": "Feature", "properties": {"id": "ghost_TV8531_20240626102934", "plate_no": "TV8531", "gap_start_time": "2024-06-26T10:29:34", "gap_end_time": "2024-06-26T11:45:07", "gap_duration_min": 75.55, "wasted_distance_km": 17.827, "prev_trip": "DA240626021701", "next_trip": "DA240626044411", "prev_O": [114.145401, 22.2434883], "next_O": [114.1385415, 22.4881701]}, "geometry": {"type": "LineString", "coordinates": [[114.171945, 22.330416], [114.139056, 22.487825]]}}, {"type": "Feature", "properties": {"id": "ghost_TW6581_20240626091136", "plate_no": "TW6581", "gap_start_time": "2024-06-26T09:11:36", "gap_end_time": "2024-06-26T13:15:24", "gap_duration_min": 243.8, "wasted_distance_km": 6.804, "prev_trip": "DA240626026001", "next_trip": "DA240626014001", "prev_O": [114.15078, 22.329662], "next_O": [114.140001, 22.37024]}, "geometry": {"type": "LineString", "coordinates": [[114.176861, 22.319278], [114.139896, 22.370025]]}}, {"type": "Feature", "properties": {"id": "ghost_TW7410_20240626103353", "plate_no": "TW7410", "gap_start_time": "2024-06-26T10:33:53", "gap_end_time": "2024-06-26T15:15:05", "gap_duration_min": 281.2, "wasted_distance_km": 5.189, "prev_trip": "DA240626030911", "next_trip": "DA240626007211", "prev_O": [114.2007315, 22.3455219], "next_O": [114.222657, 22.3205314]}, "geometry": {"type": "LineString", "coordinates": [[114.174371, 22.307023], [114.222856, 22.319886]]}}, {"type": "Feature", "properties": {"id": "ghost_TW8217_20240626110657", "plate_no": "TW8217", "gap_start_time": "2024-06-26T11:06:57", "gap_end_time": "2024-06-26T13:00:01", "gap_duration_min": 113.07, "wasted_distance_km": 0.668, "prev_trip": "DA240626022302", "next_trip": "DA240626020801", "prev_O": [114.1762211, 22.2781659], "next_O": [114.204604, 22.291438]}, "geometry": {"type": "LineString", "coordinates": [[114.198453, 22.291115], [114.204941, 22.290918]]}}, {"type": "Feature", "properties": {"id": "ghost_TW8217_20240626132027", "plate_no": "TW8217", "gap_start_time": "2024-06-26T13:20:27", "gap_end_time": "2024-06-26T18:44:28", "gap_duration_min": 324.02, "wasted_distance_km": 15.541, "prev_trip": "DA240626020801", "next_trip": "DA240626005601", "prev_O": [114.204604, 22.291438], "next_O": [114.130215, 22.36807]}, "geometry": {"type": "LineString", "coordinates": [[114.236163, 22.269426], [114.127398, 22.366425]]}}, {"type": "Feature", "properties": {"id": "ghost_TX9739_20240626060158", "plate_no": "TX9739", "gap_start_time": "2024-06-26T06:01:58", "gap_end_time": "2024-06-26T10:00:28", "gap_duration_min": 238.5, "wasted_distance_km": 10.944, "prev_trip": "DA240626019901", "next_trip": "DA240626004901", "prev_O": [114.2165038, 22.324664], "next_O": [114.2694013, 22.316371]}, "geometry": {"type": "LineString", "coordinates": [[114.163158, 22.333833], [114.267808, 22.316051]]}}, {"type": "Feature", "properties": {"id": "ghost_TX9739_20240626111535", "plate_no": "TX9739", "gap_start_time": "2024-06-26T11:15:35", "gap_end_time": "2024-06-26T13:10:00", "gap_duration_min": 114.42, "wasted_distance_km": 8.147, "prev_trip": "DA240626004901", "next_trip": "DA240626025601", "prev_O": [114.2694013, 22.316371], "next_O": [114.2516341, 22.3048796]}, "geometry": {"type": "LineString", "coordinates": [[114.172058, 22.303408], [114.25123, 22.304936]]}}, {"type": "Feature", "properties": {"id": "ghost_TX9893_20240626084554", "plate_no": "TX9893", "gap_start_time": "2024-06-26T08:45:54", "gap_end_time": "2024-06-26T10:00:06", "gap_duration_min": 74.2, "wasted_distance_km": 2.256, "prev_trip": "DA240626007601", "next_trip": "DA240626020401", "prev_O": [114.23134, 22.42554], "next_O": [114.199679, 22.3964246]}, "geometry": {"type": "LineString", "coordinates": [[114.201535, 22.377575], [114.199866, 22.397803]]}}, {"type": "Feature", "properties": {"id": "ghost_TX9893_20240626104354", "plate_no": "TX9893", "gap_start_time": "2024-06-26T10:43:54", "gap_end_time": "2024-06-26T15:25:12", "gap_duration_min": 281.3, "wasted_distance_km": 5.016, "prev_trip": "DA240626020401", "next_trip": "DA240626012002", "prev_O": [114.199679, 22.3964246], "next_O": [114.1832816, 22.3250389]}, "geometry": {"type": "LineString", "coordinates": [[114.177698, 22.27983], [114.183021, 22.324673]]}}, {"type": "Feature", "properties": {"id": "ghost_TX9893_20240626153412", "plate_no": "TX9893", "gap_start_time": "2024-06-26T15:34:12", "gap_end_time": "2024-06-26T18:00:02", "gap_duration_min": 145.83, "wasted_distance_km": 7.535, "prev_trip": "DA240626012002", "next_trip": "DA240626012502", "prev_O": [114.1832816, 22.3250389], "next_O": [114.1947109, 22.3873746]}, "geometry": {"type": "LineString", "coordinates": [[114.185903, 22.320138], [114.19508, 22.387368]]}}, {"type": "Feature", "properties": {"id": "ghost_UL3556_20240626083756", "plate_no": "UL3556", "gap_start_time": "2024-06-26T08:37:56", "gap_end_time": "2024-06-26T09:23:41", "gap_duration_min": 45.75, "wasted_distance_km": 4.635, "prev_trip": "DA240626000601", "next_trip": "DA240626019711", "prev_O": [114.2004947, 22.2912707], "next_O": [114.1411034, 22.3352791]}, "geometry": {"type": "LineString", "coordinates": [[114.18364, 22.324085], [114.140298, 22.33548]]}}, {"type": "Feature", "properties": {"id": "ghost_UL3556_20240626093842", "plate_no": "UL3556", "gap_start_time": "2024-06-26T09:38:42", "gap_end_time": "2024-06-26T12:30:18", "gap_duration_min": 171.6, "wasted_distance_km": 3.256, "prev_trip": "DA240626019711", "next_trip": "DA240626032901", "prev_O": [114.1411034, 22.3352791], "next_O": [114.1772603, 22.3129427]}, "geometry": {"type": "LineString", "coordinates": [[114.15831, 22.335833], [114.177416, 22.312491]]}}, {"type": "Feature", "properties": {"id": "ghost_UL4469_20240626113625", "plate_no": "UL4469", "gap_start_time": "2024-06-26T11:36:25", "gap_end_time": "2024-06-26T13:00:13", "gap_duration_min": 83.8, "wasted_distance_km": 19.208, "prev_trip": "DA240626013702", "next_trip": "DA240626017801", "prev_O": [114.1260671, 22.3474958], "next_O": [114.1498105, 22.334746]}, "geometry": {"type": "LineString", "coordinates": [[113.97069, 22.384205], [114.149505, 22.334271]]}}, {"type": "Feature", "properties": {"id": "ghost_UL7804_20240626143517", "plate_no": "UL7804", "gap_start_time": "2024-06-26T14:35:17", "gap_end_time": "2024-06-26T16:36:11", "gap_duration_min": 120.9, "wasted_distance_km": 5.928, "prev_trip": "DA240626028611", "next_trip": "DA240626046702", "prev_O": [114.1460719, 22.3374482], "next_O": [114.134458, 22.341577]}, "geometry": {"type": "LineString", "coordinates": [[114.179506, 22.372866], [114.131781, 22.342961]]}}, {"type": "Feature", "properties": {"id": "ghost_UM4207_20240626094908", "plate_no": "UM4207", "gap_start_time": "2024-06-26T09:49:08", "gap_end_time": "2024-06-26T12:22:49", "gap_duration_min": 153.68, "wasted_distance_km": 3.685, "prev_trip": "DA240626010801", "next_trip": "DA240626048002", "prev_O": [114.1565225, 22.3342843], "next_O": [114.1750342, 22.3095921]}, "geometry": {"type": "LineString", "coordinates": [[114.174665, 22.278395], [114.176343, 22.3115]]}}, {"type": "Feature", "properties": {"id": "ghost_UM5926_20240626100942", "plate_no": "UM5926", "gap_start_time": "2024-06-26T10:09:42", "gap_end_time": "2024-06-26T14:00:00", "gap_duration_min": 230.3, "wasted_distance_km": 1.02, "prev_trip": "DA240626042801", "next_trip": "DA240626021801", "prev_O": [114.192709, 22.3177253], "next_O": [114.232525, 22.307095]}, "geometry": {"type": "LineString", "coordinates": [[114.224961, 22.312995], [114.232585, 22.30713]]}}, {"type": "Feature", "properties": {"id": "ghost_UP3870_20240626135805", "plate_no": "UP3870", "gap_start_time": "2024-06-26T13:58:05", "gap_end_time": "2024-06-26T17:00:28", "gap_duration_min": 182.38, "wasted_distance_km": 8.296, "prev_trip": "DA240626014401", "next_trip": "DA240626021002", "prev_O": [114.2253605, 22.4230226], "next_O": [114.1743747, 22.3091816]}, "geometry": {"type": "LineString", "coordinates": [[114.204933, 22.379046], [114.174953, 22.309783]]}}, {"type": "Feature", "properties": {"id": "ghost_VA7459_20240626132944", "plate_no": "VA7459", "gap_start_time": "2024-06-26T13:29:44", "gap_end_time": "2024-06-26T15:40:14", "gap_duration_min": 130.5, "wasted_distance_km": 3.012, "prev_trip": "DA240626043601", "next_trip": "DA240626002802", "prev_O": [114.226715, 22.33008], "next_O": [114.212997, 22.3358478]}, "geometry": {"type": "LineString", "coordinates": [[114.18618, 22.325296], [114.2132, 22.335748]]}}, {"type": "Feature", "properties": {"id": "ghost_VD6386_20240626105543", "plate_no": "VD6386", "gap_start_time": "2024-06-26T10:55:43", "gap_end_time": "2024-06-26T13:30:06", "gap_duration_min": 154.38, "wasted_distance_km": 0.415, "prev_trip": "DA240626008901", "next_trip": "DA240626008902", "prev_O": [113.9963345, 22.4451662], "next_O": [114.0051819, 22.45697]}, "geometry": {"type": "LineString", "coordinates": [[114.005735, 22.453765], [114.00506, 22.457448]]}}, {"type": "Feature", "properties": {"id": "ghost_VD6386_20240626140610", "plate_no": "VD6386", "gap_start_time": "2024-06-26T14:06:10", "gap_end_time": "2024-06-26T16:00:50", "gap_duration_min": 114.67, "wasted_distance_km": 8.89, "prev_trip": "DA240626008902", "next_trip": "DA240626002002", "prev_O": [114.0051819, 22.45697], "next_O": [113.9649146, 22.3748696]}, "geometry": {"type": "LineString", "coordinates": [[113.999781, 22.446906], [113.96387, 22.374171]]}}, {"type": "Feature", "properties": {"id": "ghost_VD768_20240626085413", "plate_no": "VD768", "gap_start_time": "2024-06-26T08:54:13", "gap_end_time": "2024-06-26T11:30:04", "gap_duration_min": 155.85, "wasted_distance_km": 6.441, "prev_trip": "DA240626007001", "next_trip": "DA240626038202", "prev_O": [114.2270772, 22.2780082], "next_O": [114.1732155, 22.2510972]}, "geometry": {"type": "LineString", "coordinates": [[114.227735, 22.279738], [114.17293, 22.251756]]}}, {"type": "Feature", "properties": {"id": "ghost_VD768_20240626120333", "plate_no": "VD768", "gap_start_time": "2024-06-26T12:03:33", "gap_end_time": "2024-06-26T15:30:18", "gap_duration_min": 206.75, "wasted_distance_km": 9.596, "prev_trip": "DA240626038202", "next_trip": "DA240626008602", "prev_O": [114.1732155, 22.2510972], "next_O": [114.1219651, 22.3714765]}, "geometry": {"type": "LineString", "coordinates": [[114.214473, 22.384208], [114.122106, 22.371861]]}}, {"type": "Feature", "properties": {"id": "ghost_VE7344_20240626111346", "plate_no": "VE7344", "gap_start_time": "2024-06-26T11:13:46", "gap_end_time": "2024-06-26T15:01:08", "gap_duration_min": 227.37, "wasted_distance_km": 0.84, "prev_trip": "DA240626013111", "next_trip": "DA240626003811", "prev_O": [114.129029, 22.3585969], "next_O": [114.1200839, 22.3703121]}, "geometry": {"type": "LineString", "coordinates": [[114.109985, 22.372348], [114.117958, 22.373993]]}}, {"type": "Feature", "properties": {"id": "ghost_VE7538_20240626081246", "plate_no": "VE7538", "gap_start_time": "2024-06-26T08:12:46", "gap_end_time": "2024-06-26T08:45:16", "gap_duration_min": 32.5, "wasted_distance_km": 1.24, "prev_trip": "DA240626037401", "next_trip": "DA240626008701", "prev_O": [114.1267882, 22.494909], "next_O": [114.137108, 22.5004969]}, "geometry": {"type": "LineString", "coordinates": [[114.125128, 22.49685], [114.136943, 22.499138]]}}, {"type": "Feature", "properties": {"id": "ghost_VE8500_20240626100931", "plate_no": "VE8500", "gap_start_time": "2024-06-26T10:09:31", "gap_end_time": "2024-06-26T11:40:02", "gap_duration_min": 90.52, "wasted_distance_km": 0.042, "prev_trip": "DA240626046501", "next_trip": "DA240626046502", "prev_O": [114.2276028, 22.3043425], "next_O": [114.24422, 22.321446]}, "geometry": {"type": "LineString", "coordinates": [[114.244233, 22.32176], [114.244018, 22.321443]]}}, {"type": "Feature", "properties": {"id": "ghost_VE8500_20240626115730", "plate_no": "VE8500", "gap_start_time": "2024-06-26T11:57:30", "gap_end_time": "2024-06-26T17:00:25", "gap_duration_min": 302.92, "wasted_distance_km": 0.638, "prev_trip": "DA240626046502", "next_trip": "DA240626006211", "prev_O": [114.24422, 22.321446], "next_O": [114.2303424, 22.3079333]}, "geometry": {"type": "LineString", "coordinates": [[114.224736, 22.30631], [114.23063, 22.308096]]}}, {"type": "Feature", "properties": {"id": "ghost_VF8574_20240626134629", "plate_no": "VF8574", "gap_start_time": "2024-06-26T13:46:29", "gap_end_time": "2024-06-26T14:00:29", "gap_duration_min": 14.0, "wasted_distance_km": 0.662, "prev_trip": "DA240626049201", "next_trip": "DA240626010802", "prev_O": [114.1607389, 22.3359684], "next_O": [114.1762882, 22.2781796]}, "geometry": {"type": "LineString", "coordinates": [[114.182396, 22.280556], [114.176726, 22.277736]]}}, {"type": "Feature", "properties": {"id": "ghost_VG427_20240626103959", "plate_no": "VG427", "gap_start_time": "2024-06-26T10:39:59", "gap_end_time": "2024-06-26T13:30:08", "gap_duration_min": 170.15, "wasted_distance_km": 9.045, "prev_trip": "DA240626014311", "next_trip": "DA240626004902", "prev_O": [114.2518906, 22.3049429], "next_O": [114.1705215, 22.301755]}, "geometry": {"type": "LineString", "coordinates": [[114.258406, 22.306593], [114.170605, 22.302271]]}}, {"type": "Feature", "properties": {"id": "ghost_VV7298_20240626104651", "plate_no": "VV7298", "gap_start_time": "2024-06-26T10:46:51", "gap_end_time": "2024-06-26T13:30:14", "gap_duration_min": 163.38, "wasted_distance_km": 4.592, "prev_trip": "DA240626042011", "next_trip": "DA240626016401", "prev_O": [114.2702546, 22.2944817], "next_O": [114.13596, 22.25288]}, "geometry": {"type": "LineString", "coordinates": [[114.171656, 22.277975], [114.136563, 22.25246]]}}, {"type": "Feature", "properties": {"id": "ghost_VW871_20240626105838", "plate_no": "VW871", "gap_start_time": "2024-06-26T10:58:38", "gap_end_time": "2024-06-26T14:25:05", "gap_duration_min": 206.45, "wasted_distance_km": 8.995, "prev_trip": "DA240626032001", "next_trip": "DA240626015601", "prev_O": [114.0186247, 22.4399098], "next_O": [113.9740818, 22.3843575]}, "geometry": {"type": "LineString", "coordinates": [[114.032176, 22.444243], [113.973915, 22.383881]]}}, {"type": "Feature", "properties": {"id": "ghost_VW871_20240626144035", "plate_no": "VW871", "gap_start_time": "2024-06-26T14:40:35", "gap_end_time": "2024-06-26T16:28:36", "gap_duration_min": 108.02, "wasted_distance_km": 5.806, "prev_trip": "DA240626015601", "next_trip": "DA240626019502", "prev_O": [113.9740818, 22.3843575], "next_O": [114.0036885, 22.4500309]}, "geometry": {"type": "LineString", "coordinates": [[113.972833, 22.404883], [114.001013, 22.450141]]}}, {"type": "Feature", "properties": {"id": "ghost_VW895_20240626105651", "plate_no": "VW895", "gap_start_time": "2024-06-26T10:56:51", "gap_end_time": "2024-06-26T13:30:12", "gap_duration_min": 153.35, "wasted_distance_km": 0.429, "prev_trip": "DA240626009101", "next_trip": "DA240626009102", "prev_O": [113.9963345, 22.4451662], "next_O": [114.0051819, 22.45697]}, "geometry": {"type": "LineString", "coordinates": [[114.00336, 22.453098], [114.005103, 22.456606]]}}, {"type": "Feature", "properties": {"id": "ghost_VW895_20240626140417", "plate_no": "VW895", "gap_start_time": "2024-06-26T14:04:17", "gap_end_time": "2024-06-26T17:00:37", "gap_duration_min": 176.33, "wasted_distance_km": 4.296, "prev_trip": "DA240626009102", "next_trip": "DA240626011202", "prev_O": [114.0051819, 22.45697], "next_O": [114.0391183, 22.4414325]}, "geometry": {"type": "LineString", "coordinates": [[113.999761, 22.446778], [114.041526, 22.445198]]}}, {"type": "Feature", "properties": {"id": "ghost_VX2887_20240626132433", "plate_no": "VX2887", "gap_start_time": "2024-06-26T13:24:33", "gap_end_time": "2024-06-26T14:40:24", "gap_duration_min": 75.85, "wasted_distance_km": 3.585, "prev_trip": "DA240626007311", "next_trip": "DA240626000811", "prev_O": [114.2268133, 22.3191117], "next_O": [114.1831334, 22.3223645]}, "geometry": {"type": "LineString", "coordinates": [[114.217761, 22.323693], [114.182928, 22.322556]]}}, {"type": "Feature", "properties": {"id": "ghost_VX3591_20240626133210", "plate_no": "VX3591", "gap_start_time": "2024-06-26T13:32:10", "gap_end_time": "2024-06-26T14:45:18", "gap_duration_min": 73.13, "wasted_distance_km": 8.454, "prev_trip": "DA240626028101", "next_trip": "DA240626037211", "prev_O": [114.1967199, 22.2872487], "next_O": [114.1873617, 22.3403179]}, "geometry": {"type": "LineString", "coordinates": [[114.211428, 22.413051], [114.186605, 22.340573]]}}, {"type": "Feature", "properties": {"id": "ghost_WN9331_20240626092713", "plate_no": "WN9331", "gap_start_time": "2024-06-26T09:27:13", "gap_end_time": "2024-06-26T13:45:27", "gap_duration_min": 258.23, "wasted_distance_km": 10.562, "prev_trip": "DA240626007501", "next_trip": "DA240626030201", "prev_O": [114.1786768, 22.3729477], "next_O": [114.2204772, 22.287643]}, "geometry": {"type": "LineString", "coordinates": [[114.1972, 22.379781], [114.219933, 22.28715]]}}, {"type": "Feature", "properties": {"id": "ghost_WN9331_20240626140457", "plate_no": "WN9331", "gap_start_time": "2024-06-26T14:04:57", "gap_end_time": "2024-06-26T16:35:23", "gap_duration_min": 150.43, "wasted_distance_km": 5.908, "prev_trip": "DA240626030201", "next_trip": "DA240626024102", "prev_O": [114.2204772, 22.287643], "next_O": [114.1242821, 22.27006]}, "geometry": {"type": "LineString", "coordinates": [[114.179791, 22.274675], [114.12251, 22.270981]]}}, {"type": "Feature", "properties": {"id": "ghost_WP5437_20240626101632", "plate_no": "WP5437", "gap_start_time": "2024-06-26T10:16:32", "gap_end_time": "2024-06-26T13:10:12", "gap_duration_min": 173.67, "wasted_distance_km": 11.452, "prev_trip": "DA240626027211", "next_trip": "DA240626016611", "prev_O": [114.239761, 22.266229], "next_O": [114.1052717, 22.3498096]}, "geometry": {"type": "LineString", "coordinates": [[114.210741, 22.315333], [114.105791, 22.349723]]}}, {"type": "Feature", "properties": {"id": "ghost_WP5818_20240626104506", "plate_no": "WP5818", "gap_start_time": "2024-06-26T10:45:06", "gap_end_time": "2024-06-26T12:30:13", "gap_duration_min": 105.12, "wasted_distance_km": 0.014, "prev_trip": "DA240626009301", "next_trip": "DA240626009302", "prev_O": [113.9704044, 22.4037093], "next_O": [113.9767599, 22.3917753]}, "geometry": {"type": "LineString", "coordinates": [[113.976428, 22.392173], [113.976556, 22.392213]]}}, {"type": "Feature", "properties": {"id": "ghost_XE1372_20240626120539", "plate_no": "XE1372", "gap_start_time": "2024-06-26T12:05:39", "gap_end_time": "2024-06-26T13:45:16", "gap_duration_min": 99.62, "wasted_distance_km": 13.637, "prev_trip": "DA240626010101", "next_trip": "DA240626041301", "prev_O": [114.2430202, 22.4265896], "next_O": [114.1123813, 22.3766389]}, "geometry": {"type": "LineString", "coordinates": [[114.233801, 22.426113], [114.112293, 22.376913]]}}, {"type": "Feature", "properties": {"id": "ghost_XE1372_20240626140946", "plate_no": "XE1372", "gap_start_time": "2024-06-26T14:09:46", "gap_end_time": "2024-06-26T16:30:10", "gap_duration_min": 140.4, "wasted_distance_km": 8.333, "prev_trip": "DA240626041301", "next_trip": "DA240626039402", "prev_O": [114.1123813, 22.3766389], "next_O": [114.237285, 22.270148]}, "geometry": {"type": "LineString", "coordinates": [[114.172463, 22.31459], [114.237015, 22.269321]]}}, {"type": "Feature", "properties": {"id": "ghost_XE1886_20240626120611", "plate_no": "XE1886", "gap_start_time": "2024-06-26T12:06:11", "gap_end_time": "2024-06-26T16:45:10", "gap_duration_min": 278.98, "wasted_distance_km": 0.723, "prev_trip": "DA240626017402", "next_trip": "DA240626021802", "prev_O": [114.1713296, 22.3304227], "next_O": [114.1716857, 22.3301776]}, "geometry": {"type": "LineString", "coordinates": [[114.178748, 22.331893], [114.171873, 22.330551]]}}, {"type": "Feature", "properties": {"id": "ghost_XE7053_20240626095733", "plate_no": "XE7053", "gap_start_time": "2024-06-26T09:57:33", "gap_end_time": "2024-06-26T14:30:26", "gap_duration_min": 272.88, "wasted_distance_km": 0.486, "prev_trip": "DA240626020601", "next_trip": "DA240626018002", "prev_O": [114.2094681, 22.3284564], "next_O": [114.1725229, 22.3019182]}, "geometry": {"type": "LineString", "coordinates": [[114.174761, 22.309468], [114.172298, 22.305736]]}}, {"type": "Feature", "properties": {"id": "ghost_XE782_20240626112059", "plate_no": "XE782", "gap_start_time": "2024-06-26T11:20:59", "gap_end_time": "2024-06-26T13:45:06", "gap_duration_min": 144.12, "wasted_distance_km": 0.463, "prev_trip": "DA240626033501", "next_trip": "DA240626033502", "prev_O": [114.1877826, 22.3102544], "next_O": [114.2262136, 22.3109722]}, "geometry": {"type": "LineString", "coordinates": [[114.230225, 22.309895], [114.225796, 22.310636]]}}, {"type": "Feature", "properties": {"id": "ghost_XE782_20240626140206", "plate_no": "XE782", "gap_start_time": "2024-06-26T14:02:06", "gap_end_time": "2024-06-26T14:40:15", "gap_duration_min": 38.15, "wasted_distance_km": 1.204, "prev_trip": "DA240626033502", "next_trip": "DA240626001011", "prev_O": [114.2262136, 22.3109722], "next_O": [114.1831334, 22.3223645]}, "geometry": {"type": "LineString", "coordinates": [[114.187646, 22.312641], [114.182816, 22.322508]]}}, {"type": "Feature", "properties": {"id": "ghost_XE782_20240626151611", "plate_no": "XE782", "gap_start_time": "2024-06-26T15:16:11", "gap_end_time": "2024-06-26T16:30:14", "gap_duration_min": 74.05, "wasted_distance_km": 12.121, "prev_trip": "DA240626001011", "next_trip": "DA240626047111", "prev_O": [114.1831334, 22.3223645], "next_O": [114.1743747, 22.3091816]}, "geometry": {"type": "LineString", "coordinates": [[114.210715, 22.412901], [114.175208, 22.308958]]}}, {"type": "Feature", "properties": {"id": "ghost_XE8413_20240626105330", "plate_no": "XE8413", "gap_start_time": "2024-06-26T10:53:30", "gap_end_time": "2024-06-26T13:30:18", "gap_duration_min": 156.8, "wasted_distance_km": 0.263, "prev_trip": "DA240626009001", "next_trip": "DA240626009002", "prev_O": [113.9963345, 22.4451662], "next_O": [114.0051819, 22.45697]}, "geometry": {"type": "LineString", "coordinates": [[114.006103, 22.456281], [114.004751, 22.458291]]}}, {"type": "Feature", "properties": {"id": "ghost_XE8451_20240626134616", "plate_no": "XE8451", "gap_start_time": "2024-06-26T13:46:16", "gap_end_time": "2024-06-26T15:30:07", "gap_duration_min": 103.85, "wasted_distance_km": 15.729, "prev_trip": "DA240626044101", "next_trip": "DA240626027902", "prev_O": [113.97194, 22.38222], "next_O": [114.118883, 22.369655]}, "geometry": {"type": "LineString", "coordinates": [[113.971578, 22.406571], [114.11918, 22.369363]]}}, {"type": "Feature", "properties": {"id": "ghost_XM9877_20240626125527", "plate_no": "XM9877", "gap_start_time": "2024-06-26T12:55:27", "gap_end_time": "2024-06-26T13:30:07", "gap_duration_min": 34.67, "wasted_distance_km": 2.15, "prev_trip": "DA240626034801", "next_trip": "DA240626047011", "prev_O": [114.1900913, 22.3143602], "next_O": [114.2066781, 22.3301172]}, "geometry": {"type": "LineString", "coordinates": [[114.186051, 22.32526], [114.206181, 22.330455]]}}, {"type": "Feature", "properties": {"id": "ghost_XM9877_20240626134647", "plate_no": "XM9877", "gap_start_time": "2024-06-26T13:46:47", "gap_end_time": "2024-06-26T15:30:17", "gap_duration_min": 103.5, "wasted_distance_km": 1.606, "prev_trip": "DA240626047011", "next_trip": "DA240626036601", "prev_O": [114.2066781, 22.3301172], "next_O": [114.1648832, 22.3160489]}, "geometry": {"type": "LineString", "coordinates": [[114.17425, 22.30698], [114.163641, 22.317581]]}}, {"type": "Feature", "properties": {"id": "ghost_XM9877_20240626154257", "plate_no": "XM9877", "gap_start_time": "2024-06-26T15:42:57", "gap_end_time": "2024-06-26T17:00:01", "gap_duration_min": 77.07, "wasted_distance_km": 6.512, "prev_trip": "DA240626036601", "next_trip": "DA240626006111", "prev_O": [114.1648832, 22.3160489], "next_O": [114.2303424, 22.3079333]}, "geometry": {"type": "LineString", "coordinates": [[114.171993, 22.330323], [114.23061, 22.308196]]}}, {"type": "Feature", "properties": {"id": "ghost_XU9430_20240626094457", "plate_no": "XU9430", "gap_start_time": "2024-06-26T09:44:57", "gap_end_time": "2024-06-26T15:30:48", "gap_duration_min": 345.85, "wasted_distance_km": 4.199, "prev_trip": "DA240626031301", "next_trip": "DA240626010002", "prev_O": [114.1919131, 22.3063812], "next_O": [114.2362653, 22.2695993]}, "geometry": {"type": "LineString", "coordinates": [[114.228211, 22.306063], [114.234776, 22.268796]]}}, {"type": "Feature", "properties": {"id": "ghost_YJ4587_20240626142901", "plate_no": "YJ4587", "gap_start_time": "2024-06-26T14:29:01", "gap_end_time": "2024-06-26T21:30:12", "gap_duration_min": 421.18, "wasted_distance_km": 16.372, "prev_trip": "DA240626011201", "next_trip": "DA240626023311", "prev_O": [114.0248117, 22.4296713], "next_O": [114.1497148, 22.3374258]}, "geometry": {"type": "LineString", "coordinates": [[114.039073, 22.444051], [114.14962, 22.338075]]}}, {"type": "Feature", "properties": {"id": "ghost_YK4725_20240626134945", "plate_no": "YK4725", "gap_start_time": "2024-06-26T13:49:45", "gap_end_time": "2024-06-26T15:45:29", "gap_duration_min": 115.73, "wasted_distance_km": 7.65, "prev_trip": "DA240626004802", "next_trip": "DA240626029602", "prev_O": [114.1705215, 22.301755], "next_O": [114.1266854, 22.3621829]}, "geometry": {"type": "LineString", "coordinates": [[114.199088, 22.345225], [114.126913, 22.361885]]}}, {"type": "Feature", "properties": {"id": "ghost_YK4856_20240626121635", "plate_no": "YK4856", "gap_start_time": "2024-06-26T12:16:35", "gap_end_time": "2024-06-26T14:45:17", "gap_duration_min": 148.7, "wasted_distance_km": 0.451, "prev_trip": "DA240626008011", "next_trip": "DA240626008111", "prev_O": [114.2325361, 22.3180048], "next_O": [114.2077592, 22.3227792]}, "geometry": {"type": "LineString", "coordinates": [[114.209168, 22.319225], [114.207623, 22.323021]]}}, {"type": "Feature", "properties": {"id": "ghost_YK7874_20240626082414", "plate_no": "YK7874", "gap_start_time": "2024-06-26T08:24:14", "gap_end_time": "2024-06-26T12:36:02", "gap_duration_min": 251.8, "wasted_distance_km": 4.243, "prev_trip": "DA240626004011", "next_trip": "DA240626042211", "prev_O": [114.173386, 22.277853], "next_O": [114.1323065, 22.2661136]}, "geometry": {"type": "LineString", "coordinates": [[114.171813, 22.27688], [114.132073, 22.266713]]}}, {"type": "Feature", "properties": {"id": "ghost_YK905_20240626083905", "plate_no": "YK905", "gap_start_time": "2024-06-26T08:39:05", "gap_end_time": "2024-06-26T09:30:05", "gap_duration_min": 51.0, "wasted_distance_km": 1.463, "prev_trip": "DA240626046001", "next_trip": "DA240626044901", "prev_O": [114.2005407, 22.3463324], "next_O": [114.1878262, 22.3128675]}, "geometry": {"type": "LineString", "coordinates": [[114.185578, 22.325793], [114.187561, 22.312763]]}}, {"type": "Feature", "properties": {"id": "ghost_YK905_20240626094435", "plate_no": "YK905", "gap_start_time": "2024-06-26T09:44:35", "gap_end_time": "2024-06-26T13:50:21", "gap_duration_min": 245.77, "wasted_distance_km": 2.974, "prev_trip": "DA240626044901", "next_trip": "DA240626029011", "prev_O": [114.1878262, 22.3128675], "next_O": [114.2009229, 22.2896155]}, "geometry": {"type": "LineString", "coordinates": [[114.17765, 22.305955], [114.20147, 22.290801]]}}, {"type": "Feature", "properties": {"id": "ghost_YK905_20240626140551", "plate_no": "YK905", "gap_start_time": "2024-06-26T14:05:51", "gap_end_time": "2024-06-26T15:40:21", "gap_duration_min": 94.5, "wasted_distance_km": 5.394, "prev_trip": "DA240626029011", "next_trip": "DA240626002602", "prev_O": [114.2009229, 22.2896155], "next_O": [114.212997, 22.3358478]}, "geometry": {"type": "LineString", "coordinates": [[114.164135, 22.3186], [114.213176, 22.335786]]}}, {"type": "Feature", "properties": {"id": "ghost_YL1315_20240626121248", "plate_no": "YL1315", "gap_start_time": "2024-06-26T12:12:48", "gap_end_time": "2024-06-26T15:00:49", "gap_duration_min": 168.02, "wasted_distance_km": 3.663, "prev_trip": "DA240626030511", "next_trip": "DA240626003201", "prev_O": [114.1908047, 22.2754598], "next_O": [114.1734921, 22.2726294]}, "geometry": {"type": "LineString", "coordinates": [[114.19998, 22.292386], [114.171941, 22.272093]]}}, {"type": "Feature", "properties": {"id": "ghost_YL1315_20240626150819", "plate_no": "YL1315", "gap_start_time": "2024-06-26T15:08:19", "gap_end_time": "2024-06-26T16:30:33", "gap_duration_min": 82.23, "wasted_distance_km": 0.204, "prev_trip": "DA240626003201", "next_trip": "DA240626003202", "prev_O": [114.1734921, 22.2726294], "next_O": [114.1734921, 22.2726294]}, "geometry": {"type": "LineString", "coordinates": [[114.175026, 22.273673], [114.173336, 22.272713]]}}, {"type": "Feature", "properties": {"id": "ghost_YL1345_20240626101759", "plate_no": "YL1345", "gap_start_time": "2024-06-26T10:17:59", "gap_end_time": "2024-06-26T12:45:27", "gap_duration_min": 147.47, "wasted_distance_km": 5.49, "prev_trip": "DA240626020001", "next_trip": "DA240626028211", "prev_O": [114.1910075, 22.3429899], "next_O": [114.230334, 22.307947]}, "geometry": {"type": "LineString", "coordinates": [[114.178183, 22.317488], [114.23057, 22.308043]]}}, {"type": "Feature", "properties": {"id": "ghost_YL1792_20240626152452", "plate_no": "YL1792", "gap_start_time": "2024-06-26T15:24:52", "gap_end_time": "2024-06-26T16:35:21", "gap_duration_min": 70.48, "wasted_distance_km": 0.382, "prev_trip": "DA240626001311", "next_trip": "DA240626001402", "prev_O": [114.1734816, 22.2725317], "next_O": [114.1734816, 22.2725317]}, "geometry": {"type": "LineString", "coordinates": [[114.174775, 22.276836], [114.177106, 22.274163]]}}, {"type": "Feature", "properties": {"id": "ghost_YL6700_20240626102143", "plate_no": "YL6700", "gap_start_time": "2024-06-26T10:21:43", "gap_end_time": "2024-06-26T12:30:14", "gap_duration_min": 128.52, "wasted_distance_km": 0.214, "prev_trip": "DA240626018411", "next_trip": "DA240626018511", "prev_O": [114.2028038, 22.4017167], "next_O": [114.1716857, 22.3301776]}, "geometry": {"type": "LineString", "coordinates": [[114.171025, 22.331288], [114.172025, 22.329598]]}}, {"type": "Feature", "properties": {"id": "ghost_YL6700_20240626125740", "plate_no": "YL6700", "gap_start_time": "2024-06-26T12:57:40", "gap_end_time": "2024-06-26T15:45:23", "gap_duration_min": 167.72, "wasted_distance_km": 6.425, "prev_trip": "DA240626018511", "next_trip": "DA240626008402", "prev_O": [114.1716857, 22.3301776], "next_O": [114.1754722, 22.4530181]}, "geometry": {"type": "LineString", "coordinates": [[114.203211, 22.40108], [114.175351, 22.452806]]}}, {"type": "Feature", "properties": {"id": "ghost_YL7929_20240626120428", "plate_no": "YL7929", "gap_start_time": "2024-06-26T12:04:28", "gap_end_time": "2024-06-26T15:00:26", "gap_duration_min": 175.97, "wasted_distance_km": 2.317, "prev_trip": "DA240626022511", "next_trip": "DA240626022711", "prev_O": [114.1931097, 22.288884], "next_O": [114.1621408, 22.2826412]}, "geometry": {"type": "LineString", "coordinates": [[114.184783, 22.282403], [114.162268, 22.282895]]}}, {"type": "Feature", "properties": {"id": "ghost_YL9716_20240626081159", "plate_no": "YL9716", "gap_start_time": "2024-06-26T08:11:59", "gap_end_time": "2024-06-26T12:15:20", "gap_duration_min": 243.35, "wasted_distance_km": 4.864, "prev_trip": "DA240626003101", "next_trip": "DA240626021902", "prev_O": [114.17302, 22.2774003], "next_O": [114.1257917, 22.2819969]}, "geometry": {"type": "LineString", "coordinates": [[114.17269, 22.276246], [114.1259, 22.28246]]}}, {"type": "Feature", "properties": {"id": "ghost_YL9716_20240626123750", "plate_no": "YL9716", "gap_start_time": "2024-06-26T12:37:50", "gap_end_time": "2024-06-26T13:45:12", "gap_duration_min": 67.37, "wasted_distance_km": 1.02, "prev_trip": "DA240626021902", "next_trip": "DA240626024801", "prev_O": [114.1257917, 22.2819969], "next_O": [114.1553149, 22.2409917]}, "geometry": {"type": "LineString", "coordinates": [[114.153811, 22.249635], [114.155306, 22.240568]]}}, {"type": "Feature", "properties": {"id": "ghost_YY7490_20240626102300", "plate_no": "YY7490", "gap_start_time": "2024-06-26T10:23:00", "gap_end_time": "2024-06-26T14:15:16", "gap_duration_min": 232.27, "wasted_distance_km": 9.918, "prev_trip": "DA240626048301", "next_trip": "DA240626009701", "prev_O": [114.14934, 22.24465], "next_O": [114.2518599, 22.2626752]}, "geometry": {"type": "LineString", "coordinates": [[114.155698, 22.249055], [114.250335, 22.265911]]}}, {"type": "Feature", "properties": {"id": "ghost_YY7621_20240626145748", "plate_no": "YY7621", "gap_start_time": "2024-06-26T14:57:48", "gap_end_time": "2024-06-26T16:21:18", "gap_duration_min": 83.5, "wasted_distance_km": 0.853, "prev_trip": "DA240626000202", "next_trip": "DA240626000302", "prev_O": [114.1283333, 22.3458333], "next_O": [114.1283333, 22.3458333]}, "geometry": {"type": "LineString", "coordinates": [[114.131808, 22.35305], [114.126593, 22.34709]]}}, {"type": "Feature", "properties": {"id": "ghost_ZA2376_20240626083050", "plate_no": "ZA2376", "gap_start_time": "2024-06-26T08:30:50", "gap_end_time": "2024-06-26T09:01:21", "gap_duration_min": 30.52, "wasted_distance_km": 0.726, "prev_trip": "DA240626002701", "next_trip": "DA240626048401", "prev_O": [114.1890105, 22.3079943], "next_O": [114.208935, 22.341343]}, "geometry": {"type": "LineString", "coordinates": [[114.213175, 22.335975], [114.207915, 22.340331]]}}, {"type": "Feature", "properties": {"id": "ghost_ZA3650_20240626124150", "plate_no": "ZA3650", "gap_start_time": "2024-06-26T12:41:50", "gap_end_time": "2024-06-26T15:45:29", "gap_duration_min": 183.65, "wasted_distance_km": 2.094, "prev_trip": "DA240626026902", "next_trip": "DA240626007002", "prev_O": [114.2303424, 22.3079333], "next_O": [114.2253505, 22.2821867]}, "geometry": {"type": "LineString", "coordinates": [[114.238218, 22.29589], [114.227828, 22.2797]]}}, {"type": "Feature", "properties": {"id": "ghost_ZA3650_20240626154829", "plate_no": "ZA3650", "gap_start_time": "2024-06-26T15:48:29", "gap_end_time": "2024-06-26T16:15:29", "gap_duration_min": 27.0, "wasted_distance_km": 1.873, "prev_trip": "DA240626007002", "next_trip": "DA240626020802", "prev_O": [114.2253505, 22.2821867], "next_O": [114.2362653, 22.2695993]}, "geometry": {"type": "LineString", "coordinates": [[114.224728, 22.281808], [114.236848, 22.269235]]}}, {"type": "Feature", "properties": {"id": "ghost_ZA3805_20240626102510", "plate_no": "ZA3805", "gap_start_time": "2024-06-26T10:25:10", "gap_end_time": "2024-06-26T12:00:13", "gap_duration_min": 95.05, "wasted_distance_km": 0.289, "prev_trip": "DA240626040201", "next_trip": "DA240626040202", "prev_O": [114.1942585, 22.3864175], "next_O": [114.1715708, 22.3354862]}, "geometry": {"type": "LineString", "coordinates": [[114.174795, 22.336578], [114.172178, 22.335638]]}}, {"type": "Feature", "properties": {"id": "ghost_ZA3805_20240626123217", "plate_no": "ZA3805", "gap_start_time": "2024-06-26T12:32:17", "gap_end_time": "2024-06-26T17:30:29", "gap_duration_min": 298.2, "wasted_distance_km": 22.935, "prev_trip": "DA240626040202", "next_trip": "DA240626029902", "prev_O": [114.1715708, 22.3354862], "next_O": [113.9718147, 22.4042331]}, "geometry": {"type": "LineString", "coordinates": [[114.19412, 22.386083], [113.971848, 22.403633]]}}, {"type": "Feature", "properties": {"id": "ghost_ZA4388_20240626091720", "plate_no": "ZA4388", "gap_start_time": "2024-06-26T09:17:20", "gap_end_time": "2024-06-26T13:30:05", "gap_duration_min": 252.75, "wasted_distance_km": 7.303, "prev_trip": "DA240626018111", "next_trip": "DA240626004702", "prev_O": [114.1909836, 22.2867373], "next_O": [114.1705215, 22.301755]}, "geometry": {"type": "LineString", "coordinates": [[114.233286, 22.27154], [114.17066, 22.302458]]}}, {"type": "Feature", "properties": {"id": "ghost_ZA4388_20240626143442", "plate_no": "ZA4388", "gap_start_time": "2024-06-26T14:34:42", "gap_end_time": "2024-06-26T17:00:27", "gap_duration_min": 145.75, "wasted_distance_km": 2.045, "prev_trip": "DA240626004702", "next_trip": "DA240626038102", "prev_O": [114.1705215, 22.301755], "next_O": [114.1246908, 22.4968697]}, "geometry": {"type": "LineString", "coordinates": [[114.141071, 22.485663], [114.12512, 22.496663]]}}, {"type": "Feature", "properties": {"id": "ghost_ZB3274_20240626113704", "plate_no": "ZB3274", "gap_start_time": "2024-06-26T11:37:04", "gap_end_time": "2024-06-26T13:30:16", "gap_duration_min": 113.2, "wasted_distance_km": 8.391, "prev_trip": "DA240626045102", "next_trip": "DA240626045411", "prev_O": [114.1244169, 22.2698782], "next_O": [114.1464621, 22.2863197]}, "geometry": {"type": "LineString", "coordinates": [[114.227231, 22.277673], [114.146206, 22.28627]]}}, {"type": "Feature", "properties": {"id": "ghost_ZB3274_20240626133616", "plate_no": "ZB3274", "gap_start_time": "2024-06-26T13:36:16", "gap_end_time": "2024-06-26T15:30:03", "gap_duration_min": 113.78, "wasted_distance_km": 5.312, "prev_trip": "DA240626045411", "next_trip": "DA240626030802", "prev_O": [114.1464621, 22.2863197], "next_O": [114.1757239, 22.2466607]}, "geometry": {"type": "LineString", "coordinates": [[114.144113, 22.286871], [114.173938, 22.247881]]}}]}