{"type": "FeatureCollection", "features": [{"type": "Feature", "properties": {"id": "ghost_RV4210_20240615084649", "plate_no": "RV4210", "gap_start_time": "2024-06-15T08:46:49", "gap_end_time": "2024-06-15T15:30:00", "gap_duration_min": 403.18, "wasted_distance_km": 5.95, "prev_trip": "DA240615007201", "next_trip": "DA240615032201", "prev_O": [114.1225225, 22.3665044], "next_O": [114.1987866, 22.3804483]}, "geometry": {"type": "LineString", "coordinates": [[114.168338, 22.334708], [114.198835, 22.380178]]}}, {"type": "Feature", "properties": {"id": "ghost_RV4210_20240615154930", "plate_no": "RV4210", "gap_start_time": "2024-06-15T15:49:30", "gap_end_time": "2024-06-15T17:30:47", "gap_duration_min": 101.28, "wasted_distance_km": 0.172, "prev_trip": "DA240615032201", "next_trip": "DA240615032202", "prev_O": [114.1987866, 22.3804483], "next_O": [114.1779606, 22.3262111]}, "geometry": {"type": "LineString", "coordinates": [[114.178633, 22.32737], [114.177023, 22.32695]]}}, {"type": "Feature", "properties": {"id": "ghost_RV4356_20240615124428", "plate_no": "RV4356", "gap_start_time": "2024-06-15T12:44:28", "gap_end_time": "2024-06-15T17:35:35", "gap_duration_min": 291.12, "wasted_distance_km": 26.155, "prev_trip": "DA240615026702", "next_trip": "DA240615026311", "prev_O": [114.172385, 22.299183], "next_O": [113.9352688, 22.3156619]}, "geometry": {"type": "LineString", "coordinates": [[114.180726, 22.380445], [113.93732, 22.312275]]}}, {"type": "Feature", "properties": {"id": "ghost_RV7493_20240615122400", "plate_no": "RV7493", "gap_start_time": "2024-06-15T12:24:00", "gap_end_time": "2024-06-15T17:00:19", "gap_duration_min": 276.32, "wasted_distance_km": 1.886, "prev_trip": "DA240615020502", "next_trip": "DA240615003211", "prev_O": [114.2014802, 22.3820272], "next_O": [114.1941178, 22.2884225]}, "geometry": {"type": "LineString", "coordinates": [[114.18841, 22.301846], [114.193671, 22.285603]]}}, {"type": "Feature", "properties": {"id": "ghost_RX2070_20240615065627", "plate_no": "RX2070", "gap_start_time": "2024-06-15T06:56:27", "gap_end_time": "2024-06-15T08:00:23", "gap_duration_min": 63.93, "wasted_distance_km": 4.994, "prev_trip": "DA240615012811", "next_trip": "DA240615007811", "prev_O": [114.2018517, 22.3360239], "next_O": [114.199536, 22.350784]}, "geometry": {"type": "LineString", "coordinates": [[114.172575, 22.314615], [114.200123, 22.351601]]}}, {"type": "Feature", "properties": {"id": "ghost_RX2070_20240615082427", "plate_no": "RX2070", "gap_start_time": "2024-06-15T08:24:27", "gap_end_time": "2024-06-15T10:45:11", "gap_duration_min": 140.73, "wasted_distance_km": 0.647, "prev_trip": "DA240615007811", "next_trip": "DA240615011702", "prev_O": [114.199536, 22.350784], "next_O": [114.17099, 22.312405]}, "geometry": {"type": "LineString", "coordinates": [[114.175423, 22.308495], [114.170591, 22.312213]]}}, {"type": "Feature", "properties": {"id": "ghost_TD4705_20240615092332", "plate_no": "TD4705", "gap_start_time": "2024-06-15T09:23:32", "gap_end_time": "2024-06-15T15:00:21", "gap_duration_min": 336.82, "wasted_distance_km": 15.991, "prev_trip": "DA240615006501", "next_trip": "DA240615018111", "prev_O": [114.1245247, 22.2709886], "next_O": [114.195006, 22.378829]}, "geometry": {"type": "LineString", "coordinates": [[114.149543, 22.24207], [114.199665, 22.378201]]}}, {"type": "Feature", "properties": {"id": "ghost_TD7860_20240615101606", "plate_no": "TD7860", "gap_start_time": "2024-06-15T10:16:06", "gap_end_time": "2024-06-15T12:30:43", "gap_duration_min": 134.62, "wasted_distance_km": 2.208, "prev_trip": "DA240615008801", "next_trip": "DA240615010002", "prev_O": [114.185621, 22.3275253], "next_O": [114.1699836, 22.3134964]}, "geometry": {"type": "LineString", "coordinates": [[114.162781, 22.3325], [114.169535, 22.31365]]}}, {"type": "Feature", "properties": {"id": "ghost_TV9732_20240615094452", "plate_no": "TV9732", "gap_start_time": "2024-06-15T09:44:52", "gap_end_time": "2024-06-15T10:30:52", "gap_duration_min": 46.0, "wasted_distance_km": 3.707, "prev_trip": "DA240615026701", "next_trip": "DA240615026211", "prev_O": [114.1808597, 22.3802319], "next_O": [114.1675766, 22.3389067]}, "geometry": {"type": "LineString", "coordinates": [[114.170151, 22.303105], [114.169155, 22.336433]]}}, {"type": "Feature", "properties": {"id": "ghost_TV9732_20240615104052", "plate_no": "TV9732", "gap_start_time": "2024-06-15T10:40:52", "gap_end_time": "2024-06-15T12:59:26", "gap_duration_min": 138.57, "wasted_distance_km": 3.665, "prev_trip": "DA240615026211", "next_trip": "DA240615002211", "prev_O": [114.1675766, 22.3389067], "next_O": [114.1807853, 22.3711896]}, "geometry": {"type": "LineString", "coordinates": [[114.187905, 22.33854], [114.179876, 22.37065]]}}, {"type": "Feature", "properties": {"id": "ghost_TW274_20240615135044", "plate_no": "TW274", "gap_start_time": "2024-06-15T13:50:44", "gap_end_time": "2024-06-15T15:35:13", "gap_duration_min": 104.48, "wasted_distance_km": 7.469, "prev_trip": "DA240615020901", "next_trip": "DA240615004402", "prev_O": [114.2642247, 22.3155765], "next_O": [114.257666, 22.312751]}, "geometry": {"type": "LineString", "coordinates": [[114.193501, 22.343596], [114.257601, 22.312031]]}}, {"type": "Feature", "properties": {"id": "ghost_TY3130_20240615080113", "plate_no": "TY3130", "gap_start_time": "2024-06-15T08:01:13", "gap_end_time": "2024-06-15T14:30:54", "gap_duration_min": 389.68, "wasted_distance_km": 9.051, "prev_trip": "DA240615000401", "next_trip": "DA240615007302", "prev_O": [114.1266489, 22.3476314], "next_O": [114.2084331, 22.3199795]}, "geometry": {"type": "LineString", "coordinates": [[114.126748, 22.347856], [114.209128, 22.319241]]}}, {"type": "Feature", "properties": {"id": "ghost_TY3130_20240615151554", "plate_no": "TY3130", "gap_start_time": "2024-06-15T15:15:54", "gap_end_time": "2024-06-15T16:00:55", "gap_duration_min": 45.02, "wasted_distance_km": 12.975, "prev_trip": "DA240615007302", "next_trip": "DA240615030202", "prev_O": [114.2084331, 22.3199795], "next_O": [114.1669634, 22.4482415]}, "geometry": {"type": "LineString", "coordinates": [[114.180965, 22.33403], [114.167243, 22.450021]]}}, {"type": "Feature", "properties": {"id": "ghost_TY3250_20240615121825", "plate_no": "TY3250", "gap_start_time": "2024-06-15T12:18:25", "gap_end_time": "2024-06-15T16:40:05", "gap_duration_min": 261.67, "wasted_distance_km": 11.252, "prev_trip": "DA240615007001", "next_trip": "DA240615021402", "prev_O": [114.233113, 22.306994], "next_O": [114.2113817, 22.4136093]}, "geometry": {"type": "LineString", "coordinates": [[114.260553, 22.32285], [114.211375, 22.413245]]}}, {"type": "Feature", "properties": {"id": "ghost_TY3250_20240615172305", "plate_no": "TY3250", "gap_start_time": "2024-06-15T17:23:05", "gap_end_time": "2024-06-15T18:45:05", "gap_duration_min": 82.0, "wasted_distance_km": 0.392, "prev_trip": "DA240615021402", "next_trip": "DA240615023011", "prev_O": [114.2113817, 22.4136093], "next_O": [114.1977586, 22.2904115]}, "geometry": {"type": "LineString", "coordinates": [[114.197198, 22.28718], [114.197575, 22.29069]]}}, {"type": "Feature", "properties": {"id": "ghost_TY3864_20240615141450", "plate_no": "TY3864", "gap_start_time": "2024-06-15T14:14:50", "gap_end_time": "2024-06-15T15:15:20", "gap_duration_min": 60.5, "wasted_distance_km": 7.706, "prev_trip": "DA240615023401", "next_trip": "DA240615028302", "prev_O": [114.0221231, 22.4380129], "next_O": [114.225222, 22.312401]}, "geometry": {"type": "LineString", "coordinates": [[114.156903, 22.335051], [114.227518, 22.311905]]}}, {"type": "Feature", "properties": {"id": "ghost_UL4469_20240615113513", "plate_no": "UL4469", "gap_start_time": "2024-06-15T11:35:13", "gap_end_time": "2024-06-15T16:46:21", "gap_duration_min": 311.13, "wasted_distance_km": 15.067, "prev_trip": "DA240615030201", "next_trip": "DA240615030002", "prev_O": [114.1203858, 22.3670155], "next_O": [114.17099, 22.312405]}, "geometry": {"type": "LineString", "coordinates": [[114.166428, 22.448133], [114.168611, 22.312643]]}}, {"type": "Feature", "properties": {"id": "ghost_UL4469_20240615170251", "plate_no": "UL4469", "gap_start_time": "2024-06-15T17:02:51", "gap_end_time": "2024-06-15T17:30:11", "gap_duration_min": 27.33, "wasted_distance_km": 1.106, "prev_trip": "DA240615030002", "next_trip": "DA240615008902", "prev_O": [114.17099, 22.312405], "next_O": [114.1276184, 22.359483]}, "geometry": {"type": "LineString", "coordinates": [[114.129868, 22.349738], [114.126755, 22.359255]]}}, {"type": "Feature", "properties": {"id": "ghost_UL4469_20240615175741", "plate_no": "UL4469", "gap_start_time": "2024-06-15T17:57:41", "gap_end_time": "2024-06-15T18:30:11", "gap_duration_min": 32.5, "wasted_distance_km": 1.916, "prev_trip": "DA240615008902", "next_trip": "DA240615021711", "prev_O": [114.1276184, 22.359483], "next_O": [114.1985124, 22.3742141]}, "geometry": {"type": "LineString", "coordinates": [[114.206341, 22.390331], [114.198376, 22.374756]]}}, {"type": "Feature", "properties": {"id": "ghost_UL6685_20240615152233", "plate_no": "UL6685", "gap_start_time": "2024-06-15T15:22:33", "gap_end_time": "2024-06-15T16:30:25", "gap_duration_min": 67.87, "wasted_distance_km": 7.223, "prev_trip": "DA240615008002", "next_trip": "DA240615027202", "prev_O": [114.1675891, 22.3073197], "next_O": [114.0412819, 22.3129666]}, "geometry": {"type": "LineString", "coordinates": [[114.107635, 22.343001], [114.04389, 22.31575]]}}, {"type": "Feature", "properties": {"id": "ghost_UM5134_20240615124801", "plate_no": "UM5134", "gap_start_time": "2024-06-15T12:48:01", "gap_end_time": "2024-06-15T13:46:09", "gap_duration_min": 58.13, "wasted_distance_km": 5.751, "prev_trip": "DA240615028901", "next_trip": "DA240615024911", "prev_O": [114.2415109, 22.4276355], "next_O": [114.2314804, 22.4191167]}, "geometry": {"type": "LineString", "coordinates": [[114.220561, 22.470571], [114.232105, 22.419966]]}}, {"type": "Feature", "properties": {"id": "ghost_UN9790_20240615140103", "plate_no": "UN9790", "gap_start_time": "2024-06-15T14:01:03", "gap_end_time": "2024-06-15T17:00:17", "gap_duration_min": 179.23, "wasted_distance_km": 15.495, "prev_trip": "DA240615020111", "next_trip": "DA240615028902", "prev_O": [114.1083574, 22.3559598], "next_O": [114.2217049, 22.4696203]}, "geometry": {"type": "LineString", "coordinates": [[114.110608, 22.375571], [114.221638, 22.469828]]}}, {"type": "Feature", "properties": {"id": "ghost_UP6525_20240615113551", "plate_no": "UP6525", "gap_start_time": "2024-06-15T11:35:51", "gap_end_time": "2024-06-15T16:32:09", "gap_duration_min": 296.3, "wasted_distance_km": 5.13, "prev_trip": "DA240615024111", "next_trip": "DA240615002311", "prev_O": [114.211883, 22.2854455], "next_O": [114.1941178, 22.2884225]}, "geometry": {"type": "LineString", "coordinates": [[114.23712, 22.265135], [114.196203, 22.291491]]}}, {"type": "Feature", "properties": {"id": "ghost_VD4748_20240615091043", "plate_no": "VD4748", "gap_start_time": "2024-06-15T09:10:43", "gap_end_time": "2024-06-15T13:00:26", "gap_duration_min": 229.72, "wasted_distance_km": 0.782, "prev_trip": "DA240615011701", "next_trip": "DA240615012211", "prev_O": [114.259342, 22.3234915], "next_O": [114.1676248, 22.3069524]}, "geometry": {"type": "LineString", "coordinates": [[114.172176, 22.31404], [114.167681, 22.30837]]}}, {"type": "Feature", "properties": {"id": "ghost_VD6128_20240615082710", "plate_no": "VD6128", "gap_start_time": "2024-06-15T08:27:10", "gap_end_time": "2024-06-15T12:30:15", "gap_duration_min": 243.08, "wasted_distance_km": 7.378, "prev_trip": "DA240615002001", "next_trip": "DA240615006202", "prev_O": [114.23134, 22.42554], "next_O": [114.1717909, 22.3154728]}, "geometry": {"type": "LineString", "coordinates": [[114.200491, 22.377866], [114.173651, 22.316328]]}}, {"type": "Feature", "properties": {"id": "ghost_VE6920_20240615105401", "plate_no": "VE6920", "gap_start_time": "2024-06-15T10:54:01", "gap_end_time": "2024-06-15T13:20:26", "gap_duration_min": 146.42, "wasted_distance_km": 7.4, "prev_trip": "DA240615007501", "next_trip": "DA240615005701", "prev_O": [114.1810837, 22.3344618], "next_O": [114.274778, 22.2967206]}, "geometry": {"type": "LineString", "coordinates": [[114.208915, 22.32193], [114.275148, 22.295955]]}}, {"type": "Feature", "properties": {"id": "ghost_VE7344_20240615142952", "plate_no": "VE7344", "gap_start_time": "2024-06-15T14:29:52", "gap_end_time": "2024-06-15T15:00:22", "gap_duration_min": 30.5, "wasted_distance_km": 6.342, "prev_trip": "DA240615001801", "next_trip": "DA240615032102", "prev_O": [114.167768, 22.307253], "next_O": [114.1261909, 22.3574339]}, "geometry": {"type": "LineString", "coordinates": [[114.172488, 22.320186], [114.126438, 22.358113]]}}, {"type": "Feature", "properties": {"id": "ghost_VE7538_20240615103702", "plate_no": "VE7538", "gap_start_time": "2024-06-15T10:37:02", "gap_end_time": "2024-06-15T16:30:25", "gap_duration_min": 353.38, "wasted_distance_km": 3.555, "prev_trip": "DA240615023111", "next_trip": "DA240615003011", "prev_O": [114.2343596, 22.3128412], "next_O": [114.1941178, 22.2884225]}, "geometry": {"type": "LineString", "coordinates": [[114.169611, 22.309736], [114.195253, 22.288301]]}}, {"type": "Feature", "properties": {"id": "ghost_VV6972_20240615090838", "plate_no": "VV6972", "gap_start_time": "2024-06-15T09:08:38", "gap_end_time": "2024-06-15T10:30:47", "gap_duration_min": 82.15, "wasted_distance_km": 0.86, "prev_trip": "DA240615021501", "next_trip": "DA240615032701", "prev_O": [114.1779371, 22.373728], "next_O": [114.1985079, 22.3742152]}, "geometry": {"type": "LineString", "coordinates": [[114.203538, 22.38035], [114.198868, 22.373935]]}}, {"type": "Feature", "properties": {"id": "ghost_VV6972_20240615104317", "plate_no": "VV6972", "gap_start_time": "2024-06-15T10:43:17", "gap_end_time": "2024-06-15T13:30:17", "gap_duration_min": 167.0, "wasted_distance_km": 0.265, "prev_trip": "DA240615032701", "next_trip": "DA240615032702", "prev_O": [114.1985079, 22.3742152], "next_O": [114.1886372, 22.3817578]}, "geometry": {"type": "LineString", "coordinates": [[114.187621, 22.3809], [114.189316, 22.38269]]}}, {"type": "Feature", "properties": {"id": "ghost_VV7298_20240615085750", "plate_no": "VV7298", "gap_start_time": "2024-06-15T08:57:50", "gap_end_time": "2024-06-15T09:46:21", "gap_duration_min": 48.52, "wasted_distance_km": 6.037, "prev_trip": "DA240615017411", "next_trip": "DA240615020011", "prev_O": [114.1876552, 22.3413644], "next_O": [114.2673757, 22.316289]}, "geometry": {"type": "LineString", "coordinates": [[114.209035, 22.32231], [114.267401, 22.316591]]}}, {"type": "Feature", "properties": {"id": "ghost_VV7298_20240615100320", "plate_no": "VV7298", "gap_start_time": "2024-06-15T10:03:20", "gap_end_time": "2024-06-15T15:30:27", "gap_duration_min": 327.12, "wasted_distance_km": 7.506, "prev_trip": "DA240615020011", "next_trip": "DA240615006702", "prev_O": [114.2673757, 22.316289], "next_O": [114.1788626, 22.3124067]}, "geometry": {"type": "LineString", "coordinates": [[114.252996, 22.306915], [114.180201, 22.311491]]}}, {"type": "Feature", "properties": {"id": "ghost_VW3047_20240615093750", "plate_no": "VW3047", "gap_start_time": "2024-06-15T09:37:50", "gap_end_time": "2024-06-15T10:00:20", "gap_duration_min": 22.5, "wasted_distance_km": 2.342, "prev_trip": "DA240615004301", "next_trip": "DA240615009402", "prev_O": [114.1394532, 22.3355572], "next_O": [114.1337709, 22.3417046]}, "geometry": {"type": "LineString", "coordinates": [[114.15628, 22.335508], [114.134331, 22.341108]]}}, {"type": "Feature", "properties": {"id": "ghost_VW3047_20240615101520", "plate_no": "VW3047", "gap_start_time": "2024-06-15T10:15:20", "gap_end_time": "2024-06-15T14:45:27", "gap_duration_min": 270.12, "wasted_distance_km": 3.001, "prev_trip": "DA240615009402", "next_trip": "DA240615000402", "prev_O": [114.1337709, 22.3417046], "next_O": [114.1283333, 22.3458333]}, "geometry": {"type": "LineString", "coordinates": [[114.10338, 22.360533], [114.12822, 22.346361]]}}, {"type": "Feature", "properties": {"id": "ghost_VW3047_20240615151127", "plate_no": "VW3047", "gap_start_time": "2024-06-15T15:11:27", "gap_end_time": "2024-06-15T16:15:27", "gap_duration_min": 64.0, "wasted_distance_km": 1.001, "prev_trip": "DA240615000402", "next_trip": "DA240615000502", "prev_O": [114.1283333, 22.3458333], "next_O": [114.1283333, 22.3458333]}, "geometry": {"type": "LineString", "coordinates": [[114.131203, 22.354421], [114.126055, 22.346785]]}}, {"type": "Feature", "properties": {"id": "ghost_VW4627_20240615091126", "plate_no": "VW4627", "gap_start_time": "2024-06-15T09:11:26", "gap_end_time": "2024-06-15T09:51:55", "gap_duration_min": 40.48, "wasted_distance_km": 5.02, "prev_trip": "DA240615029311", "next_trip": "DA240615027801", "prev_O": [113.9681892, 22.3867329], "next_O": [114.1613893, 22.3031927]}, "geometry": {"type": "LineString", "coordinates": [[114.188433, 22.340626], [114.160166, 22.303825]]}}, {"type": "Feature", "properties": {"id": "ghost_VW8372_20240615102254", "plate_no": "VW8372", "gap_start_time": "2024-06-15T10:22:54", "gap_end_time": "2024-06-15T13:10:20", "gap_duration_min": 167.43, "wasted_distance_km": 6.06, "prev_trip": "DA240615007701", "next_trip": "DA240615012011", "prev_O": [114.2699115, 22.2968596], "next_O": [114.2261179, 22.2773119]}, "geometry": {"type": "LineString", "coordinates": [[114.175638, 22.30666], [114.226268, 22.27881]]}}, {"type": "Feature", "properties": {"id": "ghost_VW871_20240615084637", "plate_no": "VW871", "gap_start_time": "2024-06-15T08:46:37", "gap_end_time": "2024-06-15T10:15:09", "gap_duration_min": 88.53, "wasted_distance_km": 1.541, "prev_trip": "DA240615030801", "next_trip": "DA240615032611", "prev_O": [114.1809256, 22.3814192], "next_O": [114.2028038, 22.4017167]}, "geometry": {"type": "LineString", "coordinates": [[114.211456, 22.413163], [114.202566, 22.402]]}}, {"type": "Feature", "properties": {"id": "ghost_VW871_20240615103138", "plate_no": "VW871", "gap_start_time": "2024-06-15T10:31:38", "gap_end_time": "2024-06-15T15:15:08", "gap_duration_min": 283.5, "wasted_distance_km": 15.522, "prev_trip": "DA240615032611", "next_trip": "DA240615021602", "prev_O": [114.2028038, 22.4017167], "next_O": [114.1100738, 22.5021813]}, "geometry": {"type": "LineString", "coordinates": [[114.191916, 22.384113], [114.111233, 22.502118]]}}, {"type": "Feature", "properties": {"id": "ghost_VW871_20240615154736", "plate_no": "VW871", "gap_start_time": "2024-06-15T15:47:36", "gap_end_time": "2024-06-15T16:50:34", "gap_duration_min": 62.97, "wasted_distance_km": 1.121, "prev_trip": "DA240615021602", "next_trip": "DA240615027511", "prev_O": [114.1100738, 22.5021813], "next_O": [114.1961559, 22.3349091]}, "geometry": {"type": "LineString", "coordinates": [[114.20833, 22.334358], [114.197485, 22.335383]]}}, {"type": "Feature", "properties": {"id": "ghost_VX2887_20240615091441", "plate_no": "VX2887", "gap_start_time": "2024-06-15T09:14:41", "gap_end_time": "2024-06-15T10:00:11", "gap_duration_min": 45.5, "wasted_distance_km": 7.202, "prev_trip": "DA240615012401", "next_trip": "DA240615018801", "prev_O": [114.199602, 22.350058], "next_O": [114.2572761, 22.3074503]}, "geometry": {"type": "LineString", "coordinates": [[114.192468, 22.331345], [114.257815, 22.308085]]}}, {"type": "Feature", "properties": {"id": "ghost_VY5967_20240615085643", "plate_no": "VY5967", "gap_start_time": "2024-06-15T08:56:43", "gap_end_time": "2024-06-15T10:15:08", "gap_duration_min": 78.42, "wasted_distance_km": 8.706, "prev_trip": "DA240615015211", "next_trip": "DA240615011211", "prev_O": [113.9701755, 22.4035088], "next_O": [114.1786768, 22.3122616]}, "geometry": {"type": "LineString", "coordinates": [[114.19789, 22.38894], [114.180128, 22.31239]]}}, {"type": "Feature", "properties": {"id": "ghost_VY5967_20240615102508", "plate_no": "VY5967", "gap_start_time": "2024-06-15T10:25:08", "gap_end_time": "2024-06-15T14:30:50", "gap_duration_min": 245.7, "wasted_distance_km": 3.494, "prev_trip": "DA240615011211", "next_trip": "DA240615007502", "prev_O": [114.1786768, 22.3122616], "next_O": [114.2084331, 22.3199795]}, "geometry": {"type": "LineString", "coordinates": [[114.174906, 22.317753], [114.208833, 22.319256]]}}, {"type": "Feature", "properties": {"id": "ghost_WP1681_20240615093815", "plate_no": "WP1681", "gap_start_time": "2024-06-15T09:38:15", "gap_end_time": "2024-06-15T10:30:24", "gap_duration_min": 52.15, "wasted_distance_km": 5.439, "prev_trip": "DA240615001901", "next_trip": "DA240615007301", "prev_O": [114.1786768, 22.3729477], "next_O": [114.1808137, 22.3344106]}, "geometry": {"type": "LineString", "coordinates": [[114.198771, 22.380205], [114.181033, 22.334125]]}}, {"type": "Feature", "properties": {"id": "ghost_WP1681_20240615104454", "plate_no": "WP1681", "gap_start_time": "2024-06-15T10:44:54", "gap_end_time": "2024-06-15T15:04:05", "gap_duration_min": 259.18, "wasted_distance_km": 6.572, "prev_trip": "DA240615007301", "next_trip": "DA240615002002", "prev_O": [114.1808137, 22.3344106], "next_O": [114.1987643, 22.3804685]}, "geometry": {"type": "LineString", "coordinates": [[114.208843, 22.321853], [114.198753, 22.380213], [114.198753, 22.380213]]}}, {"type": "Feature", "properties": {"id": "ghost_WP3890_20240615103149", "plate_no": "WP3890", "gap_start_time": "2024-06-15T10:31:49", "gap_end_time": "2024-06-15T12:45:02", "gap_duration_min": 133.22, "wasted_distance_km": 4.478, "prev_trip": "DA240615003711", "next_trip": "DA240615023802", "prev_O": [114.1655039, 22.3323111], "next_O": [114.1466568, 22.2850671]}, "geometry": {"type": "LineString", "coordinates": [[114.190696, 22.285238], [114.147173, 22.285086]]}}, {"type": "Feature", "properties": {"id": "ghost_WP3890_20240615131002", "plate_no": "WP3890", "gap_start_time": "2024-06-15T13:10:02", "gap_end_time": "2024-06-15T17:45:13", "gap_duration_min": 275.18, "wasted_distance_km": 9.577, "prev_trip": "DA240615023802", "next_trip": "DA240615018002", "prev_O": [114.1466568, 22.2850671], "next_O": [114.1676299, 22.3246685]}, "geometry": {"type": "LineString", "coordinates": [[114.236775, 22.264391], [114.168931, 22.323363]]}}, {"type": "Feature", "properties": {"id": "ghost_WP3895_20240615060149", "plate_no": "WP3895", "gap_start_time": "2024-06-15T06:01:49", "gap_end_time": "2024-06-15T06:30:08", "gap_duration_min": 28.32, "wasted_distance_km": 3.31, "prev_trip": "DA240615013501", "next_trip": "DA240615010811", "prev_O": [114.2165038, 22.324664], "next_O": [114.1917521, 22.3405523]}, "geometry": {"type": "LineString", "coordinates": [[114.162686, 22.333465], [114.194626, 22.337125]]}}, {"type": "Feature", "properties": {"id": "ghost_WP3895_20240615065708", "plate_no": "WP3895", "gap_start_time": "2024-06-15T06:57:08", "gap_end_time": "2024-06-15T09:21:46", "gap_duration_min": 144.63, "wasted_distance_km": 4.087, "prev_trip": "DA240615010811", "next_trip": "DA240615004011", "prev_O": [114.1917521, 22.3405523], "next_O": [114.1650685, 22.2429469]}, "geometry": {"type": "LineString", "coordinates": [[114.17449, 22.278791], [114.164971, 22.243103]]}}, {"type": "Feature", "properties": {"id": "ghost_WP923_20240615100612", "plate_no": "WP923", "gap_start_time": "2024-06-15T10:06:12", "gap_end_time": "2024-06-15T12:20:07", "gap_duration_min": 133.92, "wasted_distance_km": 2.084, "prev_trip": "DA240615016001", "next_trip": "DA240615005902", "prev_O": [114.1942585, 22.3864175], "next_O": [114.1690896, 22.3165151]}, "geometry": {"type": "LineString", "coordinates": [[114.17208, 22.335631], [114.16916, 22.317088]]}}, {"type": "Feature", "properties": {"id": "ghost_WP923_20240615123807", "plate_no": "WP923", "gap_start_time": "2024-06-15T12:38:07", "gap_end_time": "2024-06-15T14:45:08", "gap_duration_min": 127.02, "wasted_distance_km": 10.325, "prev_trip": "DA240615005902", "next_trip": "DA240615017511", "prev_O": [114.1690896, 22.3165151], "next_O": [114.2077187, 22.3228659]}, "geometry": {"type": "LineString", "coordinates": [[114.117945, 22.362458], [114.208178, 22.321748]]}}, {"type": "Feature", "properties": {"id": "ghost_XE1886_20240615083910", "plate_no": "XE1886", "gap_start_time": "2024-06-15T08:39:10", "gap_end_time": "2024-06-15T09:30:10", "gap_duration_min": 51.0, "wasted_distance_km": 12.106, "prev_trip": "DA240615021601", "next_trip": "DA240615022501", "prev_O": [114.2059386, 22.3356397], "next_O": [114.1972308, 22.4277515]}, "geometry": {"type": "LineString", "coordinates": [[114.111105, 22.502101], [114.197021, 22.427611]]}}, {"type": "Feature", "properties": {"id": "ghost_XE1886_20240615094910", "plate_no": "XE1886", "gap_start_time": "2024-06-15T09:49:10", "gap_end_time": "2024-06-15T12:30:28", "gap_duration_min": 161.3, "wasted_distance_km": 17.743, "prev_trip": "DA240615022501", "next_trip": "DA240615014411", "prev_O": [114.1972308, 22.4277515], "next_O": [114.1665104, 22.3398313]}, "geometry": {"type": "LineString", "coordinates": [[114.129933, 22.495911], [114.166511, 22.339966]]}}, {"type": "Feature", "properties": {"id": "ghost_XE1886_20240615130515", "plate_no": "XE1886", "gap_start_time": "2024-06-15T13:05:15", "gap_end_time": "2024-06-15T15:10:27", "gap_duration_min": 125.2, "wasted_distance_km": 3.891, "prev_trip": "DA240615014411", "next_trip": "DA240615001902", "prev_O": [114.1665104, 22.3398313], "next_O": [114.1987643, 22.3804685]}, "geometry": {"type": "LineString", "coordinates": [[114.211491, 22.413095], [114.198681, 22.38017]]}}, {"type": "Feature", "properties": {"id": "ghost_XE7053_20240615095012", "plate_no": "XE7053", "gap_start_time": "2024-06-15T09:50:12", "gap_end_time": "2024-06-15T14:30:01", "gap_duration_min": 279.82, "wasted_distance_km": 4.402, "prev_trip": "DA240615016101", "next_trip": "DA240615007602", "prev_O": [114.1942585, 22.3864175], "next_O": [114.2084331, 22.3199795]}, "geometry": {"type": "LineString", "coordinates": [[114.168248, 22.334641], [114.208455, 22.321066]]}}, {"type": "Feature", "properties": {"id": "ghost_XE7053_20240615145301", "plate_no": "XE7053", "gap_start_time": "2024-06-15T14:53:01", "gap_end_time": "2024-06-15T15:45:01", "gap_duration_min": 52.0, "wasted_distance_km": 2.512, "prev_trip": "DA240615007602", "next_trip": "DA240615005211", "prev_O": [114.2084331, 22.3199795], "next_O": [114.2022798, 22.3436147]}, "geometry": {"type": "LineString", "coordinates": [[114.181056, 22.334165], [114.20281, 22.344436]]}}, {"type": "Feature", "properties": {"id": "ghost_XE7168_20240615091327", "plate_no": "XE7168", "gap_start_time": "2024-06-15T09:13:27", "gap_end_time": "2024-06-15T10:15:27", "gap_duration_min": 62.0, "wasted_distance_km": 2.54, "prev_trip": "DA240615026601", "next_trip": "DA240615022801", "prev_O": [114.2031521, 22.3335518], "next_O": [114.1888665, 22.3125821]}, "geometry": {"type": "LineString", "coordinates": [[114.181628, 22.333965], [114.189025, 22.312173]]}}, {"type": "Feature", "properties": {"id": "ghost_XE7898_20240615122421", "plate_no": "XE7898", "gap_start_time": "2024-06-15T12:24:21", "gap_end_time": "2024-06-15T13:30:07", "gap_duration_min": 65.77, "wasted_distance_km": 7.533, "prev_trip": "DA240615029801", "next_trip": "DA240615008001", "prev_O": [114.1944035, 22.4015094], "next_O": [114.1060175, 22.3439865]}, "geometry": {"type": "LineString", "coordinates": [[114.179363, 22.34033], [114.106231, 22.344016]]}}, {"type": "Feature", "properties": {"id": "ghost_XE7898_20240615135419", "plate_no": "XE7898", "gap_start_time": "2024-06-15T13:54:19", "gap_end_time": "2024-06-15T16:00:27", "gap_duration_min": 126.13, "wasted_distance_km": 12.574, "prev_trip": "DA240615008001", "next_trip": "DA240615019711", "prev_O": [114.1060175, 22.3439865], "next_O": [114.2113817, 22.4136093]}, "geometry": {"type": "LineString", "coordinates": [[114.167468, 22.307615], [114.211511, 22.413103]]}}, {"type": "Feature", "properties": {"id": "ghost_XE7898_20240615162057", "plate_no": "XE7898", "gap_start_time": "2024-06-15T16:20:57", "gap_end_time": "2024-06-15T17:00:27", "gap_duration_min": 39.5, "wasted_distance_km": 4.947, "prev_trip": "DA240615019711", "next_trip": "DA240615028802", "prev_O": [114.2113817, 22.4136093], "next_O": [114.2217049, 22.4696203]}, "geometry": {"type": "LineString", "coordinates": [[114.174841, 22.460823], [114.22205, 22.469533]]}}, {"type": "Feature", "properties": {"id": "ghost_XE8413_20240615124344", "plate_no": "XE8413", "gap_start_time": "2024-06-15T12:43:44", "gap_end_time": "2024-06-15T17:00:21", "gap_duration_min": 256.62, "wasted_distance_km": 0.064, "prev_trip": "DA240615028801", "next_trip": "DA240615028702", "prev_O": [114.2565559, 22.308428], "next_O": [114.2217049, 22.4696203]}, "geometry": {"type": "LineString", "coordinates": [[114.221466, 22.469908], [114.22181, 22.469431]]}}, {"type": "Feature", "properties": {"id": "ghost_XE9425_20240615104231", "plate_no": "XE9425", "gap_start_time": "2024-06-15T10:42:31", "gap_end_time": "2024-06-15T11:50:23", "gap_duration_min": 67.87, "wasted_distance_km": 2.023, "prev_trip": "DA240615011311", "next_trip": "DA240615016002", "prev_O": [114.1786768, 22.3122616], "next_O": [114.1715708, 22.3354862]}, "geometry": {"type": "LineString", "coordinates": [[114.174838, 22.31762], [114.172263, 22.33566]]}}, {"type": "Feature", "properties": {"id": "ghost_XM4556_20240615090858", "plate_no": "XM4556", "gap_start_time": "2024-06-15T09:08:58", "gap_end_time": "2024-06-15T15:00:20", "gap_duration_min": 351.37, "wasted_distance_km": 6.944, "prev_trip": "DA240615013301", "next_trip": "DA240615017302", "prev_O": [114.124202, 22.269831], "next_O": [114.2403684, 22.2608848]}, "geometry": {"type": "LineString", "coordinates": [[114.176086, 22.278905], [114.240701, 22.260908]]}}, {"type": "Feature", "properties": {"id": "ghost_XM6122_20240615095702", "plate_no": "XM6122", "gap_start_time": "2024-06-15T09:57:02", "gap_end_time": "2024-06-15T13:20:20", "gap_duration_min": 203.3, "wasted_distance_km": 10.565, "prev_trip": "DA240615006201", "next_trip": "DA240615006701", "prev_O": [114.203802, 22.348183], "next_O": [114.2701329, 22.2930914]}, "geometry": {"type": "LineString", "coordinates": [[114.172111, 22.319896], [114.27066, 22.293145]]}}, {"type": "Feature", "properties": {"id": "ghost_XN5447_20240615104859", "plate_no": "XN5447", "gap_start_time": "2024-06-15T10:48:59", "gap_end_time": "2024-06-15T12:25:46", "gap_duration_min": 96.78, "wasted_distance_km": 3.561, "prev_trip": "DA240615007401", "next_trip": "DA240615011411", "prev_O": [114.1810502, 22.3344291], "next_O": [114.1726104, 22.314136]}, "geometry": {"type": "LineString", "coordinates": [[114.208948, 22.32248], [114.176376, 22.311635]]}}, {"type": "Feature", "properties": {"id": "ghost_XN5447_20240615122846", "plate_no": "XN5447", "gap_start_time": "2024-06-15T12:28:46", "gap_end_time": "2024-06-15T21:00:04", "gap_duration_min": 511.3, "wasted_distance_km": 21.866, "prev_trip": "DA240615011411", "next_trip": "DA240615022111", "prev_O": [114.1726104, 22.314136], "next_O": [114.0152111, 22.4436998]}, "geometry": {"type": "LineString", "coordinates": [[114.178055, 22.317755], [114.01507, 22.444073]]}}, {"type": "Feature", "properties": {"id": "ghost_XU8126_20240615110455", "plate_no": "XU8126", "gap_start_time": "2024-06-15T11:04:55", "gap_end_time": "2024-06-15T16:35:29", "gap_duration_min": 330.57, "wasted_distance_km": 3.214, "prev_trip": "DA240615015511", "next_trip": "DA240615005702", "prev_O": [114.1929813, 22.3429615], "next_O": [114.1927721, 22.2860919]}, "geometry": {"type": "LineString", "coordinates": [[114.169646, 22.305371], [114.192685, 22.285846]]}}, {"type": "Feature", "properties": {"id": "ghost_XV6358_20240615111207", "plate_no": "XV6358", "gap_start_time": "2024-06-15T11:12:07", "gap_end_time": "2024-06-15T12:00:37", "gap_duration_min": 48.5, "wasted_distance_km": 5.945, "prev_trip": "DA240615030102", "next_trip": "DA240615020411", "prev_O": [114.1466266, 22.2848757], "next_O": [114.163731, 22.331833]}, "geometry": {"type": "LineString", "coordinates": [[114.132331, 22.284871], [114.163363, 22.32997]]}}, {"type": "Feature", "properties": {"id": "ghost_XV7468_20240615122931", "plate_no": "XV7468", "gap_start_time": "2024-06-15T12:29:31", "gap_end_time": "2024-06-15T13:30:01", "gap_duration_min": 60.5, "wasted_distance_km": 5.635, "prev_trip": "DA240615000802", "next_trip": "DA240615014301", "prev_O": [114.2329964, 22.2675897], "next_O": [114.203882, 22.2916702]}, "geometry": {"type": "LineString", "coordinates": [[114.248456, 22.264321], [114.20312, 22.292751]]}}, {"type": "Feature", "properties": {"id": "ghost_YK5416_20240615104250", "plate_no": "YK5416", "gap_start_time": "2024-06-15T10:42:50", "gap_end_time": "2024-06-15T11:00:59", "gap_duration_min": 18.15, "wasted_distance_km": 2.712, "prev_trip": "DA240615002411", "next_trip": "DA240615013302", "prev_O": [114.2566887, 22.3112855], "next_O": [114.1714776, 22.2785962]}, "geometry": {"type": "LineString", "coordinates": [[114.194703, 22.288113], [114.170453, 22.278558]]}}, {"type": "Feature", "properties": {"id": "ghost_YK6404_20240615140321", "plate_no": "YK6404", "gap_start_time": "2024-06-15T14:03:21", "gap_end_time": "2024-06-15T16:45:00", "gap_duration_min": 161.65, "wasted_distance_km": 5.135, "prev_trip": "DA240615017301", "next_trip": "DA240615003911", "prev_O": [114.2301049, 22.3273534], "next_O": [114.1941178, 22.2884225]}, "geometry": {"type": "LineString", "coordinates": [[114.23771, 22.263861], [114.19547, 22.288458]]}}, {"type": "Feature", "properties": {"id": "ghost_YK7398_20240615075412", "plate_no": "YK7398", "gap_start_time": "2024-06-15T07:54:12", "gap_end_time": "2024-06-15T09:00:12", "gap_duration_min": 66.0, "wasted_distance_km": 18.15, "prev_trip": "DA240615009511", "next_trip": "DA240615009401", "prev_O": [114.25729, 22.32175], "next_O": [114.1031483, 22.3605505]}, "geometry": {"type": "LineString", "coordinates": [[113.936703, 22.31463], [114.106283, 22.359805]]}}, {"type": "Feature", "properties": {"id": "ghost_YK7398_20240615092412", "plate_no": "YK7398", "gap_start_time": "2024-06-15T09:24:12", "gap_end_time": "2024-06-15T13:25:18", "gap_duration_min": 241.1, "wasted_distance_km": 9.652, "prev_trip": "DA240615009401", "next_trip": "DA240615004401", "prev_O": [114.1031483, 22.3605505], "next_O": [114.2224399, 22.3174915]}, "geometry": {"type": "LineString", "coordinates": [[114.134476, 22.341106], [114.223773, 22.314431]]}}, {"type": "Feature", "properties": {"id": "ghost_YK8954_20240615092813", "plate_no": "YK8954", "gap_start_time": "2024-06-15T09:28:13", "gap_end_time": "2024-06-15T11:51:07", "gap_duration_min": 142.9, "wasted_distance_km": 3.485, "prev_trip": "DA240615012111", "next_trip": "DA240615004302", "prev_O": [114.2073775, 22.429827], "next_O": [114.160196, 22.334899]}, "geometry": {"type": "LineString", "coordinates": [[114.166331, 22.306056], [114.159525, 22.336756]]}}, {"type": "Feature", "properties": {"id": "ghost_YK905_20240615105146", "plate_no": "YK905", "gap_start_time": "2024-06-15T10:51:46", "gap_end_time": "2024-06-15T17:00:46", "gap_duration_min": 369.0, "wasted_distance_km": 7.716, "prev_trip": "DA240615025301", "next_trip": "DA240615001802", "prev_O": [114.13917, 22.258037], "next_O": [114.1728403, 22.3188457]}, "geometry": {"type": "LineString", "coordinates": [[114.17373, 22.250121], [114.170961, 22.319466]]}}, {"type": "Feature", "properties": {"id": "ghost_YK905_20240615170516", "plate_no": "YK905", "gap_start_time": "2024-06-15T17:05:16", "gap_end_time": "2024-06-15T18:52:28", "gap_duration_min": 107.2, "wasted_distance_km": 0.906, "prev_trip": "DA240615001802", "next_trip": "DA240615009911", "prev_O": [114.1728403, 22.3188457], "next_O": [114.170658, 22.3132787]}, "geometry": {"type": "LineString", "coordinates": [[114.167355, 22.308928], [114.173348, 22.3149]]}}, {"type": "Feature", "properties": {"id": "ghost_YL1345_20240615084744", "plate_no": "YL1345", "gap_start_time": "2024-06-15T08:47:44", "gap_end_time": "2024-06-15T09:45:14", "gap_duration_min": 57.5, "wasted_distance_km": 1.342, "prev_trip": "DA240615024401", "next_trip": "DA240615026501", "prev_O": [114.227845, 22.304483], "next_O": [114.185168, 22.3394295]}, "geometry": {"type": "LineString", "coordinates": [[114.187226, 22.327315], [114.185153, 22.33923]]}}, {"type": "Feature", "properties": {"id": "ghost_YL6513_20240615083326", "plate_no": "YL6513", "gap_start_time": "2024-06-15T08:33:26", "gap_end_time": "2024-06-15T09:15:05", "gap_duration_min": 41.65, "wasted_distance_km": 6.7, "prev_trip": "DA240615019311", "next_trip": "DA240615020501", "prev_O": [114.1585432, 22.247762], "next_O": [114.188853, 22.303809]}, "geometry": {"type": "LineString", "coordinates": [[114.128453, 22.281353], [114.188851, 22.30389]]}}, {"type": "Feature", "properties": {"id": "ghost_YY8058_20240615060723", "plate_no": "YY8058", "gap_start_time": "2024-06-15T06:07:23", "gap_end_time": "2024-06-15T09:15:04", "gap_duration_min": 187.68, "wasted_distance_km": 3.879, "prev_trip": "DA240615010901", "next_trip": "DA240615005011", "prev_O": [114.0979333, 22.3489429], "next_O": [114.1592535, 22.2500227]}, "geometry": {"type": "LineString", "coordinates": [[114.180495, 22.278823], [114.15941, 22.249906]]}}, {"type": "Feature", "properties": {"id": "ghost_ZA2376_20240615095527", "plate_no": "ZA2376", "gap_start_time": "2024-06-15T09:55:27", "gap_end_time": "2024-06-15T11:30:06", "gap_duration_min": 94.65, "wasted_distance_km": 12.697, "prev_trip": "DA240615009311", "next_trip": "DA240615028301", "prev_O": [114.2684663, 22.292955], "next_O": [114.2667488, 22.3080872]}, "geometry": {"type": "LineString", "coordinates": [[114.145296, 22.287678], [114.266783, 22.307783]]}}, {"type": "Feature", "properties": {"id": "ghost_ZA394_20240615085605", "plate_no": "ZA394", "gap_start_time": "2024-06-15T08:56:05", "gap_end_time": "2024-06-15T14:45:21", "gap_duration_min": 349.27, "wasted_distance_km": 9.59, "prev_trip": "DA240615030101", "next_trip": "DA240615001111", "prev_O": [114.1277126, 22.2835061], "next_O": [114.2336165, 22.2637098]}, "geometry": {"type": "LineString", "coordinates": [[114.143723, 22.287888], [114.233326, 22.264143]]}}, {"type": "Feature", "properties": {"id": "ghost_ZA394_20240615150721", "plate_no": "ZA394", "gap_start_time": "2024-06-15T15:07:21", "gap_end_time": "2024-06-15T16:00:21", "gap_duration_min": 53.0, "wasted_distance_km": 0.113, "prev_trip": "DA240615001111", "next_trip": "DA240615001211", "prev_O": [114.2336165, 22.2637098], "next_O": [114.2336165, 22.2637098]}, "geometry": {"type": "LineString", "coordinates": [[114.236681, 22.261626], [114.235623, 22.261906]]}}, {"type": "Feature", "properties": {"id": "ghost_ZA7388_20240615071249", "plate_no": "ZA7388", "gap_start_time": "2024-06-15T07:12:49", "gap_end_time": "2024-06-15T09:45:24", "gap_duration_min": 152.58, "wasted_distance_km": 7.731, "prev_trip": "DA240615016201", "next_trip": "DA240615024801", "prev_O": [114.204565, 22.2898326], "next_O": [114.2478536, 22.2638567]}, "geometry": {"type": "LineString", "coordinates": [[114.174438, 22.278901], [114.24768, 22.263401]]}}, {"type": "Feature", "properties": {"id": "ghost_ZA7388_20240615100554", "plate_no": "ZA7388", "gap_start_time": "2024-06-15T10:05:54", "gap_end_time": "2024-06-15T13:50:03", "gap_duration_min": 224.15, "wasted_distance_km": 4.912, "prev_trip": "DA240615024801", "next_trip": "DA240615029511", "prev_O": [114.2478536, 22.2638567], "next_O": [114.2012303, 22.3285812]}, "geometry": {"type": "LineString", "coordinates": [[114.190515, 22.285856], [114.201363, 22.328876]]}}]}