{"type": "FeatureCollection", "features": [{"type": "Feature", "properties": {"id": "ghost_RV4210_20240601092100", "plate_no": "RV4210", "gap_start_time": "2024-06-01T09:21:00", "gap_end_time": "2024-06-01T13:15:00", "gap_duration_min": 234.0, "wasted_distance_km": 8.741, "prev_trip": "DA240601025601", "next_trip": "DA240601015411", "prev_O": [114.140032, 22.364713], "next_O": [114.21104, 22.286503]}, "geometry": {"type": "LineString", "coordinates": [[114.189425, 22.338613], [114.19027, 22.33745], [114.21025, 22.289861], [114.234623, 22.301975], [114.23484, 22.302498]]}}, {"type": "Feature", "properties": {"id": "ghost_SM140_20240601111700", "plate_no": "SM140", "gap_start_time": "2024-06-01T11:17:00", "gap_end_time": "2024-06-01T14:15:00", "gap_duration_min": 178.0, "wasted_distance_km": 16.151, "prev_trip": "DA240601016002", "next_trip": "DA240601007802", "prev_O": [114.1731499, 22.3170132], "next_O": [114.2084586, 22.3197465]}, "geometry": {"type": "LineString", "coordinates": [[114.173368, 22.461675], [114.208791, 22.320321], [114.208648, 22.320258]]}}, {"type": "Feature", "properties": {"id": "ghost_TC6931_20240601140600", "plate_no": "TC6931", "gap_start_time": "2024-06-01T14:06:00", "gap_end_time": "2024-06-01T16:30:00", "gap_duration_min": 144.0, "wasted_distance_km": 8.253, "prev_trip": "DA240601028101", "next_trip": "DA240601008602", "prev_O": [114.022682, 22.447859], "next_O": [114.2209772, 22.2835927]}, "geometry": {"type": "LineString", "coordinates": [[114.161116, 22.332611], [114.221665, 22.283938], [114.221676, 22.283938]]}}, {"type": "Feature", "properties": {"id": "ghost_TC6931_20240601172400", "plate_no": "TC6931", "gap_start_time": "2024-06-01T17:24:00", "gap_end_time": "2024-06-01T19:35:00", "gap_duration_min": 131.0, "wasted_distance_km": 7.29, "prev_trip": "DA240601008602", "next_trip": "DA240601010411", "prev_O": [114.2209772, 22.2835927], "next_O": [114.0707413, 22.432825]}, "geometry": {"type": "LineString", "coordinates": [[113.998398, 22.438916], [114.06874, 22.43664], [114.068241, 22.436836]]}}, {"type": "Feature", "properties": {"id": "ghost_TD4705_20240601092500", "plate_no": "TD4705", "gap_start_time": "2024-06-01T09:25:00", "gap_end_time": "2024-06-01T15:00:00", "gap_duration_min": 335.0, "wasted_distance_km": 7.278, "prev_trip": "DA240601007101", "next_trip": "DA240601008702", "prev_O": [114.1245247, 22.2709886], "next_O": [114.1675891, 22.3073197]}, "geometry": {"type": "LineString", "coordinates": [[114.1473, 22.24457], [114.167408, 22.307285], [114.167375, 22.307291]]}}, {"type": "Feature", "properties": {"id": "ghost_TD7860_20240601084900", "plate_no": "TD7860", "gap_start_time": "2024-06-01T08:49:00", "gap_end_time": "2024-06-01T09:45:00", "gap_duration_min": 56.0, "wasted_distance_km": 9.108, "prev_trip": "DA240601016001", "next_trip": "DA240601025501", "prev_O": [114.1730312, 22.4612198], "next_O": [114.1121429, 22.3757743]}, "geometry": {"type": "LineString", "coordinates": [[114.17429, 22.32007], [114.17318, 22.319856], [114.11124, 22.376923]]}}, {"type": "Feature", "properties": {"id": "ghost_TW274_20240601074400", "plate_no": "TW274", "gap_start_time": "2024-06-01T07:44:00", "gap_end_time": "2024-06-01T10:15:00", "gap_duration_min": 151.0, "wasted_distance_km": 3.831, "prev_trip": "DA240601010201", "next_trip": "DA240601027811", "prev_O": [114.2553258, 22.3226635], "next_O": [114.2343596, 22.3128412]}, "geometry": {"type": "LineString", "coordinates": [[114.268661, 22.31877], [114.269641, 22.318376], [114.23397, 22.313018], [114.233988, 22.312985]]}}, {"type": "Feature", "properties": {"id": "ghost_TW7410_20240601170200", "plate_no": "TW7410", "gap_start_time": "2024-06-01T17:02:00", "gap_end_time": "2024-06-01T18:50:00", "gap_duration_min": 108.0, "wasted_distance_km": 9.285, "prev_trip": "DA240601011111", "next_trip": "DA240601011711", "prev_O": [114.1842358, 22.3775727], "next_O": [114.170658, 22.3132787]}, "geometry": {"type": "LineString", "coordinates": [[114.208498, 22.389143], [114.170116, 22.313641], [114.170165, 22.313701]]}}, {"type": "Feature", "properties": {"id": "ghost_TX9739_20240601053600", "plate_no": "TX9739", "gap_start_time": "2024-06-01T05:36:00", "gap_end_time": "2024-06-01T12:30:00", "gap_duration_min": 414.0, "wasted_distance_km": 23.965, "prev_trip": "DA240601029211", "next_trip": "DA240601009002", "prev_O": [114.1972281, 22.3954063], "next_O": [114.1699836, 22.3134964]}, "geometry": {"type": "LineString", "coordinates": [[113.937285, 22.311695], [113.937301, 22.312238], [114.169205, 22.31649], [114.168886, 22.316763]]}}, {"type": "Feature", "properties": {"id": "ghost_TX9769_20240601122600", "plate_no": "TX9769", "gap_start_time": "2024-06-01T12:26:00", "gap_end_time": "2024-06-01T13:40:00", "gap_duration_min": 74.0, "wasted_distance_km": 11.777, "prev_trip": "DA240601013611", "next_trip": "DA240601028302", "prev_O": [114.1726104, 22.314136], "next_O": [114.2113817, 22.4136093]}, "geometry": {"type": "LineString", "coordinates": [[114.173153, 22.31318], [114.211216, 22.413043], [114.211225, 22.413021]]}}, {"type": "Feature", "properties": {"id": "ghost_UL7617_20240601105500", "plate_no": "UL7617", "gap_start_time": "2024-06-01T10:55:00", "gap_end_time": "2024-06-01T12:15:00", "gap_duration_min": 80.0, "wasted_distance_km": 7.734, "prev_trip": "DA240601025502", "next_trip": "DA240601027011", "prev_O": [114.1159379, 22.368131], "next_O": [114.1613761, 22.3200828]}, "geometry": {"type": "LineString", "coordinates": [[114.114338, 22.374306], [114.161505, 22.320141], [114.161513, 22.320145]]}}, {"type": "Feature", "properties": {"id": "ghost_UL7617_20240601122600", "plate_no": "UL7617", "gap_start_time": "2024-06-01T12:26:00", "gap_end_time": "2024-06-01T14:45:00", "gap_duration_min": 139.0, "wasted_distance_km": 7.752, "prev_trip": "DA240601027011", "next_trip": "DA240601030601", "prev_O": [114.1613761, 22.3200828], "next_O": [114.242281, 22.297986]}, "geometry": {"type": "LineString", "coordinates": [[114.167128, 22.306548], [114.24149, 22.2981], [114.241108, 22.297923]]}}, {"type": "Feature", "properties": {"id": "ghost_UM4207_20240601100300", "plate_no": "UM4207", "gap_start_time": "2024-06-01T10:03:00", "gap_end_time": "2024-06-01T10:11:00", "gap_duration_min": 8.0, "wasted_distance_km": 2.285, "prev_trip": "DA240601024011", "next_trip": "DA240601018211", "prev_O": [114.2673757, 22.316289], "next_O": [114.2561849, 22.3260355]}, "geometry": {"type": "LineString", "coordinates": [[114.253145, 22.306255], [114.256666, 22.32649], [114.256686, 22.32654]]}}, {"type": "Feature", "properties": {"id": "ghost_UM4207_20240601103600", "plate_no": "UM4207", "gap_start_time": "2024-06-01T10:36:00", "gap_end_time": "2024-06-01T15:31:00", "gap_duration_min": 295.0, "wasted_distance_km": 2.326, "prev_trip": "DA240601018211", "next_trip": "DA240601000511", "prev_O": [114.2561849, 22.3260355], "next_O": [114.1734816, 22.2725317]}, "geometry": {"type": "LineString", "coordinates": [[114.171685, 22.294686], [114.171328, 22.273915], [114.171416, 22.273791]]}}, {"type": "Feature", "properties": {"id": "ghost_UP4016_20240601103700", "plate_no": "UP4016", "gap_start_time": "2024-06-01T10:37:00", "gap_end_time": "2024-06-01T15:45:00", "gap_duration_min": 308.0, "wasted_distance_km": 0.936, "prev_trip": "DA240601028501", "next_trip": "DA240601011011", "prev_O": [114.188853, 22.303809], "next_O": [114.2100776, 22.3855092]}, "geometry": {"type": "LineString", "coordinates": [[114.204406, 22.378833], [114.209926, 22.385516], [114.209931, 22.385516]]}}, {"type": "Feature", "properties": {"id": "ghost_VD6128_20240601083700", "plate_no": "VD6128", "gap_start_time": "2024-06-01T08:37:00", "gap_end_time": "2024-06-01T13:50:00", "gap_duration_min": 313.0, "wasted_distance_km": 3.351, "prev_trip": "DA240601028301", "next_trip": "DA240601017911", "prev_O": [114.1809256, 22.3814192], "next_O": [114.1952336, 22.3879318]}, "geometry": {"type": "LineString", "coordinates": [[114.211416, 22.413163], [114.195443, 22.386898]]}}, {"type": "Feature", "properties": {"id": "ghost_VE6920_20240601090100", "plate_no": "VE6920", "gap_start_time": "2024-06-01T09:01:00", "gap_end_time": "2024-06-01T10:00:00", "gap_duration_min": 59.0, "wasted_distance_km": 10.49, "prev_trip": "DA240601017611", "next_trip": "DA240601000701", "prev_O": [114.1466671, 22.2447138], "next_O": [114.2492217, 22.2617169]}, "geometry": {"type": "LineString", "coordinates": [[114.150831, 22.286105], [114.249333, 22.261791]]}}, {"type": "Feature", "properties": {"id": "ghost_VE6920_20240601101400", "plate_no": "VE6920", "gap_start_time": "2024-06-01T10:14:00", "gap_end_time": "2024-06-01T12:30:00", "gap_duration_min": 136.0, "wasted_distance_km": 0.496, "prev_trip": "DA240601000701", "next_trip": "DA240601000102", "prev_O": [114.2492217, 22.2617169], "next_O": [114.2420742, 22.2654561]}, "geometry": {"type": "LineString", "coordinates": [[114.234556, 22.264438], [114.239251, 22.263445]]}}, {"type": "Feature", "properties": {"id": "ghost_VG422_20240601113500", "plate_no": "VG422", "gap_start_time": "2024-06-01T11:35:00", "gap_end_time": "2024-06-01T12:30:00", "gap_duration_min": 55.0, "wasted_distance_km": 8.338, "prev_trip": "DA240601026701", "next_trip": "DA240601028502", "prev_O": [114.1203858, 22.3670155], "next_O": [114.2014802, 22.3820272]}, "geometry": {"type": "LineString", "coordinates": [[114.165818, 22.449158], [114.201623, 22.381921], [114.201601, 22.381885]]}}, {"type": "Feature", "properties": {"id": "ghost_VG422_20240601130000", "plate_no": "VG422", "gap_start_time": "2024-06-01T13:00:00", "gap_end_time": "2024-06-01T17:30:00", "gap_duration_min": 270.0, "wasted_distance_km": 11.352, "prev_trip": "DA240601028502", "next_trip": "DA240601014801", "prev_O": [114.2014802, 22.3820272], "next_O": [114.2168687, 22.3982025]}, "geometry": {"type": "LineString", "coordinates": [[114.185523, 22.301286], [114.185788, 22.301068], [114.186416, 22.30107], [114.2168, 22.398245], [114.216781, 22.39826]]}}, {"type": "Feature", "properties": {"id": "ghost_VV6972_20240601103200", "plate_no": "VV6972", "gap_start_time": "2024-06-01T10:32:00", "gap_end_time": "2024-06-01T12:45:00", "gap_duration_min": 133.0, "wasted_distance_km": 5.517, "prev_trip": "DA240601015311", "next_trip": "DA240601022402", "prev_O": [114.2572761, 22.3074503], "next_O": [114.1552454, 22.2827281]}, "geometry": {"type": "LineString", "coordinates": [[114.210935, 22.286388], [114.157946, 22.280235], [114.157743, 22.280305]]}}, {"type": "Feature", "properties": {"id": "ghost_VY5967_20240601085800", "plate_no": "VY5967", "gap_start_time": "2024-06-01T08:58:00", "gap_end_time": "2024-06-01T10:15:00", "gap_duration_min": 77.0, "wasted_distance_km": 8.736, "prev_trip": "DA240601016411", "next_trip": "DA240601013311", "prev_O": [113.9701755, 22.4035088], "next_O": [114.1786768, 22.3122616]}, "geometry": {"type": "LineString", "coordinates": [[114.197985, 22.388988], [114.180066, 22.312195], [114.180066, 22.312195]]}}, {"type": "Feature", "properties": {"id": "ghost_VY5967_20240601103200", "plate_no": "VY5967", "gap_start_time": "2024-06-01T10:32:00", "gap_end_time": "2024-06-01T12:15:00", "gap_duration_min": 103.0, "wasted_distance_km": 6.009, "prev_trip": "DA240601013311", "next_trip": "DA240601027211", "prev_O": [114.1786768, 22.3122616], "next_O": [114.230334, 22.307947]}, "geometry": {"type": "LineString", "coordinates": [[114.1725, 22.313913], [114.230543, 22.30817], [114.230528, 22.308138]]}}, {"type": "Feature", "properties": {"id": "ghost_VY7246_20240601091700", "plate_no": "VY7246", "gap_start_time": "2024-06-01T09:17:00", "gap_end_time": "2024-06-01T14:45:00", "gap_duration_min": 328.0, "wasted_distance_km": 3.777, "prev_trip": "DA240601007311", "next_trip": "DA240601000302", "prev_O": [114.1309497, 22.3545456], "next_O": [114.1283333, 22.3458333]}, "geometry": {"type": "LineString", "coordinates": [[114.135226, 22.379618], [114.128185, 22.346335], [114.128201, 22.346286]]}}, {"type": "Feature", "properties": {"id": "ghost_WP1681_20240601084700", "plate_no": "WP1681", "gap_start_time": "2024-06-01T08:47:00", "gap_end_time": "2024-06-01T10:00:00", "gap_duration_min": 73.0, "wasted_distance_km": 14.921, "prev_trip": "DA240601001701", "next_trip": "DA240601030911", "prev_O": [114.23134, 22.42554], "next_O": [114.137108, 22.5004969]}, "geometry": {"type": "LineString", "coordinates": [[114.195831, 22.377691], [114.136996, 22.500318], [114.136968, 22.50035]]}}, {"type": "Feature", "properties": {"id": "ghost_WP3895_20240601060800", "plate_no": "WP3895", "gap_start_time": "2024-06-01T06:08:00", "gap_end_time": "2024-06-01T06:30:00", "gap_duration_min": 22.0, "wasted_distance_km": 4.271, "prev_trip": "DA240601016201", "next_trip": "DA240601015801", "prev_O": [114.2165038, 22.324664], "next_O": [114.2018517, 22.3360239]}, "geometry": {"type": "LineString", "coordinates": [[114.16102, 22.333898], [114.202315, 22.337845], [114.202303, 22.33784]]}}, {"type": "Feature", "properties": {"id": "ghost_WP3895_20240601064900", "plate_no": "WP3895", "gap_start_time": "2024-06-01T06:49:00", "gap_end_time": "2024-06-01T09:00:00", "gap_duration_min": 131.0, "wasted_distance_km": 4.983, "prev_trip": "DA240601015801", "next_trip": "DA240601015201", "prev_O": [114.2018517, 22.3360239], "next_O": [114.199602, 22.350058]}, "geometry": {"type": "LineString", "coordinates": [[114.172488, 22.31462], [114.199981, 22.34995], [114.199706, 22.348695]]}}, {"type": "Feature", "properties": {"id": "ghost_WP5387_20240601085300", "plate_no": "WP5387", "gap_start_time": "2024-06-01T08:53:00", "gap_end_time": "2024-06-01T13:45:00", "gap_duration_min": 292.0, "wasted_distance_km": 13.224, "prev_trip": "DA240601000301", "next_trip": "DA240601023811", "prev_O": [114.1266489, 22.3476314], "next_O": [114.2314804, 22.4191167]}, "geometry": {"type": "LineString", "coordinates": [[114.1282, 22.346305], [114.229873, 22.419143], [114.229873, 22.419141]]}}, {"type": "Feature", "properties": {"id": "ghost_XE1886_20240601144700", "plate_no": "XE1886", "gap_start_time": "2024-06-01T14:47:00", "gap_end_time": "2024-06-01T16:45:00", "gap_duration_min": 118.0, "wasted_distance_km": 0.407, "prev_trip": "DA240601029701", "next_trip": "DA240601029702", "prev_O": [114.130117, 22.3496304], "next_O": [114.17099, 22.312405]}, "geometry": {"type": "LineString", "coordinates": [[114.167545, 22.310293], [114.170686, 22.312315], [114.170671, 22.312433]]}}, {"type": "Feature", "properties": {"id": "ghost_XE1886_20240601171100", "plate_no": "XE1886", "gap_start_time": "2024-06-01T17:11:00", "gap_end_time": "2024-06-01T17:45:00", "gap_duration_min": 34.0, "wasted_distance_km": 5.301, "prev_trip": "DA240601029702", "next_trip": "DA240601021602", "prev_O": [114.17099, 22.312405], "next_O": [114.1676299, 22.3246685]}, "geometry": {"type": "LineString", "coordinates": [[114.127631, 22.351795], [114.168646, 22.3232], [114.168821, 22.323218]]}}, {"type": "Feature", "properties": {"id": "ghost_XE1886_20240601182300", "plate_no": "XE1886", "gap_start_time": "2024-06-01T18:23:00", "gap_end_time": "2024-06-01T19:00:00", "gap_duration_min": 37.0, "wasted_distance_km": 3.7, "prev_trip": "DA240601021602", "next_trip": "DA240601028202", "prev_O": [114.1676299, 22.3246685], "next_O": [114.1636164, 22.4337333]}, "geometry": {"type": "LineString", "coordinates": [[114.179451, 22.464823], [114.163956, 22.434801], [114.163945, 22.434805]]}}, {"type": "Feature", "properties": {"id": "ghost_XE7168_20240601075400", "plate_no": "XE7168", "gap_start_time": "2024-06-01T07:54:00", "gap_end_time": "2024-06-01T13:10:00", "gap_duration_min": 316.0, "wasted_distance_km": 5.85, "prev_trip": "DA240601004511", "next_trip": "DA240601023702", "prev_O": [114.2191085, 22.3212051], "next_O": [114.1608724, 22.3325804]}, "geometry": {"type": "LineString", "coordinates": [[114.21592, 22.323665], [114.16014, 22.333935], [114.16014, 22.333935]]}}, {"type": "Feature", "properties": {"id": "ghost_XM6122_20240601080800", "plate_no": "XM6122", "gap_start_time": "2024-06-01T08:08:00", "gap_end_time": "2024-06-01T09:00:00", "gap_duration_min": 52.0, "wasted_distance_km": 7.902, "prev_trip": "DA240601024511", "next_trip": "DA240601014011", "prev_O": [114.1904904, 22.3447512], "next_O": [114.2649147, 22.3184653]}, "geometry": {"type": "LineString", "coordinates": [[114.1945, 22.345143], [114.19588, 22.345423], [114.264746, 22.31736], [114.264645, 22.317478]]}}, {"type": "Feature", "properties": {"id": "ghost_XM6122_20240601092400", "plate_no": "XM6122", "gap_start_time": "2024-06-01T09:24:00", "gap_end_time": "2024-06-01T12:15:00", "gap_duration_min": 171.0, "wasted_distance_km": 7.926, "prev_trip": "DA240601014011", "next_trip": "DA240601006702", "prev_O": [114.2649147, 22.3184653], "next_O": [114.1712935, 22.3069277]}, "geometry": {"type": "LineString", "coordinates": [[114.247063, 22.294991], [114.171235, 22.307], [114.171316, 22.307071]]}}, {"type": "Feature", "properties": {"id": "ghost_XM6122_20240601124600", "plate_no": "XM6122", "gap_start_time": "2024-06-01T12:46:00", "gap_end_time": "2024-06-01T14:45:00", "gap_duration_min": 119.0, "wasted_distance_km": 3.905, "prev_trip": "DA240601006702", "next_trip": "DA240601025801", "prev_O": [114.1712935, 22.3069277], "next_O": [114.235844, 22.302181]}, "geometry": {"type": "LineString", "coordinates": [[114.272855, 22.296138], [114.235483, 22.301456], [114.235413, 22.301333]]}}, {"type": "Feature", "properties": {"id": "ghost_XM9047_20240601112200", "plate_no": "XM9047", "gap_start_time": "2024-06-01T11:22:00", "gap_end_time": "2024-06-01T12:30:00", "gap_duration_min": 68.0, "wasted_distance_km": 1.102, "prev_trip": "DA240601009001", "next_trip": "DA240601021301", "prev_O": [114.1000403, 22.3499824], "next_O": [114.1772603, 22.3129427]}, "geometry": {"type": "LineString", "coordinates": [[114.166706, 22.31241], [114.177318, 22.313171], [114.177383, 22.313183]]}}, {"type": "Feature", "properties": {"id": "ghost_XN7948_20240601103400", "plate_no": "XN7948", "gap_start_time": "2024-06-01T10:34:00", "gap_end_time": "2024-06-01T11:45:00", "gap_duration_min": 71.0, "wasted_distance_km": 5.97, "prev_trip": "DA240601006701", "next_trip": "DA240601007801", "prev_O": [114.2699115, 22.2968596], "next_O": [114.233113, 22.306994]}, "geometry": {"type": "LineString", "coordinates": [[114.174525, 22.306875], [114.23246, 22.307233], [114.23251, 22.307313]]}}, {"type": "Feature", "properties": {"id": "ghost_XN7948_20240601121200", "plate_no": "XN7948", "gap_start_time": "2024-06-01T12:12:00", "gap_end_time": "2024-06-01T18:00:00", "gap_duration_min": 348.0, "wasted_distance_km": 7.354, "prev_trip": "DA240601007801", "next_trip": "DA240601021411", "prev_O": [114.233113, 22.306994], "next_O": [114.271719, 22.290581]}, "geometry": {"type": "LineString", "coordinates": [[114.208573, 22.320433], [114.272133, 22.290175], [114.272133, 22.290175]]}}, {"type": "Feature", "properties": {"id": "ghost_XV3928_20240601135300", "plate_no": "XV3928", "gap_start_time": "2024-06-01T13:53:00", "gap_end_time": "2024-06-01T16:00:00", "gap_duration_min": 127.0, "wasted_distance_km": 15.965, "prev_trip": "DA240601008701", "next_trip": "DA240601026702", "prev_O": [114.1060175, 22.3439865], "next_O": [114.1669634, 22.4482415]}, "geometry": {"type": "LineString", "coordinates": [[114.167568, 22.308035], [114.163571, 22.451133], [114.163778, 22.450878], [114.163853, 22.45079]]}}, {"type": "Feature", "properties": {"id": "ghost_XV6358_20240601100300", "plate_no": "XV6358", "gap_start_time": "2024-06-01T10:03:00", "gap_end_time": "2024-06-01T11:20:00", "gap_duration_min": 77.0, "wasted_distance_km": 6.682, "prev_trip": "DA240601029901", "next_trip": "DA240601005611", "prev_O": [114.2478536, 22.2638567], "next_O": [114.1366663, 22.2519225]}, "geometry": {"type": "LineString", "coordinates": [[114.190293, 22.285883], [114.136596, 22.252196], [114.13655, 22.252241]]}}, {"type": "Feature", "properties": {"id": "ghost_XV6358_20240601113200", "plate_no": "XV6358", "gap_start_time": "2024-06-01T11:32:00", "gap_end_time": "2024-06-01T13:20:00", "gap_duration_min": 108.0, "wasted_distance_km": 7.074, "prev_trip": "DA240601005611", "next_trip": "DA240601012301", "prev_O": [114.1366663, 22.2519225], "next_O": [114.2046042, 22.2914379]}, "geometry": {"type": "LineString", "coordinates": [[114.153273, 22.249345], [114.154478, 22.249671], [114.2047, 22.291338], [114.204728, 22.291315]]}}, {"type": "Feature", "properties": {"id": "ghost_YK4856_20240601092600", "plate_no": "YK4856", "gap_start_time": "2024-06-01T09:26:00", "gap_end_time": "2024-06-01T10:45:00", "gap_duration_min": 79.0, "wasted_distance_km": 7.231, "prev_trip": "DA240601001601", "next_trip": "DA240601018011", "prev_O": [114.1786768, 22.3729477], "next_O": [114.178115, 22.314215]}, "geometry": {"type": "LineString", "coordinates": [[114.1941, 22.380691], [114.180136, 22.316953]]}}, {"type": "Feature", "properties": {"id": "ghost_YK4856_20240601105500", "plate_no": "YK4856", "gap_start_time": "2024-06-01T10:55:00", "gap_end_time": "2024-06-01T14:45:00", "gap_duration_min": 230.0, "wasted_distance_km": 6.587, "prev_trip": "DA240601018011", "next_trip": "DA240601026301", "prev_O": [114.178115, 22.314215], "next_O": [114.1327153, 22.3663241]}, "geometry": {"type": "LineString", "coordinates": [[114.168146, 22.318808], [114.16818, 22.31793], [114.133046, 22.366391], [114.133036, 22.3664]]}}, {"type": "Feature", "properties": {"id": "ghost_YK7398_20240601084000", "plate_no": "YK7398", "gap_start_time": "2024-06-01T08:40:00", "gap_end_time": "2024-06-01T09:45:00", "gap_duration_min": 65.0, "wasted_distance_km": 6.711, "prev_trip": "DA240601016511", "next_trip": "DA240601005501", "prev_O": [114.26277, 22.308295], "next_O": [114.1352496, 22.3774059]}, "geometry": {"type": "LineString", "coordinates": [[114.198951, 22.389421], [114.134958, 22.377563], [114.134956, 22.377571]]}}, {"type": "Feature", "properties": {"id": "ghost_YK8969_20240601101400", "plate_no": "YK8969", "gap_start_time": "2024-06-01T10:14:00", "gap_end_time": "2024-06-01T12:15:00", "gap_duration_min": 121.0, "wasted_distance_km": 0.005, "prev_trip": "DA240601000601", "next_trip": "DA240601000602", "prev_O": [114.2492217, 22.2617169], "next_O": [114.2330121, 22.2675922]}, "geometry": {"type": "LineString", "coordinates": [[114.233486, 22.26839], [114.233458, 22.268425]]}}, {"type": "Feature", "properties": {"id": "ghost_YK8969_20240601122500", "plate_no": "YK8969", "gap_start_time": "2024-06-01T12:25:00", "gap_end_time": "2024-06-01T14:45:00", "gap_duration_min": 140.0, "wasted_distance_km": 1.842, "prev_trip": "DA240601000602", "next_trip": "DA240601001011", "prev_O": [114.2330121, 22.2675922], "next_O": [114.2336165, 22.2637098]}, "geometry": {"type": "LineString", "coordinates": [[114.248395, 22.26433], [114.24928, 22.263071], [114.233078, 22.264311], [114.233061, 22.264323]]}}, {"type": "Feature", "properties": {"id": "ghost_YK8969_20240601145000", "plate_no": "YK8969", "gap_start_time": "2024-06-01T14:50:00", "gap_end_time": "2024-06-01T16:10:00", "gap_duration_min": 80.0, "wasted_distance_km": 0.568, "prev_trip": "DA240601001011", "next_trip": "DA240601001111", "prev_O": [114.2336165, 22.2637098], "next_O": [114.2336165, 22.2637098]}, "geometry": {"type": "LineString", "coordinates": [[114.237433, 22.264338], [114.237506, 22.264853], [114.237596, 22.265635], [114.237106, 22.265153], [114.234861, 22.267508]]}}, {"type": "Feature", "properties": {"id": "ghost_YL1783_20240601111100", "plate_no": "YL1783", "gap_start_time": "2024-06-01T11:11:00", "gap_end_time": "2024-06-01T14:48:00", "gap_duration_min": 217.0, "wasted_distance_km": 6.091, "prev_trip": "DA240601015501", "next_trip": "DA240601008911", "prev_O": [114.129211, 22.363532], "next_O": [114.1129769, 22.3685909]}, "geometry": {"type": "LineString", "coordinates": [[114.15918, 22.328671], [114.117145, 22.367205], [114.117125, 22.367166]]}}, {"type": "Feature", "properties": {"id": "ghost_YL1792_20240601083200", "plate_no": "YL1792", "gap_start_time": "2024-06-01T08:32:00", "gap_end_time": "2024-06-01T10:00:00", "gap_duration_min": 88.0, "wasted_distance_km": 1.187, "prev_trip": "DA240601024111", "next_trip": "DA240601011311", "prev_O": [114.1585432, 22.247762], "next_O": [114.12438, 22.271274]}, "geometry": {"type": "LineString", "coordinates": [[114.128348, 22.281135], [114.124336, 22.271155], [114.124311, 22.271155]]}}, {"type": "Feature", "properties": {"id": "ghost_YL6513_20240601090800", "plate_no": "YL6513", "gap_start_time": "2024-06-01T09:08:00", "gap_end_time": "2024-06-01T10:00:00", "gap_duration_min": 52.0, "wasted_distance_km": 5.004, "prev_trip": "DA240601015901", "next_trip": "DA240601023701", "prev_O": [114.124202, 22.269831], "next_O": [114.2154225, 22.2854066]}, "geometry": {"type": "LineString", "coordinates": [[114.16799, 22.277931], [114.16984, 22.277536], [114.215598, 22.284871], [114.215765, 22.284643]]}}, {"type": "Feature", "properties": {"id": "ghost_YL8082_20240601061800", "plate_no": "YL8082", "gap_start_time": "2024-06-01T06:18:00", "gap_end_time": "2024-06-01T10:15:00", "gap_duration_min": 237.0, "wasted_distance_km": 9.369, "prev_trip": "DA240601022501", "next_trip": "DA240601000101", "prev_O": [114.1501361, 22.244705], "next_O": [114.2343328, 22.2662393]}, "geometry": {"type": "LineString", "coordinates": [[114.148641, 22.288288], [114.14786, 22.288288], [114.23435, 22.266111], [114.234478, 22.266585]]}}, {"type": "Feature", "properties": {"id": "ghost_YL8082_20240601102200", "plate_no": "YL8082", "gap_start_time": "2024-06-01T10:22:00", "gap_end_time": "2024-06-01T12:45:00", "gap_duration_min": 143.0, "wasted_distance_km": 5.592, "prev_trip": "DA240601000101", "next_trip": "DA240601029902", "prev_O": [114.2343328, 22.2662393], "next_O": [114.1926653, 22.2861793]}, "geometry": {"type": "LineString", "coordinates": [[114.242811, 22.266195], [114.19256, 22.285266], [114.192533, 22.285276]]}}, {"type": "Feature", "properties": {"id": "ghost_YY7490_20240601094900", "plate_no": "YY7490", "gap_start_time": "2024-06-01T09:49:00", "gap_end_time": "2024-06-01T11:50:00", "gap_duration_min": 121.0, "wasted_distance_km": 6.229, "prev_trip": "DA240601008811", "next_trip": "DA240601015502", "prev_O": [114.2127745, 22.2818229], "next_O": [114.1593694, 22.3288952]}, "geometry": {"type": "LineString", "coordinates": [[114.11576, 22.367713], [114.159163, 22.328655], [114.159173, 22.328653]]}}, {"type": "Feature", "properties": {"id": "ghost_YY7490_20240601121300", "plate_no": "YY7490", "gap_start_time": "2024-06-01T12:13:00", "gap_end_time": "2024-06-01T14:00:00", "gap_duration_min": 107.0, "wasted_distance_km": 4.526, "prev_trip": "DA240601015502", "next_trip": "DA240601017511", "prev_O": [114.1593694, 22.3288952], "next_O": [114.163731, 22.331833]}, "geometry": {"type": "LineString", "coordinates": [[114.130385, 22.361441], [114.162443, 22.333621], [114.162491, 22.33361]]}}, {"type": "Feature", "properties": {"id": "ghost_YY8058_20240601055300", "plate_no": "YY8058", "gap_start_time": "2024-06-01T05:53:00", "gap_end_time": "2024-06-01T06:15:00", "gap_duration_min": 22.0, "wasted_distance_km": 1.39, "prev_trip": "DA240601013101", "next_trip": "DA240601006911", "prev_O": [114.0979333, 22.3489429], "next_O": [114.1879389, 22.279315]}, "geometry": {"type": "LineString", "coordinates": [[114.174613, 22.278253], [114.18803, 22.278625], [114.188078, 22.278563]]}}, {"type": "Feature", "properties": {"id": "ghost_YY8058_20240601063700", "plate_no": "YY8058", "gap_start_time": "2024-06-01T06:37:00", "gap_end_time": "2024-06-01T09:38:00", "gap_duration_min": 181.0, "wasted_distance_km": 8.816, "prev_trip": "DA240601006911", "next_trip": "DA240601005311", "prev_O": [114.1879389, 22.279315], "next_O": [114.163104, 22.314322]}, "geometry": {"type": "LineString", "coordinates": [[114.236276, 22.269025], [114.165513, 22.313736]]}}, {"type": "Feature", "properties": {"id": "ghost_YY8058_20240601095500", "plate_no": "YY8058", "gap_start_time": "2024-06-01T09:55:00", "gap_end_time": "2024-06-01T10:45:00", "gap_duration_min": 50.0, "wasted_distance_km": 1.038, "prev_trip": "DA240601005311", "next_trip": "DA240601011201", "prev_O": [114.163104, 22.314322], "next_O": [114.1699194, 22.3245296]}, "geometry": {"type": "LineString", "coordinates": [[114.160805, 22.331591], [114.169066, 22.32632], [114.169046, 22.326368]]}}, {"type": "Feature", "properties": {"id": "ghost_ZB3917_20240601094000", "plate_no": "ZB3917", "gap_start_time": "2024-06-01T09:40:00", "gap_end_time": "2024-06-01T13:45:00", "gap_duration_min": 245.0, "wasted_distance_km": 11.614, "prev_trip": "DA240601004201", "next_trip": "DA240601024911", "prev_O": [114.1394532, 22.3355572], "next_O": [114.2303924, 22.2584609]}, "geometry": {"type": "LineString", "coordinates": [[114.156171, 22.33562], [114.230556, 22.25705]]}}]}