{"type": "FeatureCollection", "features": [{"type": "Feature", "properties": {"id": "ghost_RV8266_20240611091100", "plate_no": "RV8266", "gap_start_time": "2024-06-11T09:11:00", "gap_end_time": "2024-06-11T12:00:03", "gap_duration_min": 169.05, "wasted_distance_km": 5.724, "prev_trip": "DA240611006311", "next_trip": "DA240611048111", "prev_O": [114.192709, 22.3177253], "next_O": [114.1845751, 22.279725]}, "geometry": {"type": "LineString", "coordinates": [[114.230003, 22.310011], [114.185518, 22.279098]]}}, {"type": "Feature", "properties": {"id": "ghost_RX3329_20240611135956", "plate_no": "RX3329", "gap_start_time": "2024-06-11T13:59:56", "gap_end_time": "2024-06-11T14:30:20", "gap_duration_min": 30.4, "wasted_distance_km": 0.292, "prev_trip": "DA240611021111", "next_trip": "DA240611024501", "prev_O": [114.2322701, 22.3090467], "next_O": [114.2288798, 22.3217269]}, "geometry": {"type": "LineString", "coordinates": [[114.227431, 22.319281], [114.229115, 22.32139]]}}, {"type": "Feature", "properties": {"id": "ghost_SL9703_20240611141723", "plate_no": "SL9703", "gap_start_time": "2024-06-11T14:17:23", "gap_end_time": "2024-06-11T15:01:26", "gap_duration_min": 44.05, "wasted_distance_km": 9.552, "prev_trip": "DA240611031501", "next_trip": "DA240611035702", "prev_O": [114.2516341, 22.3048796], "next_O": [114.1266854, 22.3621829]}, "geometry": {"type": "LineString", "coordinates": [[114.209191, 22.318975], [114.130286, 22.364285]]}}, {"type": "Feature", "properties": {"id": "ghost_SM140_20240611122120", "plate_no": "SM140", "gap_start_time": "2024-06-11T12:21:20", "gap_end_time": "2024-06-11T13:35:25", "gap_duration_min": 74.08, "wasted_distance_km": 6.61, "prev_trip": "DA240611012011", "next_trip": "DA240611009001", "prev_O": [114.2028038, 22.4017167], "next_O": [114.1352496, 22.3774059]}, "geometry": {"type": "LineString", "coordinates": [[114.197148, 22.39191], [114.134688, 22.377846]]}}, {"type": "Feature", "properties": {"id": "ghost_TF6298_20240611110907", "plate_no": "TF6298", "gap_start_time": "2024-06-11T11:09:07", "gap_end_time": "2024-06-11T15:50:16", "gap_duration_min": 281.15, "wasted_distance_km": 11.39, "prev_trip": "DA240611009811", "next_trip": "DA240611004611", "prev_O": [114.2399227, 22.2639082], "next_O": [114.1245247, 22.2709886]}, "geometry": {"type": "LineString", "coordinates": [[114.236245, 22.269316], [114.12556, 22.270513]]}}, {"type": "Feature", "properties": {"id": "ghost_TY3250_20240611081544", "plate_no": "TY3250", "gap_start_time": "2024-06-11T08:15:44", "gap_end_time": "2024-06-11T09:46:57", "gap_duration_min": 91.22, "wasted_distance_km": 1.508, "prev_trip": "DA240611000911", "next_trip": "DA240611025211", "prev_O": [114.1859373, 22.3037805], "next_O": [114.178114, 22.314217]}, "geometry": {"type": "LineString", "coordinates": [[114.186195, 22.32523], [114.178115, 22.313916]]}}, {"type": "Feature", "properties": {"id": "ghost_TY3250_20240611101157", "plate_no": "TY3250", "gap_start_time": "2024-06-11T10:11:57", "gap_end_time": "2024-06-11T13:30:05", "gap_duration_min": 198.13, "wasted_distance_km": 9.533, "prev_trip": "DA240611025211", "next_trip": "DA240611028501", "prev_O": [114.178114, 22.314217], "next_O": [114.1270746, 22.3643915]}, "geometry": {"type": "LineString", "coordinates": [[114.206381, 22.32094], [114.126703, 22.36474]]}}, {"type": "Feature", "properties": {"id": "ghost_TY3864_20240611104554", "plate_no": "TY3864", "gap_start_time": "2024-06-11T10:45:54", "gap_end_time": "2024-06-11T13:16:05", "gap_duration_min": 150.18, "wasted_distance_km": 6.247, "prev_trip": "DA240611036601", "next_trip": "DA240611035311", "prev_O": [114.2259587, 22.2821854], "next_O": [114.1693183, 22.3041236]}, "geometry": {"type": "LineString", "coordinates": [[114.228791, 22.308545], [114.168358, 22.303091]]}}, {"type": "Feature", "properties": {"id": "ghost_UL3556_20240611085058", "plate_no": "UL3556", "gap_start_time": "2024-06-11T08:50:58", "gap_end_time": "2024-06-11T10:00:13", "gap_duration_min": 69.25, "wasted_distance_km": 9.518, "prev_trip": "DA240611002701", "next_trip": "DA240611017311", "prev_O": [114.268715, 22.2962922], "next_O": [114.1263082, 22.3647958]}, "geometry": {"type": "LineString", "coordinates": [[114.213178, 22.335905], [114.126248, 22.365286]]}}, {"type": "Feature", "properties": {"id": "ghost_UL7617_20240611094333", "plate_no": "UL7617", "gap_start_time": "2024-06-11T09:43:33", "gap_end_time": "2024-06-11T11:45:03", "gap_duration_min": 121.5, "wasted_distance_km": 0.383, "prev_trip": "DA240611012801", "next_trip": "DA240611012802", "prev_O": [114.0311912, 22.4437761], "next_O": [113.9649146, 22.3748696]}, "geometry": {"type": "LineString", "coordinates": [[113.961233, 22.37538], [113.964956, 22.375368]]}}, {"type": "Feature", "properties": {"id": "ghost_UL7804_20240611114504", "plate_no": "UL7804", "gap_start_time": "2024-06-11T11:45:04", "gap_end_time": "2024-06-11T12:35:19", "gap_duration_min": 50.25, "wasted_distance_km": 0.699, "prev_trip": "DA240611020811", "next_trip": "DA240611030802", "prev_O": [114.18802, 22.3199971], "next_O": [114.1638181, 22.325629]}, "geometry": {"type": "LineString", "coordinates": [[114.160096, 22.330685], [114.163788, 22.325411]]}}, {"type": "Feature", "properties": {"id": "ghost_UL7804_20240611125314", "plate_no": "UL7804", "gap_start_time": "2024-06-11T12:53:14", "gap_end_time": "2024-06-11T17:00:05", "gap_duration_min": 246.85, "wasted_distance_km": 1.714, "prev_trip": "DA240611030802", "next_trip": "DA240611040711", "prev_O": [114.1638181, 22.325629], "next_O": [114.171654, 22.3303537]}, "geometry": {"type": "LineString", "coordinates": [[114.186785, 22.33733], [114.171903, 22.330395]]}}, {"type": "Feature", "properties": {"id": "ghost_UM4207_20240611130236", "plate_no": "UM4207", "gap_start_time": "2024-06-11T13:02:36", "gap_end_time": "2024-06-11T14:00:05", "gap_duration_min": 57.48, "wasted_distance_km": 2.265, "prev_trip": "DA240611043001", "next_trip": "DA240611029011", "prev_O": [114.2397435, 22.30333], "next_O": [114.2246246, 22.3316744]}, "geometry": {"type": "LineString", "coordinates": [[114.228696, 22.311586], [114.222023, 22.330995]]}}, {"type": "Feature", "properties": {"id": "ghost_UP3870_20240611081950", "plate_no": "UP3870", "gap_start_time": "2024-06-11T08:19:50", "gap_end_time": "2024-06-11T09:00:03", "gap_duration_min": 40.22, "wasted_distance_km": 4.986, "prev_trip": "DA240611015501", "next_trip": "DA240611017801", "prev_O": [114.1819743, 22.3714238], "next_O": [114.2336297, 22.4236669]}, "geometry": {"type": "LineString", "coordinates": [[114.195746, 22.39597], [114.233483, 22.424135]]}}, {"type": "Feature", "properties": {"id": "ghost_UP3870_20240611092134", "plate_no": "UP3870", "gap_start_time": "2024-06-11T09:21:34", "gap_end_time": "2024-06-11T12:00:15", "gap_duration_min": 158.68, "wasted_distance_km": 0.875, "prev_trip": "DA240611017801", "next_trip": "DA240611034102", "prev_O": [114.2336297, 22.4236669], "next_O": [114.1832816, 22.3250389]}, "geometry": {"type": "LineString", "coordinates": [[114.178936, 22.317816], [114.183116, 22.324665]]}}, {"type": "Feature", "properties": {"id": "ghost_UP6525_20240611161224", "plate_no": "UP6525", "gap_start_time": "2024-06-11T16:12:24", "gap_end_time": "2024-06-11T17:00:04", "gap_duration_min": 47.67, "wasted_distance_km": 2.821, "prev_trip": "DA240611025902", "next_trip": "DA240611030002", "prev_O": [114.1858384, 22.3246092], "next_O": [114.1832816, 22.3250389]}, "geometry": {"type": "LineString", "coordinates": [[114.202091, 22.33801], [114.17964, 22.323445]]}}, {"type": "Feature", "properties": {"id": "ghost_UP6949_20240611125254", "plate_no": "UP6949", "gap_start_time": "2024-06-11T12:52:54", "gap_end_time": "2024-06-11T13:45:00", "gap_duration_min": 52.1, "wasted_distance_km": 3.539, "prev_trip": "DA240611048611", "next_trip": "DA240611022801", "prev_O": [114.2240502, 22.4152397], "next_O": [114.1827676, 22.3819893]}, "geometry": {"type": "LineString", "coordinates": [[114.212291, 22.39852], [114.182805, 22.382106]]}}, {"type": "Feature", "properties": {"id": "ghost_UP7636_20240611110917", "plate_no": "UP7636", "gap_start_time": "2024-06-11T11:09:17", "gap_end_time": "2024-06-11T13:30:41", "gap_duration_min": 141.4, "wasted_distance_km": 1.454, "prev_trip": "DA240611019001", "next_trip": "DA240611034701", "prev_O": [114.2185016, 22.3955693], "next_O": [114.12911, 22.2832977]}, "geometry": {"type": "LineString", "coordinates": [[114.123595, 22.271111], [114.12897, 22.283203]]}}, {"type": "Feature", "properties": {"id": "ghost_UP9011_20240611125219", "plate_no": "UP9011", "gap_start_time": "2024-06-11T12:52:19", "gap_end_time": "2024-06-11T13:50:19", "gap_duration_min": 58.0, "wasted_distance_km": 6.913, "prev_trip": "DA240611010302", "next_trip": "DA240611038111", "prev_O": [114.1536893, 22.3368675], "next_O": [114.1034949, 22.3485601]}, "geometry": {"type": "LineString", "coordinates": [[114.169025, 22.335736], [114.10324, 22.348483]]}}, {"type": "Feature", "properties": {"id": "ghost_VA7986_20240611095012", "plate_no": "VA7986", "gap_start_time": "2024-06-11T09:50:12", "gap_end_time": "2024-06-11T14:00:00", "gap_duration_min": 249.8, "wasted_distance_km": 0.421, "prev_trip": "DA240611031001", "next_trip": "DA240611026111", "prev_O": [114.1744015, 22.276511], "next_O": [114.180528, 22.276664]}, "geometry": {"type": "LineString", "coordinates": [[114.177971, 22.274976], [114.181306, 22.277175]]}}, {"type": "Feature", "properties": {"id": "ghost_VD6128_20240611124951", "plate_no": "VD6128", "gap_start_time": "2024-06-11T12:49:51", "gap_end_time": "2024-06-11T13:30:24", "gap_duration_min": 40.55, "wasted_distance_km": 4.014, "prev_trip": "DA240611025702", "next_trip": "DA240611037111", "prev_O": [114.2579494, 22.3113757], "next_O": [114.1464621, 22.2863197]}, "geometry": {"type": "LineString", "coordinates": [[114.140251, 22.250651], [114.146113, 22.286341]]}}, {"type": "Feature", "properties": {"id": "ghost_VE7344_20240611131658", "plate_no": "VE7344", "gap_start_time": "2024-06-11T13:16:58", "gap_end_time": "2024-06-11T14:45:00", "gap_duration_min": 88.03, "wasted_distance_km": 1.998, "prev_trip": "DA240611026602", "next_trip": "DA240611004211", "prev_O": [114.119485, 22.369918], "next_O": [114.1200839, 22.3703121]}, "geometry": {"type": "LineString", "coordinates": [[114.102491, 22.362805], [114.11985, 22.370871]]}}, {"type": "Feature", "properties": {"id": "ghost_VE7751_20240611192213", "plate_no": "VE7751", "gap_start_time": "2024-06-11T19:22:13", "gap_end_time": "2024-06-11T21:15:18", "gap_duration_min": 113.08, "wasted_distance_km": 13.656, "prev_trip": "DA240611008711", "next_trip": "DA240611008902", "prev_O": [114.2503345, 22.4318707], "next_O": [114.1254953, 22.5000019]}, "geometry": {"type": "LineString", "coordinates": [[114.229845, 22.424171], [114.125663, 22.50042]]}}, {"type": "Feature", "properties": {"id": "ghost_VV6972_20240611101343", "plate_no": "VV6972", "gap_start_time": "2024-06-11T10:13:43", "gap_end_time": "2024-06-11T13:15:15", "gap_duration_min": 181.53, "wasted_distance_km": 13.747, "prev_trip": "DA240611039001", "next_trip": "DA240611012411", "prev_O": [114.1551291, 22.3399106], "next_O": [114.1112, 22.375143]}, "geometry": {"type": "LineString", "coordinates": [[114.182268, 22.270596], [114.111148, 22.375271]]}}, {"type": "Feature", "properties": {"id": "ghost_VV7298_20240611151155", "plate_no": "VV7298", "gap_start_time": "2024-06-11T15:11:55", "gap_end_time": "2024-06-11T15:50:01", "gap_duration_min": 38.1, "wasted_distance_km": 1.145, "prev_trip": "DA240611040511", "next_trip": "DA240611038502", "prev_O": [114.1112, 22.375143], "next_O": [114.1608536, 22.3324787]}, "geometry": {"type": "LineString", "coordinates": [[114.171933, 22.330545], [114.16103, 22.332638]]}}, {"type": "Feature", "properties": {"id": "ghost_VV7298_20240611161801", "plate_no": "VV7298", "gap_start_time": "2024-06-11T16:18:01", "gap_end_time": "2024-06-11T17:00:25", "gap_duration_min": 42.4, "wasted_distance_km": 2.047, "prev_trip": "DA240611038502", "next_trip": "DA240611006511", "prev_O": [114.1608536, 22.3324787], "next_O": [114.2303424, 22.3079333]}, "geometry": {"type": "LineString", "coordinates": [[114.244081, 22.321695], [114.230575, 22.30818]]}}, {"type": "Feature", "properties": {"id": "ghost_VW4627_20240611082734", "plate_no": "VW4627", "gap_start_time": "2024-06-11T08:27:34", "gap_end_time": "2024-06-11T08:47:02", "gap_duration_min": 19.47, "wasted_distance_km": 0.883, "prev_trip": "DA240611049211", "next_trip": "DA240611015101", "prev_O": [114.1342444, 22.492902], "next_O": [114.137108, 22.5004969]}, "geometry": {"type": "LineString", "coordinates": [[114.127366, 22.496955], [114.135601, 22.499226]]}}, {"type": "Feature", "properties": {"id": "ghost_VW8372_20240611112717", "plate_no": "VW8372", "gap_start_time": "2024-06-11T11:27:17", "gap_end_time": "2024-06-11T14:00:09", "gap_duration_min": 152.87, "wasted_distance_km": 7.559, "prev_trip": "DA240611005201", "next_trip": "DA240611033711", "prev_O": [114.2372269, 22.3079853], "next_O": [114.2524929, 22.3064277]}, "geometry": {"type": "LineString", "coordinates": [[114.189528, 22.341155], [114.25301, 22.306901]]}}, {"type": "Feature", "properties": {"id": "ghost_VX3591_20240611115909", "plate_no": "VX3591", "gap_start_time": "2024-06-11T11:59:09", "gap_end_time": "2024-06-11T16:15:53", "gap_duration_min": 256.73, "wasted_distance_km": 12.054, "prev_trip": "DA240611033902", "next_trip": "DA240611000302", "prev_O": [114.2127228, 22.2887855], "next_O": [114.1283333, 22.3458333]}, "geometry": {"type": "LineString", "coordinates": [[114.234096, 22.303058], [114.126578, 22.346186]]}}, {"type": "Feature", "properties": {"id": "ghost_VY5967_20240611092000", "plate_no": "VY5967", "gap_start_time": "2024-06-11T09:20:00", "gap_end_time": "2024-06-11T10:32:27", "gap_duration_min": 72.45, "wasted_distance_km": 0.841, "prev_trip": "DA240611014001", "next_trip": "DA240611005101", "prev_O": [114.1371502, 22.4917323], "next_O": [114.1751006, 22.4488917]}, "geometry": {"type": "LineString", "coordinates": [[114.17204, 22.455713], [114.175376, 22.448808]]}}, {"type": "Feature", "properties": {"id": "ghost_VY5967_20240611114825", "plate_no": "VY5967", "gap_start_time": "2024-06-11T11:48:25", "gap_end_time": "2024-06-11T14:50:27", "gap_duration_min": 182.03, "wasted_distance_km": 4.839, "prev_trip": "DA240611005101", "next_trip": "DA240611036911", "prev_O": [114.1751006, 22.4488917], "next_O": [114.1676132, 22.3073911]}, "geometry": {"type": "LineString", "coordinates": [[114.193248, 22.3437], [114.167365, 22.30736]]}}, {"type": "Feature", "properties": {"id": "ghost_VY5967_20240611151127", "plate_no": "VY5967", "gap_start_time": "2024-06-11T15:11:27", "gap_end_time": "2024-06-11T16:00:27", "gap_duration_min": 49.0, "wasted_distance_km": 9.655, "prev_trip": "DA240611036911", "next_trip": "DA240611038902", "prev_O": [114.1676132, 22.3073911], "next_O": [114.1732398, 22.3086917]}, "geometry": {"type": "LineString", "coordinates": [[114.266658, 22.315023], [114.173036, 22.308848]]}}, {"type": "Feature", "properties": {"id": "ghost_WN9331_20240611134234", "plate_no": "WN9331", "gap_start_time": "2024-06-11T13:42:34", "gap_end_time": "2024-06-11T15:40:15", "gap_duration_min": 117.68, "wasted_distance_km": 11.339, "prev_trip": "DA240611046711", "next_trip": "DA240611002902", "prev_O": [114.1222936, 22.3666342], "next_O": [114.212997, 22.3358478]}, "geometry": {"type": "LineString", "coordinates": [[114.132278, 22.26653], [114.21322, 22.335741]]}}, {"type": "Feature", "properties": {"id": "ghost_WP1681_20240611103024", "plate_no": "WP1681", "gap_start_time": "2024-06-11T10:30:24", "gap_end_time": "2024-06-11T13:00:26", "gap_duration_min": 150.03, "wasted_distance_km": 9.149, "prev_trip": "DA240611043611", "next_trip": "DA240611041911", "prev_O": [114.2371226, 22.3007896], "next_O": [114.1999667, 22.3927796]}, "geometry": {"type": "LineString", "coordinates": [[114.244103, 22.32182], [114.201441, 22.39402]]}}, {"type": "Feature", "properties": {"id": "ghost_XE2198_20240611090657", "plate_no": "XE2198", "gap_start_time": "2024-06-11T09:06:57", "gap_end_time": "2024-06-11T10:00:25", "gap_duration_min": 53.47, "wasted_distance_km": 7.503, "prev_trip": "DA240611015201", "next_trip": "DA240611017901", "prev_O": [114.137108, 22.5004969], "next_O": [114.2253605, 22.4230226]}, "geometry": {"type": "LineString", "coordinates": [[114.180486, 22.368961], [114.225381, 22.422156]]}}, {"type": "Feature", "properties": {"id": "ghost_XE7053_20240611081754", "plate_no": "XE7053", "gap_start_time": "2024-06-11T08:17:54", "gap_end_time": "2024-06-11T12:30:04", "gap_duration_min": 252.17, "wasted_distance_km": 7.374, "prev_trip": "DA240611002801", "next_trip": "DA240611031002", "prev_O": [114.1890105, 22.3079943], "next_O": [114.1777472, 22.2755438]}, "geometry": {"type": "LineString", "coordinates": [[114.212335, 22.333838], [114.17586, 22.276745]]}}, {"type": "Feature", "properties": {"id": "ghost_XE7053_20240611123504", "plate_no": "XE7053", "gap_start_time": "2024-06-11T12:35:04", "gap_end_time": "2024-06-11T13:45:10", "gap_duration_min": 70.1, "wasted_distance_km": 6.327, "prev_trip": "DA240611031002", "next_trip": "DA240611027511", "prev_O": [114.1777472, 22.2755438], "next_O": [114.23366, 22.26308]}, "geometry": {"type": "LineString", "coordinates": [[114.173941, 22.276666], [114.233653, 22.263111]]}}, {"type": "Feature", "properties": {"id": "ghost_XE7168_20240611100954", "plate_no": "XE7168", "gap_start_time": "2024-06-11T10:09:54", "gap_end_time": "2024-06-11T12:45:26", "gap_duration_min": 155.53, "wasted_distance_km": 5.385, "prev_trip": "DA240611016711", "next_trip": "DA240611037802", "prev_O": [114.2361474, 22.3024692], "next_O": [114.184829, 22.3262591]}, "geometry": {"type": "LineString", "coordinates": [[114.134805, 22.340791], [114.184566, 22.325733]]}}, {"type": "Feature", "properties": {"id": "ghost_XE7168_20240611131156", "plate_no": "XE7168", "gap_start_time": "2024-06-11T13:11:56", "gap_end_time": "2024-06-11T14:20:24", "gap_duration_min": 68.47, "wasted_distance_km": 9.655, "prev_trip": "DA240611037802", "next_trip": "DA240611023711", "prev_O": [114.184829, 22.3262591], "next_O": [114.1893253, 22.3854287]}, "geometry": {"type": "LineString", "coordinates": [[114.228228, 22.306078], [114.188951, 22.384943]]}}, {"type": "Feature", "properties": {"id": "ghost_XE7168_20240611144329", "plate_no": "XE7168", "gap_start_time": "2024-06-11T14:43:29", "gap_end_time": "2024-06-11T16:10:29", "gap_duration_min": 87.0, "wasted_distance_km": 1.674, "prev_trip": "DA240611023711", "next_trip": "DA240611016402", "prev_O": [114.1893253, 22.3854287], "next_O": [114.1832816, 22.3250389]}, "geometry": {"type": "LineString", "coordinates": [[114.17611, 22.31117], [114.182926, 22.324838]]}}, {"type": "Feature", "properties": {"id": "ghost_XE7168_20240611163659", "plate_no": "XE7168", "gap_start_time": "2024-06-11T16:36:59", "gap_end_time": "2024-06-11T17:00:29", "gap_duration_min": 23.5, "wasted_distance_km": 0.698, "prev_trip": "DA240611016402", "next_trip": "DA240611027711", "prev_O": [114.1832816, 22.3250389], "next_O": [114.2285466, 22.3117509]}, "geometry": {"type": "LineString", "coordinates": [[114.233625, 22.30739], [114.228881, 22.311875]]}}, {"type": "Feature", "properties": {"id": "ghost_XE782_20240611093239", "plate_no": "XE782", "gap_start_time": "2024-06-11T09:32:39", "gap_end_time": "2024-06-11T13:15:59", "gap_duration_min": 223.33, "wasted_distance_km": 4.116, "prev_trip": "DA240611041101", "next_trip": "DA240611025901", "prev_O": [114.1315599, 22.3482156], "next_O": [114.2028248, 22.3407664]}, "geometry": {"type": "LineString", "coordinates": [[114.163226, 22.33366], [114.202128, 22.342343]]}}, {"type": "Feature", "properties": {"id": "ghost_XE782_20240611132529", "plate_no": "XE782", "gap_start_time": "2024-06-11T13:25:29", "gap_end_time": "2024-06-11T16:45:15", "gap_duration_min": 199.77, "wasted_distance_km": 10.277, "prev_trip": "DA240611025901", "next_trip": "DA240611022802", "prev_O": [114.2028248, 22.3407664], "next_O": [114.2107277, 22.413691]}, "geometry": {"type": "LineString", "coordinates": [[114.185381, 22.324766], [114.211841, 22.413893]]}}, {"type": "Feature", "properties": {"id": "ghost_XE953_20240611105242", "plate_no": "XE953", "gap_start_time": "2024-06-11T10:52:42", "gap_end_time": "2024-06-11T13:20:18", "gap_duration_min": 147.6, "wasted_distance_km": 5.61, "prev_trip": "DA240611043911", "next_trip": "DA240611036811", "prev_O": [114.2518431, 22.4289795], "next_O": [114.2129975, 22.3358317]}, "geometry": {"type": "LineString", "coordinates": [[114.204566, 22.383466], [114.216001, 22.334135]]}}, {"type": "Feature", "properties": {"id": "ghost_XM4556_20240611143704", "plate_no": "XM4556", "gap_start_time": "2024-06-11T14:37:04", "gap_end_time": "2024-06-11T16:32:48", "gap_duration_min": 115.73, "wasted_distance_km": 3.807, "prev_trip": "DA240611049511", "next_trip": "DA240611035011", "prev_O": [114.2666792, 22.3063335], "next_O": [114.2303424, 22.3079333]}, "geometry": {"type": "LineString", "coordinates": [[114.26584, 22.319093], [114.23083, 22.308006]]}}, {"type": "Feature", "properties": {"id": "ghost_XM6122_20240611104346", "plate_no": "XM6122", "gap_start_time": "2024-06-11T10:43:46", "gap_end_time": "2024-06-11T13:15:22", "gap_duration_min": 151.6, "wasted_distance_km": 8.861, "prev_trip": "DA240611010301", "next_trip": "DA240611020201", "prev_O": [114.1673509, 22.3388312], "next_O": [114.2399321, 22.3366271]}, "geometry": {"type": "LineString", "coordinates": [[114.153853, 22.337148], [114.240003, 22.337218]]}}, {"type": "Feature", "properties": {"id": "ghost_XM6122_20240611134522", "plate_no": "XM6122", "gap_start_time": "2024-06-11T13:45:22", "gap_end_time": "2024-06-11T15:30:01", "gap_duration_min": 104.65, "wasted_distance_km": 5.136, "prev_trip": "DA240611020201", "next_trip": "DA240611028202", "prev_O": [114.2399321, 22.3366271], "next_O": [114.1777194, 22.2755944]}, "geometry": {"type": "LineString", "coordinates": [[114.227855, 22.279746], [114.178245, 22.274676]]}}, {"type": "Feature", "properties": {"id": "ghost_XM9877_20240611104045", "plate_no": "XM9877", "gap_start_time": "2024-06-11T10:40:45", "gap_end_time": "2024-06-11T13:45:03", "gap_duration_min": 184.3, "wasted_distance_km": 1.398, "prev_trip": "DA240611010401", "next_trip": "DA240611012201", "prev_O": [114.1673509, 22.3388312], "next_O": [114.1640181, 22.3330637]}, "geometry": {"type": "LineString", "coordinates": [[114.155611, 22.340556], [114.165518, 22.331953]]}}, {"type": "Feature", "properties": {"id": "ghost_XM9877_20240611135541", "plate_no": "XM9877", "gap_start_time": "2024-06-11T13:55:41", "gap_end_time": "2024-06-11T17:10:00", "gap_duration_min": 194.32, "wasted_distance_km": 7.11, "prev_trip": "DA240611012201", "next_trip": "DA240611015402", "prev_O": [114.1640181, 22.3330637], "next_O": [114.1260312, 22.2817253]}, "geometry": {"type": "LineString", "coordinates": [[114.152653, 22.341266], [114.126145, 22.282213]]}}, {"type": "Feature", "properties": {"id": "ghost_XM9877_20240611172600", "plate_no": "XM9877", "gap_start_time": "2024-06-11T17:26:00", "gap_end_time": "2024-06-11T18:00:00", "gap_duration_min": 34.0, "wasted_distance_km": 1.749, "prev_trip": "DA240611015402", "next_trip": "DA240611047111", "prev_O": [114.1260312, 22.2817253], "next_O": [114.1311358, 22.2701849]}, "geometry": {"type": "LineString", "coordinates": [[114.13397, 22.285756], [114.130853, 22.27029]]}}, {"type": "Feature", "properties": {"id": "ghost_XN7430_20240611150818", "plate_no": "XN7430", "gap_start_time": "2024-06-11T15:08:18", "gap_end_time": "2024-06-11T15:50:12", "gap_duration_min": 41.9, "wasted_distance_km": 2.092, "prev_trip": "DA240611032302", "next_trip": "DA240611004811", "prev_O": [114.1277767, 22.280605], "next_O": [114.1245247, 22.2709886]}, "geometry": {"type": "LineString", "coordinates": [[114.139405, 22.25779], [114.12441, 22.2705]]}}, {"type": "Feature", "properties": {"id": "ghost_XU8126_20240611123111", "plate_no": "XU8126", "gap_start_time": "2024-06-11T12:31:11", "gap_end_time": "2024-06-11T13:30:26", "gap_duration_min": 59.25, "wasted_distance_km": 7.21, "prev_trip": "DA240611035211", "next_trip": "DA240611035701", "prev_O": [114.1613761, 22.3200828], "next_O": [114.140359, 22.36439]}, "geometry": {"type": "LineString", "coordinates": [[114.169518, 22.305171], [114.14074, 22.364301]]}}, {"type": "Feature", "properties": {"id": "ghost_XV2836_20240611064949", "plate_no": "XV2836", "gap_start_time": "2024-06-11T06:49:49", "gap_end_time": "2024-06-11T10:45:23", "gap_duration_min": 235.57, "wasted_distance_km": 12.069, "prev_trip": "DA240611018611", "next_trip": "DA240611031201", "prev_O": [114.179555, 22.276041], "next_O": [114.2340809, 22.3214275]}, "geometry": {"type": "LineString", "coordinates": [[114.131261, 22.269288], [114.234076, 22.321551]]}}, {"type": "Feature", "properties": {"id": "ghost_XV2836_20240611105401", "plate_no": "XV2836", "gap_start_time": "2024-06-11T10:54:01", "gap_end_time": "2024-06-11T13:15:19", "gap_duration_min": 141.3, "wasted_distance_km": 1.706, "prev_trip": "DA240611031201", "next_trip": "DA240611016401", "prev_O": [114.2340809, 22.3214275], "next_O": [114.232943, 22.307857]}, "geometry": {"type": "LineString", "coordinates": [[114.227431, 22.320333], [114.233578, 22.306088]]}}, {"type": "Feature", "properties": {"id": "ghost_XV2836_20240611132449", "plate_no": "XV2836", "gap_start_time": "2024-06-11T13:24:49", "gap_end_time": "2024-06-11T15:05:00", "gap_duration_min": 100.18, "wasted_distance_km": 6.054, "prev_trip": "DA240611016401", "next_trip": "DA240611003601", "prev_O": [114.232943, 22.307857], "next_O": [114.1734921, 22.2726294]}, "geometry": {"type": "LineString", "coordinates": [[114.186395, 22.325568], [114.172495, 22.272666]]}}, {"type": "Feature", "properties": {"id": "ghost_YK3534_20240611124758", "plate_no": "YK3534", "gap_start_time": "2024-06-11T12:47:58", "gap_end_time": "2024-06-11T13:02:28", "gap_duration_min": 14.5, "wasted_distance_km": 2.382, "prev_trip": "DA240611013901", "next_trip": "DA240611022011", "prev_O": [114.177914, 22.313063], "next_O": [114.1665104, 22.3398313]}, "geometry": {"type": "LineString", "coordinates": [[114.183028, 22.32479], [114.166533, 22.33983]]}}, {"type": "Feature", "properties": {"id": "ghost_YK3534_20240611132928", "plate_no": "YK3534", "gap_start_time": "2024-06-11T13:29:28", "gap_end_time": "2024-06-11T14:41:32", "gap_duration_min": 72.07, "wasted_distance_km": 10.549, "prev_trip": "DA240611022011", "next_trip": "DA240611000811", "prev_O": [114.1665104, 22.3398313], "next_O": [114.1831334, 22.3223645]}, "geometry": {"type": "LineString", "coordinates": [[114.211496, 22.413123], [114.182648, 22.322081]]}}, {"type": "Feature", "properties": {"id": "ghost_YK3534_20240611153602", "plate_no": "YK3534", "gap_start_time": "2024-06-11T15:36:02", "gap_end_time": "2024-06-11T17:00:58", "gap_duration_min": 84.93, "wasted_distance_km": 9.559, "prev_trip": "DA240611000811", "next_trip": "DA240611019311", "prev_O": [114.1831334, 22.3223645], "next_O": [114.2305221, 22.3074016]}, "geometry": {"type": "LineString", "coordinates": [[114.272778, 22.38426], [114.23069, 22.30761]]}}, {"type": "Feature", "properties": {"id": "ghost_YK5072_20240611093542", "plate_no": "YK5072", "gap_start_time": "2024-06-11T09:35:42", "gap_end_time": "2024-06-11T10:32:21", "gap_duration_min": 56.65, "wasted_distance_km": 2.447, "prev_trip": "DA240611006111", "next_trip": "DA240611037311", "prev_O": [114.173567, 22.3164562], "next_O": [114.2518906, 22.3049429]}, "geometry": {"type": "LineString", "coordinates": [[114.228396, 22.306213], [114.252176, 22.305823]]}}, {"type": "Feature", "properties": {"id": "ghost_YK5072_20240611103451", "plate_no": "YK5072", "gap_start_time": "2024-06-11T10:34:51", "gap_end_time": "2024-06-11T11:45:14", "gap_duration_min": 70.38, "wasted_distance_km": 5.212, "prev_trip": "DA240611037311", "next_trip": "DA240611041602", "prev_O": [114.2518906, 22.3049429], "next_O": [114.2116892, 22.288416]}, "geometry": {"type": "LineString", "coordinates": [[114.257966, 22.31052], [114.212921, 22.289061]]}}, {"type": "Feature", "properties": {"id": "ghost_YK5072_20240611115414", "plate_no": "YK5072", "gap_start_time": "2024-06-11T11:54:14", "gap_end_time": "2024-06-11T14:05:50", "gap_duration_min": 131.6, "wasted_distance_km": 6.241, "prev_trip": "DA240611041602", "next_trip": "DA240611037702", "prev_O": [114.2116892, 22.288416], "next_O": [114.1533197, 22.2847502]}, "geometry": {"type": "LineString", "coordinates": [[114.217445, 22.2875], [114.156861, 22.284658]]}}, {"type": "Feature", "properties": {"id": "ghost_YK5072_20240611144320", "plate_no": "YK5072", "gap_start_time": "2024-06-11T14:43:20", "gap_end_time": "2024-06-11T17:45:25", "gap_duration_min": 182.08, "wasted_distance_km": 12.416, "prev_trip": "DA240611037702", "next_trip": "DA240611036101", "prev_O": [114.1533197, 22.2847502], "next_O": [114.1888665, 22.3125821]}, "geometry": {"type": "LineString", "coordinates": [[114.225066, 22.418845], [114.188978, 22.312293]]}}, {"type": "Feature", "properties": {"id": "ghost_YK7874_20240611093404", "plate_no": "YK7874", "gap_start_time": "2024-06-11T09:34:04", "gap_end_time": "2024-06-11T17:00:17", "gap_duration_min": 446.22, "wasted_distance_km": 3.8, "prev_trip": "DA240611003311", "next_trip": "DA240611021011", "prev_O": [114.2365271, 22.2631632], "next_O": [114.1394532, 22.2865441]}, "geometry": {"type": "LineString", "coordinates": [[114.17456, 22.276173], [114.13942, 22.286685]]}}, {"type": "Feature", "properties": {"id": "ghost_YK905_20240611095603", "plate_no": "YK905", "gap_start_time": "2024-06-11T09:56:03", "gap_end_time": "2024-06-11T12:15:03", "gap_duration_min": 139.0, "wasted_distance_km": 0.913, "prev_trip": "DA240611029801", "next_trip": "DA240611050301", "prev_O": [114.2399321, 22.2941788], "next_O": [114.2214496, 22.280536]}, "geometry": {"type": "LineString", "coordinates": [[114.214935, 22.285956], [114.221415, 22.280343]]}}, {"type": "Feature", "properties": {"id": "ghost_YK905_20240611123503", "plate_no": "YK905", "gap_start_time": "2024-06-11T12:35:03", "gap_end_time": "2024-06-11T14:50:27", "gap_duration_min": 135.4, "wasted_distance_km": 7.508, "prev_trip": "DA240611050301", "next_trip": "DA240611007111", "prev_O": [114.2214496, 22.280536], "next_O": [114.192478, 22.338538]}, "geometry": {"type": "LineString", "coordinates": [[114.25819, 22.306496], [114.193888, 22.338441]]}}, {"type": "Feature", "properties": {"id": "ghost_YL1783_20240611105946", "plate_no": "YL1783", "gap_start_time": "2024-06-11T10:59:46", "gap_end_time": "2024-06-11T14:41:57", "gap_duration_min": 222.18, "wasted_distance_km": 2.659, "prev_trip": "DA240611036402", "next_trip": "DA240611000602", "prev_O": [114.207831, 22.32266], "next_O": [114.1831334, 22.3223645]}, "geometry": {"type": "LineString", "coordinates": [[114.198983, 22.340646], [114.182605, 22.322148]]}}, {"type": "Feature", "properties": {"id": "ghost_YL6513_20240611105252", "plate_no": "YL6513", "gap_start_time": "2024-06-11T10:52:52", "gap_end_time": "2024-06-11T14:00:27", "gap_duration_min": 187.58, "wasted_distance_km": 4.08, "prev_trip": "DA240611043701", "next_trip": "DA240611024011", "prev_O": [114.2029271, 22.2860192], "next_O": [114.2362653, 22.2695993]}, "geometry": {"type": "LineString", "coordinates": [[114.20509, 22.291463], [114.233678, 22.266035]]}}, {"type": "Feature", "properties": {"id": "ghost_YL8082_20240611122348", "plate_no": "YL8082", "gap_start_time": "2024-06-11T12:23:48", "gap_end_time": "2024-06-11T12:41:18", "gap_duration_min": 17.5, "wasted_distance_km": 3.177, "prev_trip": "DA240611019502", "next_trip": "DA240611017902", "prev_O": [114.124252, 22.269896], "next_O": [114.1257917, 22.2819969]}, "geometry": {"type": "LineString", "coordinates": [[114.133431, 22.25432], [114.126911, 22.282248]]}}, {"type": "Feature", "properties": {"id": "ghost_YY6773_20240611152345", "plate_no": "YY6773", "gap_start_time": "2024-06-11T15:23:45", "gap_end_time": "2024-06-11T16:00:15", "gap_duration_min": 36.5, "wasted_distance_km": 1.603, "prev_trip": "DA240611003911", "next_trip": "DA240611004011", "prev_O": [114.2336165, 22.2637098], "next_O": [114.2336165, 22.2637098]}, "geometry": {"type": "LineString", "coordinates": [[114.237613, 22.27814], [114.233105, 22.26434]]}}, {"type": "Feature", "properties": {"id": "ghost_YY7621_20240611140700", "plate_no": "YY7621", "gap_start_time": "2024-06-11T14:07:00", "gap_end_time": "2024-06-11T15:30:05", "gap_duration_min": 83.08, "wasted_distance_km": 10.339, "prev_trip": "DA240611019002", "next_trip": "DA240611014802", "prev_O": [114.1234441, 22.2711318], "next_O": [114.1219651, 22.3714765]}, "geometry": {"type": "LineString", "coordinates": [[114.218815, 22.395648], [114.121686, 22.37156]]}}, {"type": "Feature", "properties": {"id": "ghost_YY7621_20240611155505", "plate_no": "YY7621", "gap_start_time": "2024-06-11T15:55:05", "gap_end_time": "2024-06-11T17:16:00", "gap_duration_min": 80.92, "wasted_distance_km": 1.895, "prev_trip": "DA240611014802", "next_trip": "DA240611001911", "prev_O": [114.1219651, 22.3714765], "next_O": [114.1228036, 22.3745621]}, "geometry": {"type": "LineString", "coordinates": [[114.137996, 22.371206], [114.12003, 22.375]]}}, {"type": "Feature", "properties": {"id": "ghost_ZA6585_20240611084044", "plate_no": "ZA6585", "gap_start_time": "2024-06-11T08:40:44", "gap_end_time": "2024-06-11T12:00:08", "gap_duration_min": 199.4, "wasted_distance_km": 4.082, "prev_trip": "DA240611032301", "next_trip": "DA240611042502", "prev_O": [114.1393313, 22.2578067], "next_O": [114.1563844, 22.2497404]}, "geometry": {"type": "LineString", "coordinates": [[114.130296, 22.277035], [114.156475, 22.249451]]}}, {"type": "Feature", "properties": {"id": "ghost_ZA6585_20240611120908", "plate_no": "ZA6585", "gap_start_time": "2024-06-11T12:09:08", "gap_end_time": "2024-06-11T12:50:04", "gap_duration_min": 40.93, "wasted_distance_km": 4.056, "prev_trip": "DA240611042502", "next_trip": "DA240611045211", "prev_O": [114.1563844, 22.2497404], "next_O": [114.1245247, 22.2709886]}, "geometry": {"type": "LineString", "coordinates": [[114.150418, 22.244051], [114.124208, 22.271295]]}}, {"type": "Feature", "properties": {"id": "ghost_ZA6941_20240611082207", "plate_no": "ZA6941", "gap_start_time": "2024-06-11T08:22:07", "gap_end_time": "2024-06-11T09:30:19", "gap_duration_min": 68.2, "wasted_distance_km": 1.031, "prev_trip": "DA240611004711", "next_trip": "DA240611028801", "prev_O": [114.192092, 22.281794], "next_O": [114.1281907, 22.2802383]}, "geometry": {"type": "LineString", "coordinates": [[114.124325, 22.271191], [114.12757, 22.279965]]}}, {"type": "Feature", "properties": {"id": "ghost_ZA6941_20240611094751", "plate_no": "ZA6941", "gap_start_time": "2024-06-11T09:47:51", "gap_end_time": "2024-06-11T11:30:23", "gap_duration_min": 102.53, "wasted_distance_km": 3.706, "prev_trip": "DA240611028801", "next_trip": "DA240611012611", "prev_O": [114.1281907, 22.2802383], "next_O": [114.1476512, 22.243373]}, "geometry": {"type": "LineString", "coordinates": [[114.12377, 22.26969], [114.147255, 22.244418]]}}, {"type": "Feature", "properties": {"id": "ghost_ZA7388_20240611095411", "plate_no": "ZA7388", "gap_start_time": "2024-06-11T09:54:11", "gap_end_time": "2024-06-11T15:00:19", "gap_duration_min": 306.13, "wasted_distance_km": 2.629, "prev_trip": "DA240611029701", "next_trip": "DA240611022401", "prev_O": [114.2278814, 22.3063034], "next_O": [114.2264127, 22.2825843]}, "geometry": {"type": "LineString", "coordinates": [[114.228181, 22.306003], [114.226933, 22.282388]]}}, {"type": "Feature", "properties": {"id": "ghost_ZA7388_20240611151519", "plate_no": "ZA7388", "gap_start_time": "2024-06-11T15:15:19", "gap_end_time": "2024-06-11T15:45:19", "gap_duration_min": 30.0, "wasted_distance_km": 1.826, "prev_trip": "DA240611022401", "next_trip": "DA240611007502", "prev_O": [114.2264127, 22.2825843], "next_O": [114.2253505, 22.2821867]}, "geometry": {"type": "LineString", "coordinates": [[114.236815, 22.2691], [114.225983, 22.282113]]}}, {"type": "Feature", "properties": {"id": "ghost_ZB1369_20240611084027", "plate_no": "ZB1369", "gap_start_time": "2024-06-11T08:40:27", "gap_end_time": "2024-06-11T14:36:24", "gap_duration_min": 355.95, "wasted_distance_km": 5.573, "prev_trip": "DA240611000601", "next_trip": "DA240611003411", "prev_O": [114.2004947, 22.2912707], "next_O": [114.173637, 22.2733649]}, "geometry": {"type": "LineString", "coordinates": [[114.1814, 22.323043], [114.1749, 22.273283]]}}, {"type": "Feature", "properties": {"id": "ghost_ZB3917_20240611131758", "plate_no": "ZB3917", "gap_start_time": "2024-06-11T13:17:58", "gap_end_time": "2024-06-11T13:45:27", "gap_duration_min": 27.48, "wasted_distance_km": 0.298, "prev_trip": "DA240611009501", "next_trip": "DA240611013411", "prev_O": [114.23931, 22.306717], "next_O": [114.2305221, 22.3074016]}, "geometry": {"type": "LineString", "coordinates": [[114.228346, 22.308336], [114.231031, 22.307323]]}}]}