{"type": "FeatureCollection", "features": [{"type": "Feature", "properties": {"id": "ghost_RV3895_20240618113338", "plate_no": "RV3895", "gap_start_time": "2024-06-18T11:33:38", "gap_end_time": "2024-06-18T13:15:22", "gap_duration_min": 101.73, "wasted_distance_km": 8.882, "prev_trip": "DA240618028101", "next_trip": "DA240618047101", "prev_O": [114.22004, 22.283011], "next_O": [114.2074247, 22.3290408]}, "geometry": {"type": "LineString", "coordinates": [[114.151251, 22.267541], [114.20564, 22.32957]]}}, {"type": "Feature", "properties": {"id": "ghost_RV3895_20240618133419", "plate_no": "RV3895", "gap_start_time": "2024-06-18T13:34:19", "gap_end_time": "2024-06-18T14:30:08", "gap_duration_min": 55.82, "wasted_distance_km": 6.624, "prev_trip": "DA240618047101", "next_trip": "DA240618045101", "prev_O": [114.2074247, 22.3290408], "next_O": [114.2398392, 22.3082267]}, "geometry": {"type": "LineString", "coordinates": [[114.175421, 22.308491], [114.239813, 22.30835]]}}, {"type": "Feature", "properties": {"id": "ghost_RV7493_20240618083740", "plate_no": "RV7493", "gap_start_time": "2024-06-18T08:37:40", "gap_end_time": "2024-06-18T14:10:23", "gap_duration_min": 332.72, "wasted_distance_km": 4.746, "prev_trip": "DA240618011901", "next_trip": "DA240618023901", "prev_O": [114.1958168, 22.3349711], "next_O": [114.192605, 22.338409]}, "geometry": {"type": "LineString", "coordinates": [[114.228731, 22.311538], [114.194315, 22.339963]]}}, {"type": "Feature", "properties": {"id": "ghost_RX3329_20240618101529", "plate_no": "RX3329", "gap_start_time": "2024-06-18T10:15:29", "gap_end_time": "2024-06-18T12:15:23", "gap_duration_min": 119.9, "wasted_distance_km": 0.379, "prev_trip": "DA240618025301", "next_trip": "DA240618025302", "prev_O": [114.255644, 22.322861], "next_O": [114.2312314, 22.2775774]}, "geometry": {"type": "LineString", "coordinates": [[114.230451, 22.275833], [114.231375, 22.279136]]}}, {"type": "Feature", "properties": {"id": "ghost_SL9199_20240618090655", "plate_no": "SL9199", "gap_start_time": "2024-06-18T09:06:55", "gap_end_time": "2024-06-18T09:30:06", "gap_duration_min": 23.18, "wasted_distance_km": 0.315, "prev_trip": "DA240618012701", "next_trip": "DA240618036701", "prev_O": [114.137108, 22.5004969], "next_O": [114.17154, 22.378342]}, "geometry": {"type": "LineString", "coordinates": [[114.174056, 22.376915], [114.171271, 22.37809]]}}, {"type": "Feature", "properties": {"id": "ghost_SL9199_20240618102118", "plate_no": "SL9199", "gap_start_time": "2024-06-18T10:21:18", "gap_end_time": "2024-06-18T15:30:02", "gap_duration_min": 308.73, "wasted_distance_km": 7.066, "prev_trip": "DA240618036701", "next_trip": "DA240618039302", "prev_O": [114.17154, 22.378342], "next_O": [114.1619514, 22.3330976]}, "geometry": {"type": "LineString", "coordinates": [[114.21298, 22.289045], [114.16296, 22.3326]]}}, {"type": "Feature", "properties": {"id": "ghost_SL9199_20240618155514", "plate_no": "SL9199", "gap_start_time": "2024-06-18T15:55:14", "gap_end_time": "2024-06-18T16:20:04", "gap_duration_min": 24.83, "wasted_distance_km": 2.386, "prev_trip": "DA240618039302", "next_trip": "DA240618036702", "prev_O": [114.1619514, 22.3330976], "next_O": [114.1952336, 22.3879318]}, "geometry": {"type": "LineString", "coordinates": [[114.176021, 22.375065], [114.194983, 22.387431]]}}, {"type": "Feature", "properties": {"id": "ghost_SL9199_20240618163014", "plate_no": "SL9199", "gap_start_time": "2024-06-18T16:30:14", "gap_end_time": "2024-06-18T18:40:25", "gap_duration_min": 130.18, "wasted_distance_km": 6.224, "prev_trip": "DA240618036702", "next_trip": "DA240618046302", "prev_O": [114.1952336, 22.3879318], "next_O": [114.1636164, 22.4337333]}, "geometry": {"type": "LineString", "coordinates": [[114.174648, 22.377225], [114.163685, 22.432278]]}}, {"type": "Feature", "properties": {"id": "ghost_SL9703_20240618110326", "plate_no": "SL9703", "gap_start_time": "2024-06-18T11:03:26", "gap_end_time": "2024-06-18T13:30:05", "gap_duration_min": 146.65, "wasted_distance_km": 8.748, "prev_trip": "DA240618016011", "next_trip": "DA240618039301", "prev_O": [114.133908, 22.501578], "next_O": [114.1772603, 22.3777274]}, "geometry": {"type": "LineString", "coordinates": [[114.171876, 22.456078], [114.17762, 22.377585]]}}, {"type": "Feature", "properties": {"id": "ghost_SM140_20240618083606", "plate_no": "SM140", "gap_start_time": "2024-06-18T08:36:06", "gap_end_time": "2024-06-18T09:59:14", "gap_duration_min": 83.13, "wasted_distance_km": 5.896, "prev_trip": "DA240618034011", "next_trip": "DA240618015601", "prev_O": [114.1647636, 22.3152362], "next_O": [114.2362091, 22.3072365]}, "geometry": {"type": "LineString", "coordinates": [[114.176371, 22.308678], [114.23362, 22.306178]]}}, {"type": "Feature", "properties": {"id": "ghost_SM140_20240618101345", "plate_no": "SM140", "gap_start_time": "2024-06-18T10:13:45", "gap_end_time": "2024-06-18T12:50:12", "gap_duration_min": 156.45, "wasted_distance_km": 7.165, "prev_trip": "DA240618015601", "next_trip": "DA240618040501", "prev_O": [114.2362091, 22.3072365], "next_O": [114.109969, 22.342199]}, "geometry": {"type": "LineString", "coordinates": [[114.171381, 22.313113], [114.109171, 22.342106]]}}, {"type": "Feature", "properties": {"id": "ghost_SM453_20240618082703", "plate_no": "SM453", "gap_start_time": "2024-06-18T08:27:03", "gap_end_time": "2024-06-18T14:30:08", "gap_duration_min": 363.08, "wasted_distance_km": 0.657, "prev_trip": "DA240618042201", "next_trip": "DA240618040011", "prev_O": [114.1635126, 22.3142379], "next_O": [114.1736631, 22.3009048]}, "geometry": {"type": "LineString", "coordinates": [[114.173848, 22.306785], [114.173658, 22.300883]]}}, {"type": "Feature", "properties": {"id": "ghost_SM453_20240618145438", "plate_no": "SM453", "gap_start_time": "2024-06-18T14:54:38", "gap_end_time": "2024-06-18T17:31:11", "gap_duration_min": 156.55, "wasted_distance_km": 9.218, "prev_trip": "DA240618040011", "next_trip": "DA240618020302", "prev_O": [114.1736631, 22.3009048], "next_O": [114.1312907, 22.269962]}, "geometry": {"type": "LineString", "coordinates": [[114.218598, 22.286565], [114.130741, 22.270351]]}}, {"type": "Feature", "properties": {"id": "ghost_TC1655_20240618104031", "plate_no": "TC1655", "gap_start_time": "2024-06-18T10:40:31", "gap_end_time": "2024-06-18T12:40:55", "gap_duration_min": 120.4, "wasted_distance_km": 4.505, "prev_trip": "DA240618022301", "next_trip": "DA240618041302", "prev_O": [114.1756154, 22.2506586], "next_O": [114.1453133, 22.2851348]}, "geometry": {"type": "LineString", "coordinates": [[114.150765, 22.244546], [114.142846, 22.284391]]}}, {"type": "Feature", "properties": {"id": "ghost_TC1655_20240618125926", "plate_no": "TC1655", "gap_start_time": "2024-06-18T12:59:26", "gap_end_time": "2024-06-18T15:00:01", "gap_duration_min": 120.58, "wasted_distance_km": 3.735, "prev_trip": "DA240618041302", "next_trip": "DA240618027102", "prev_O": [114.1453133, 22.2851348], "next_O": [114.1277767, 22.280605]}, "geometry": {"type": "LineString", "coordinates": [[114.151093, 22.252653], [114.128703, 22.279086]]}}, {"type": "Feature", "properties": {"id": "ghost_TD4705_20240618105603", "plate_no": "TD4705", "gap_start_time": "2024-06-18T10:56:03", "gap_end_time": "2024-06-18T13:05:18", "gap_duration_min": 129.25, "wasted_distance_km": 5.615, "prev_trip": "DA240618041901", "next_trip": "DA240618025602", "prev_O": [114.1811606, 22.3428889], "next_O": [114.1788078, 22.279342]}, "geometry": {"type": "LineString", "coordinates": [[114.209101, 22.325471], [114.179463, 22.283063]]}}, {"type": "Feature", "properties": {"id": "ghost_TV8531_20240618123256", "plate_no": "TV8531", "gap_start_time": "2024-06-18T12:32:56", "gap_end_time": "2024-06-18T14:15:06", "gap_duration_min": 102.17, "wasted_distance_km": 1.741, "prev_trip": "DA240618013302", "next_trip": "DA240618049211", "prev_O": [114.123459, 22.2712449], "next_O": [114.058911, 22.366227]}, "geometry": {"type": "LineString", "coordinates": [[114.060291, 22.351156], [114.059078, 22.366771]]}}, {"type": "Feature", "properties": {"id": "ghost_TV9732_20240618102156", "plate_no": "TV9732", "gap_start_time": "2024-06-18T10:21:56", "gap_end_time": "2024-06-18T12:35:04", "gap_duration_min": 133.13, "wasted_distance_km": 7.103, "prev_trip": "DA240618039001", "next_trip": "DA240618026002", "prev_O": [114.2566511, 22.3110934], "next_O": [114.1638181, 22.325629]}, "geometry": {"type": "LineString", "coordinates": [[114.230825, 22.309781], [114.163895, 22.325483]]}}, {"type": "Feature", "properties": {"id": "ghost_TV9732_20240618125835", "plate_no": "TV9732", "gap_start_time": "2024-06-18T12:58:35", "gap_end_time": "2024-06-18T13:31:06", "gap_duration_min": 32.52, "wasted_distance_km": 2.076, "prev_trip": "DA240618026002", "next_trip": "DA240618012001", "prev_O": [114.1638181, 22.325629], "next_O": [114.2114171, 22.3403651]}, "geometry": {"type": "LineString", "coordinates": [[114.188105, 22.337953], [114.208098, 22.340513]]}}, {"type": "Feature", "properties": {"id": "ghost_TX9739_20240618055010", "plate_no": "TX9739", "gap_start_time": "2024-06-18T05:50:10", "gap_end_time": "2024-06-18T09:30:12", "gap_duration_min": 220.03, "wasted_distance_km": 7.18, "prev_trip": "DA240618018301", "next_trip": "DA240618031701", "prev_O": [114.0979333, 22.3489429], "next_O": [114.2295521, 22.3191796]}, "geometry": {"type": "LineString", "coordinates": [[114.174471, 22.280841], [114.228835, 22.321331]]}}, {"type": "Feature", "properties": {"id": "ghost_TX9739_20240618094910", "plate_no": "TX9739", "gap_start_time": "2024-06-18T09:49:10", "gap_end_time": "2024-06-18T11:00:13", "gap_duration_min": 71.05, "wasted_distance_km": 4.725, "prev_trip": "DA240618031701", "next_trip": "DA240618010511", "prev_O": [114.2295521, 22.3191796], "next_O": [114.1910075, 22.3429899]}, "geometry": {"type": "LineString", "coordinates": [[114.177536, 22.303175], [114.192098, 22.343475]]}}, {"type": "Feature", "properties": {"id": "ghost_TX9739_20240618111113", "plate_no": "TX9739", "gap_start_time": "2024-06-18T11:11:13", "gap_end_time": "2024-06-18T13:15:21", "gap_duration_min": 124.13, "wasted_distance_km": 29.903, "prev_trip": "DA240618010511", "next_trip": "DA240618020111", "prev_O": [114.1910075, 22.3429899], "next_O": [113.9363461, 22.2813691]}, "geometry": {"type": "LineString", "coordinates": [[114.225061, 22.313038], [113.93641, 22.281513]]}}, {"type": "Feature", "properties": {"id": "ghost_TX9739_20240618134753", "plate_no": "TX9739", "gap_start_time": "2024-06-18T13:47:53", "gap_end_time": "2024-06-18T14:45:05", "gap_duration_min": 57.2, "wasted_distance_km": 5.767, "prev_trip": "DA240618020111", "next_trip": "DA240618000202", "prev_O": [113.9363461, 22.2813691], "next_O": [114.1283333, 22.3458333]}, "geometry": {"type": "LineString", "coordinates": [[114.164475, 22.306533], [114.128451, 22.346275]]}}, {"type": "Feature", "properties": {"id": "ghost_TX9739_20240618145405", "plate_no": "TX9739", "gap_start_time": "2024-06-18T14:54:05", "gap_end_time": "2024-06-18T16:15:15", "gap_duration_min": 81.17, "wasted_distance_km": 0.854, "prev_trip": "DA240618000202", "next_trip": "DA240618000302", "prev_O": [114.1283333, 22.3458333], "next_O": [114.1283333, 22.3458333]}, "geometry": {"type": "LineString", "coordinates": [[114.131811, 22.354281], [114.13147, 22.34661]]}}, {"type": "Feature", "properties": {"id": "ghost_TX9769_20240618082915", "plate_no": "TX9769", "gap_start_time": "2024-06-18T08:29:15", "gap_end_time": "2024-06-18T09:05:18", "gap_duration_min": 36.05, "wasted_distance_km": 7.401, "prev_trip": "DA240618012301", "next_trip": "DA240618011301", "prev_O": [114.1919131, 22.3437841], "next_O": [114.1924518, 22.3783249]}, "geometry": {"type": "LineString", "coordinates": [[114.172391, 22.314503], [114.192893, 22.378308]]}}, {"type": "Feature", "properties": {"id": "ghost_TX9769_20240618092454", "plate_no": "TX9769", "gap_start_time": "2024-06-18T09:24:54", "gap_end_time": "2024-06-18T12:30:14", "gap_duration_min": 185.33, "wasted_distance_km": 13.242, "prev_trip": "DA240618011301", "next_trip": "DA240618048411", "prev_O": [114.1924518, 22.3783249], "next_O": [114.2223687, 22.4105226]}, "geometry": {"type": "LineString", "coordinates": [[114.164696, 22.304198], [114.222668, 22.410535]]}}, {"type": "Feature", "properties": {"id": "ghost_UL3556_20240618084855", "plate_no": "UL3556", "gap_start_time": "2024-06-18T08:48:55", "gap_end_time": "2024-06-18T10:30:11", "gap_duration_min": 101.27, "wasted_distance_km": 3.536, "prev_trip": "DA240618002601", "next_trip": "DA240618028602", "prev_O": [114.268715, 22.2962922], "next_O": [114.1832816, 22.3250389]}, "geometry": {"type": "LineString", "coordinates": [[114.215866, 22.334061], [114.182995, 22.324756]]}}, {"type": "Feature", "properties": {"id": "ghost_UL4469_20240618080935", "plate_no": "UL4469", "gap_start_time": "2024-06-18T08:09:35", "gap_end_time": "2024-06-18T09:15:03", "gap_duration_min": 65.47, "wasted_distance_km": 0.695, "prev_trip": "DA240618012401", "next_trip": "DA240618001811", "prev_O": [114.1414736, 22.3728484], "next_O": [114.1236864, 22.362922]}, "geometry": {"type": "LineString", "coordinates": [[114.12249, 22.368581], [114.123445, 22.362391]]}}, {"type": "Feature", "properties": {"id": "ghost_UL4469_20240618093159", "plate_no": "UL4469", "gap_start_time": "2024-06-18T09:31:59", "gap_end_time": "2024-06-18T11:45:25", "gap_duration_min": 133.43, "wasted_distance_km": 8.239, "prev_trip": "DA240618001811", "next_trip": "DA240618043102", "prev_O": [114.1236864, 22.362922], "next_O": [114.1832816, 22.3250389]}, "geometry": {"type": "LineString", "coordinates": [[114.123851, 22.374896], [114.182916, 22.32484]]}}, {"type": "Feature", "properties": {"id": "ghost_UM4207_20240618101513", "plate_no": "UM4207", "gap_start_time": "2024-06-18T10:15:13", "gap_end_time": "2024-06-18T13:00:08", "gap_duration_min": 164.92, "wasted_distance_km": 10.269, "prev_trip": "DA240618040111", "next_trip": "DA240618046502", "prev_O": [114.1875475, 22.3435146], "next_O": [114.2125912, 22.425262]}, "geometry": {"type": "LineString", "coordinates": [[114.182968, 22.336323], [114.21227, 22.424611]]}}, {"type": "Feature", "properties": {"id": "ghost_UM5926_20240618101841", "plate_no": "UM5926", "gap_start_time": "2024-06-18T10:18:41", "gap_end_time": "2024-06-18T13:46:11", "gap_duration_min": 207.5, "wasted_distance_km": 7.178, "prev_trip": "DA240618048101", "next_trip": "DA240618043311", "prev_O": [114.167412, 22.339626], "next_O": [114.2017654, 22.3419211]}, "geometry": {"type": "LineString", "coordinates": [[114.1317, 22.342846], [114.201486, 22.341943]]}}, {"type": "Feature", "properties": {"id": "ghost_UN8698_20240618125339", "plate_no": "UN8698", "gap_start_time": "2024-06-18T12:53:39", "gap_end_time": "2024-06-18T13:35:04", "gap_duration_min": 41.42, "wasted_distance_km": 3.758, "prev_trip": "DA240618030402", "next_trip": "DA240618025201", "prev_O": [114.182831, 22.373419], "next_O": [114.1553149, 22.2409917]}, "geometry": {"type": "LineString", "coordinates": [[114.132243, 22.266641], [114.15561, 22.240673]]}}, {"type": "Feature", "properties": {"id": "ghost_UN9790_20240618080850", "plate_no": "UN9790", "gap_start_time": "2024-06-18T08:08:50", "gap_end_time": "2024-06-18T09:30:06", "gap_duration_min": 81.27, "wasted_distance_km": 12.521, "prev_trip": "DA240618028001", "next_trip": "DA240618033401", "prev_O": [114.113115, 22.369607], "next_O": [114.014558, 22.307181]}, "geometry": {"type": "LineString", "coordinates": [[114.114836, 22.37041], [114.014306, 22.306896]]}}, {"type": "Feature", "properties": {"id": "ghost_UN9790_20240618094835", "plate_no": "UN9790", "gap_start_time": "2024-06-18T09:48:35", "gap_end_time": "2024-06-18T10:45:05", "gap_duration_min": 56.5, "wasted_distance_km": 21.111, "prev_trip": "DA240618033401", "next_trip": "DA240618019211", "prev_O": [114.014558, 22.307181], "next_O": [114.1263247, 22.3461832]}, "geometry": {"type": "LineString", "coordinates": [[113.934531, 22.278943], [114.126211, 22.346761]]}}, {"type": "Feature", "properties": {"id": "ghost_UN9790_20240618105533", "plate_no": "UN9790", "gap_start_time": "2024-06-18T10:55:33", "gap_end_time": "2024-06-18T13:00:02", "gap_duration_min": 124.48, "wasted_distance_km": 4.962, "prev_trip": "DA240618019211", "next_trip": "DA240618022011", "prev_O": [114.1263247, 22.3461832], "next_O": [114.1665104, 22.3398313]}, "geometry": {"type": "LineString", "coordinates": [[114.123043, 22.359851], [114.166186, 22.339876]]}}, {"type": "Feature", "properties": {"id": "ghost_UP6525_20240618112200", "plate_no": "UP6525", "gap_start_time": "2024-06-18T11:22:00", "gap_end_time": "2024-06-18T15:05:04", "gap_duration_min": 223.07, "wasted_distance_km": 8.848, "prev_trip": "DA240618019801", "next_trip": "DA240618042711", "prev_O": [114.1708277, 22.3073518], "next_O": [114.1453133, 22.2851348]}, "geometry": {"type": "LineString", "coordinates": [[114.225275, 22.315], [114.145625, 22.28499]]}}, {"type": "Feature", "properties": {"id": "ghost_UR468_20240618135845", "plate_no": "UR468", "gap_start_time": "2024-06-18T13:58:45", "gap_end_time": "2024-06-18T17:20:10", "gap_duration_min": 201.42, "wasted_distance_km": 5.257, "prev_trip": "DA240618017401", "next_trip": "DA240618040502", "prev_O": [114.2132694, 22.3315784], "next_O": [114.2153672, 22.3331197]}, "geometry": {"type": "LineString", "coordinates": [[114.205205, 22.3793], [114.215533, 22.332996]]}}, {"type": "Feature", "properties": {"id": "ghost_VD1810_20240618104710", "plate_no": "VD1810", "gap_start_time": "2024-06-18T10:47:10", "gap_end_time": "2024-06-18T11:30:18", "gap_duration_min": 43.13, "wasted_distance_km": 2.82, "prev_trip": "DA240618027901", "next_trip": "DA240618017611", "prev_O": [114.2642247, 22.3155765], "next_O": [114.18802, 22.3199971]}, "geometry": {"type": "LineString", "coordinates": [[114.198071, 22.34329], [114.18699, 22.32009]]}}, {"type": "Feature", "properties": {"id": "ghost_VD768_20240618101723", "plate_no": "VD768", "gap_start_time": "2024-06-18T10:17:23", "gap_end_time": "2024-06-18T13:02:25", "gap_duration_min": 165.03, "wasted_distance_km": 10.078, "prev_trip": "DA240618042301", "next_trip": "DA240618017511", "prev_O": [114.2269991, 22.2807278], "next_O": [114.1292112, 22.3635315]}, "geometry": {"type": "LineString", "coordinates": [[114.209216, 22.318538], [114.126585, 22.367251]]}}, {"type": "Feature", "properties": {"id": "ghost_VD768_20240618130325", "plate_no": "VD768", "gap_start_time": "2024-06-18T13:03:25", "gap_end_time": "2024-06-18T15:30:15", "gap_duration_min": 146.83, "wasted_distance_km": 0.675, "prev_trip": "DA240618017511", "next_trip": "DA240618012402", "prev_O": [114.1292112, 22.3635315], "next_O": [114.1219651, 22.3714765]}, "geometry": {"type": "LineString", "coordinates": [[114.125146, 22.366316], [114.121921, 22.371601]]}}, {"type": "Feature", "properties": {"id": "ghost_VD768_20240618155445", "plate_no": "VD768", "gap_start_time": "2024-06-18T15:54:45", "gap_end_time": "2024-06-18T17:15:15", "gap_duration_min": 80.5, "wasted_distance_km": 1.582, "prev_trip": "DA240618012402", "next_trip": "DA240618001911", "prev_O": [114.1219651, 22.3714765], "next_O": [114.1228036, 22.3745621]}, "geometry": {"type": "LineString", "coordinates": [[114.137361, 22.37091], [114.12281, 22.375543]]}}, {"type": "Feature", "properties": {"id": "ghost_VE6920_20240618121927", "plate_no": "VE6920", "gap_start_time": "2024-06-18T12:19:27", "gap_end_time": "2024-06-18T13:20:13", "gap_duration_min": 60.77, "wasted_distance_km": 3.747, "prev_trip": "DA240618024702", "next_trip": "DA240618045801", "prev_O": [114.2303424, 22.3079333], "next_O": [114.2666792, 22.3063335]}, "geometry": {"type": "LineString", "coordinates": [[114.230275, 22.305288], [114.266671, 22.306575]]}}, {"type": "Feature", "properties": {"id": "ghost_VE7751_20240618082907", "plate_no": "VE7751", "gap_start_time": "2024-06-18T08:29:07", "gap_end_time": "2024-06-18T09:25:28", "gap_duration_min": 56.35, "wasted_distance_km": 3.386, "prev_trip": "DA240618028801", "next_trip": "DA240618011001", "prev_O": [114.2287366, 22.3118568], "next_O": [114.1392441, 22.3710199]}, "geometry": {"type": "LineString", "coordinates": [[114.131275, 22.342506], [114.13915, 22.372075]]}}, {"type": "Feature", "properties": {"id": "ghost_VG422_20240618095803", "plate_no": "VG422", "gap_start_time": "2024-06-18T09:58:03", "gap_end_time": "2024-06-18T12:00:30", "gap_duration_min": 122.45, "wasted_distance_km": 16.418, "prev_trip": "DA240618008701", "next_trip": "DA240618009302", "prev_O": [114.0311912, 22.4437761], "next_O": [114.119485, 22.369918]}, "geometry": {"type": "LineString", "coordinates": [[113.960603, 22.376011], [114.12014, 22.370101]]}}, {"type": "Feature", "properties": {"id": "ghost_VG422_20240618120300", "plate_no": "VG422", "gap_start_time": "2024-06-18T12:03:00", "gap_end_time": "2024-06-18T14:15:27", "gap_duration_min": 132.45, "wasted_distance_km": 12.014, "prev_trip": "DA240618009302", "next_trip": "DA240618026102", "prev_O": [114.119485, 22.369918], "next_O": [114.1777194, 22.2755944]}, "geometry": {"type": "LineString", "coordinates": [[114.120778, 22.369431], [114.177923, 22.275205]]}}, {"type": "Feature", "properties": {"id": "ghost_VW3473_20240618104035", "plate_no": "VW3473", "gap_start_time": "2024-06-18T10:40:35", "gap_end_time": "2024-06-18T13:30:07", "gap_duration_min": 169.53, "wasted_distance_km": 0.405, "prev_trip": "DA240618008301", "next_trip": "DA240618008302", "prev_O": [114.132062, 22.345299], "next_O": [114.1112277, 22.370821]}, "geometry": {"type": "LineString", "coordinates": [[114.114785, 22.371173], [114.110851, 22.371353]]}}, {"type": "Feature", "properties": {"id": "ghost_VW4627_20240618082836", "plate_no": "VW4627", "gap_start_time": "2024-06-18T08:28:36", "gap_end_time": "2024-06-18T08:45:06", "gap_duration_min": 16.5, "wasted_distance_km": 1.057, "prev_trip": "DA240618046911", "next_trip": "DA240618012601", "prev_O": [114.133951, 22.4919479], "next_O": [114.137108, 22.5004969]}, "geometry": {"type": "LineString", "coordinates": [[114.12742, 22.496858], [114.136985, 22.500366]]}}, {"type": "Feature", "properties": {"id": "ghost_VW4627_20240618090308", "plate_no": "VW4627", "gap_start_time": "2024-06-18T09:03:08", "gap_end_time": "2024-06-18T12:30:20", "gap_duration_min": 207.2, "wasted_distance_km": 14.813, "prev_trip": "DA240618012601", "next_trip": "DA240618021011", "prev_O": [114.137108, 22.5004969], "next_O": [113.9951344, 22.4590869]}, "geometry": {"type": "LineString", "coordinates": [[114.139406, 22.482948], [113.997391, 22.460045]]}}, {"type": "Feature", "properties": {"id": "ghost_VW5222_20240618081941", "plate_no": "VW5222", "gap_start_time": "2024-06-18T08:19:41", "gap_end_time": "2024-06-18T09:15:21", "gap_duration_min": 55.67, "wasted_distance_km": 2.501, "prev_trip": "DA240618013011", "next_trip": "DA240618012211", "prev_O": [114.1867442, 22.3754142], "next_O": [114.2007294, 22.3423792]}, "geometry": {"type": "LineString", "coordinates": [[114.184665, 22.325245], [114.200895, 22.34199]]}}, {"type": "Feature", "properties": {"id": "ghost_VW5222_20240618093052", "plate_no": "VW5222", "gap_start_time": "2024-06-18T09:30:52", "gap_end_time": "2024-06-18T12:17:57", "gap_duration_min": 167.08, "wasted_distance_km": 7.924, "prev_trip": "DA240618012211", "next_trip": "DA240618027411", "prev_O": [114.2007294, 22.3423792], "next_O": [114.2028038, 22.4017167]}, "geometry": {"type": "LineString", "coordinates": [[114.192241, 22.331563], [114.202761, 22.40216]]}}, {"type": "Feature", "properties": {"id": "ghost_VX2887_20240618121350", "plate_no": "VX2887", "gap_start_time": "2024-06-18T12:13:50", "gap_end_time": "2024-06-18T15:30:59", "gap_duration_min": 197.15, "wasted_distance_km": 2.493, "prev_trip": "DA240618016901", "next_trip": "DA240618035202", "prev_O": [114.1902412, 22.287115], "next_O": [114.1818117, 22.3162364]}, "geometry": {"type": "LineString", "coordinates": [[114.161586, 22.332538], [114.181048, 22.319173]]}}, {"type": "Feature", "properties": {"id": "ghost_VX2887_20240618153929", "plate_no": "VX2887", "gap_start_time": "2024-06-18T15:39:29", "gap_end_time": "2024-06-18T17:00:27", "gap_duration_min": 80.97, "wasted_distance_km": 5.165, "prev_trip": "DA240618035202", "next_trip": "DA240618006211", "prev_O": [114.1818117, 22.3162364], "next_O": [114.2303424, 22.3079333]}, "geometry": {"type": "LineString", "coordinates": [[114.182001, 22.319605], [114.230641, 22.30809]]}}, {"type": "Feature", "properties": {"id": "ghost_VX3591_20240618130836", "plate_no": "VX3591", "gap_start_time": "2024-06-18T13:08:36", "gap_end_time": "2024-06-18T14:25:15", "gap_duration_min": 76.65, "wasted_distance_km": 15.065, "prev_trip": "DA240618024501", "next_trip": "DA240618005402", "prev_O": [114.2537702, 22.3241518], "next_O": [114.173077, 22.4611085]}, "geometry": {"type": "LineString", "coordinates": [[114.180865, 22.326186], [114.173073, 22.461481]]}}, {"type": "Feature", "properties": {"id": "ghost_VY5967_20240618085256", "plate_no": "VY5967", "gap_start_time": "2024-06-18T08:52:56", "gap_end_time": "2024-06-18T13:00:09", "gap_duration_min": 247.22, "wasted_distance_km": 17.91, "prev_trip": "DA240618011101", "next_trip": "DA240618038001", "prev_O": [114.1704097, 22.4442723], "next_O": [114.2378009, 22.3051463]}, "geometry": {"type": "LineString", "coordinates": [[114.17218, 22.454018], [114.238046, 22.304906]]}}, {"type": "Feature", "properties": {"id": "ghost_VY5967_20240618131105", "plate_no": "VY5967", "gap_start_time": "2024-06-18T13:11:05", "gap_end_time": "2024-06-18T15:45:06", "gap_duration_min": 154.02, "wasted_distance_km": 17.166, "prev_trip": "DA240618038001", "next_trip": "DA240618011102", "prev_O": [114.2378009, 22.3051463], "next_O": [114.1754722, 22.4530181]}, "geometry": {"type": "LineString", "coordinates": [[114.22824, 22.306118], [114.175263, 22.452521]]}}, {"type": "Feature", "properties": {"id": "ghost_WN8723_20240618141723", "plate_no": "WN8723", "gap_start_time": "2024-06-18T14:17:23", "gap_end_time": "2024-06-18T15:15:20", "gap_duration_min": 57.95, "wasted_distance_km": 4.714, "prev_trip": "DA240618017711", "next_trip": "DA240618038502", "prev_O": [114.2000001, 22.3469104], "next_O": [114.2286568, 22.3119002]}, "geometry": {"type": "LineString", "coordinates": [[114.198918, 22.34388], [114.22859, 22.311565]]}}, {"type": "Feature", "properties": {"id": "ghost_WN8723_20240618152920", "plate_no": "WN8723", "gap_start_time": "2024-06-18T15:29:20", "gap_end_time": "2024-06-18T17:05:11", "gap_duration_min": 95.85, "wasted_distance_km": 6.808, "prev_trip": "DA240618038502", "next_trip": "DA240618021211", "prev_O": [114.2286568, 22.3119002], "next_O": [114.1743747, 22.3091816]}, "geometry": {"type": "LineString", "coordinates": [[114.240678, 22.30274], [114.174916, 22.309613]]}}, {"type": "Feature", "properties": {"id": "ghost_WN9330_20240618115628", "plate_no": "WN9330", "gap_start_time": "2024-06-18T11:56:28", "gap_end_time": "2024-06-18T14:40:14", "gap_duration_min": 163.77, "wasted_distance_km": 30.609, "prev_trip": "DA240618035502", "next_trip": "DA240618033402", "prev_O": [114.1738962, 22.4602197], "next_O": [113.9319458, 22.2772163]}, "geometry": {"type": "LineString", "coordinates": [[114.169031, 22.44348], [113.932088, 22.276875]]}}, {"type": "Feature", "properties": {"id": "ghost_WN9331_20240618121706", "plate_no": "WN9331", "gap_start_time": "2024-06-18T12:17:06", "gap_end_time": "2024-06-18T17:00:24", "gap_duration_min": 283.3, "wasted_distance_km": 4.423, "prev_trip": "DA240618028202", "next_trip": "DA240618024111", "prev_O": [114.2127228, 22.2887855], "next_O": [114.2285466, 22.3117509]}, "geometry": {"type": "LineString", "coordinates": [[114.267886, 22.294953], [114.228806, 22.311528]]}}, {"type": "Feature", "properties": {"id": "ghost_WP3306_20240618142114", "plate_no": "WP3306", "gap_start_time": "2024-06-18T14:21:14", "gap_end_time": "2024-06-18T15:30:27", "gap_duration_min": 69.22, "wasted_distance_km": 6.861, "prev_trip": "DA240618047801", "next_trip": "DA240618036202", "prev_O": [114.1680403, 22.4539443], "next_O": [114.1236838, 22.4950121]}, "geometry": {"type": "LineString", "coordinates": [[114.174538, 22.458971], [114.122843, 22.498033]]}}, {"type": "Feature", "properties": {"id": "ghost_WP3825_20240618102048", "plate_no": "WP3825", "gap_start_time": "2024-06-18T10:20:48", "gap_end_time": "2024-06-18T12:16:43", "gap_duration_min": 115.92, "wasted_distance_km": 0.011, "prev_trip": "DA240618045311", "next_trip": "DA240618045411", "prev_O": [114.2276028, 22.3043425], "next_O": [114.1717909, 22.3154728]}, "geometry": {"type": "LineString", "coordinates": [[114.171696, 22.319698], [114.17178, 22.319763]]}}, {"type": "Feature", "properties": {"id": "ghost_WP3890_20240618130159", "plate_no": "WP3890", "gap_start_time": "2024-06-18T13:01:59", "gap_end_time": "2024-06-18T14:00:24", "gap_duration_min": 58.42, "wasted_distance_km": 3.145, "prev_trip": "DA240618030602", "next_trip": "DA240618033502", "prev_O": [114.182831, 22.373419], "next_O": [114.1533197, 22.2847502]}, "geometry": {"type": "LineString", "coordinates": [[114.13229, 22.267136], [114.156566, 22.284321]]}}, {"type": "Feature", "properties": {"id": "ghost_WP3895_20240618083047", "plate_no": "WP3895", "gap_start_time": "2024-06-18T08:30:47", "gap_end_time": "2024-06-18T09:30:47", "gap_duration_min": 60.0, "wasted_distance_km": 6.049, "prev_trip": "DA240618002701", "next_trip": "DA240618039411", "prev_O": [114.1890105, 22.3079943], "next_O": [114.2640324, 22.3147268]}, "geometry": {"type": "LineString", "coordinates": [[114.213193, 22.335911], [114.268068, 22.316343]]}}, {"type": "Feature", "properties": {"id": "ghost_WP4172_20240618151754", "plate_no": "WP4172", "gap_start_time": "2024-06-18T15:17:54", "gap_end_time": "2024-06-18T16:00:08", "gap_duration_min": 42.23, "wasted_distance_km": 0.818, "prev_trip": "DA240618010902", "next_trip": "DA240618039102", "prev_O": [114.1832816, 22.3250389], "next_O": [114.1743747, 22.3091816]}, "geometry": {"type": "LineString", "coordinates": [[114.177791, 22.312985], [114.1717, 22.30826]]}}, {"type": "Feature", "properties": {"id": "ghost_WP4172_20240618161838", "plate_no": "WP4172", "gap_start_time": "2024-06-18T16:18:38", "gap_end_time": "2024-06-18T21:00:16", "gap_duration_min": 281.63, "wasted_distance_km": 10.201, "prev_trip": "DA240618039102", "next_trip": "DA240618021602", "prev_O": [114.1743747, 22.3091816], "next_O": [114.179118, 22.27986]}, "geometry": {"type": "LineString", "coordinates": [[114.138973, 22.364173], [114.178765, 22.280146]]}}, {"type": "Feature", "properties": {"id": "ghost_WP510_20240618110403", "plate_no": "WP510", "gap_start_time": "2024-06-18T11:04:03", "gap_end_time": "2024-06-18T13:45:49", "gap_duration_min": 161.77, "wasted_distance_km": 1.062, "prev_trip": "DA240618030401", "next_trip": "DA240618022201", "prev_O": [114.1325641, 22.266401], "next_O": [114.1827676, 22.3819893]}, "geometry": {"type": "LineString", "coordinates": [[114.18274, 22.372786], [114.181868, 22.382303]]}}, {"type": "Feature", "properties": {"id": "ghost_WP5818_20240618124950", "plate_no": "WP5818", "gap_start_time": "2024-06-18T12:49:50", "gap_end_time": "2024-06-18T13:30:16", "gap_duration_min": 40.43, "wasted_distance_km": 15.039, "prev_trip": "DA240618046602", "next_trip": "DA240618032801", "prev_O": [114.1196168, 22.3695586], "next_O": [113.9708854, 22.404466]}, "geometry": {"type": "LineString", "coordinates": [[114.10913, 22.353478], [113.972813, 22.402508]]}}, {"type": "Feature", "properties": {"id": "ghost_WP923_20240618091846", "plate_no": "WP923", "gap_start_time": "2024-06-18T09:18:46", "gap_end_time": "2024-06-18T10:44:16", "gap_duration_min": 85.5, "wasted_distance_km": 7.236, "prev_trip": "DA240618007501", "next_trip": "DA240618007701", "prev_O": [114.1786768, 22.3729477], "next_O": [114.1825316, 22.3162312]}, "geometry": {"type": "LineString", "coordinates": [[114.199101, 22.380283], [114.182021, 22.317155]]}}, {"type": "Feature", "properties": {"id": "ghost_XE1372_20240618122451", "plate_no": "XE1372", "gap_start_time": "2024-06-18T12:24:51", "gap_end_time": "2024-06-18T13:00:52", "gap_duration_min": 36.02, "wasted_distance_km": 1.856, "prev_trip": "DA240618030902", "next_trip": "DA240618007411", "prev_O": [114.1952336, 22.3879318], "next_O": [114.2182917, 22.3260159]}, "geometry": {"type": "LineString", "coordinates": [[114.230425, 22.318851], [114.215641, 22.328428]]}}, {"type": "Feature", "properties": {"id": "ghost_XE1372_20240618131050", "plate_no": "XE1372", "gap_start_time": "2024-06-18T13:10:50", "gap_end_time": "2024-06-18T14:40:17", "gap_duration_min": 89.45, "wasted_distance_km": 3.117, "prev_trip": "DA240618007411", "next_trip": "DA240618000602", "prev_O": [114.2182917, 22.3260159], "next_O": [114.1831334, 22.3223645]}, "geometry": {"type": "LineString", "coordinates": [[114.211908, 22.33002], [114.182721, 22.322466]]}}, {"type": "Feature", "properties": {"id": "ghost_XE2198_20240618130241", "plate_no": "XE2198", "gap_start_time": "2024-06-18T13:02:41", "gap_end_time": "2024-06-18T14:15:37", "gap_duration_min": 72.93, "wasted_distance_km": 13.261, "prev_trip": "DA240618018802", "next_trip": "DA240618029001", "prev_O": [114.1678015, 22.3005315], "next_O": [114.126046, 22.3469248]}, "geometry": {"type": "LineString", "coordinates": [[114.229596, 22.417618], [114.126815, 22.345566]]}}, {"type": "Feature", "properties": {"id": "ghost_XE7168_20240618095256", "plate_no": "XE7168", "gap_start_time": "2024-06-18T09:52:56", "gap_end_time": "2024-06-18T12:30:04", "gap_duration_min": 157.13, "wasted_distance_km": 3.564, "prev_trip": "DA240618026801", "next_trip": "DA240618026901", "prev_O": [114.2331279, 22.3123311], "next_O": [114.2382603, 22.3032465]}, "geometry": {"type": "LineString", "coordinates": [[114.208705, 22.320323], [114.238326, 22.303701]]}}, {"type": "Feature", "properties": {"id": "ghost_XE782_20240618122529", "plate_no": "XE782", "gap_start_time": "2024-06-18T12:25:29", "gap_end_time": "2024-06-18T14:15:24", "gap_duration_min": 109.92, "wasted_distance_km": 1.115, "prev_trip": "DA240618023811", "next_trip": "DA240618025901", "prev_O": [114.2302479, 22.308176], "next_O": [114.20883, 22.34105]}, "geometry": {"type": "LineString", "coordinates": [[114.198546, 22.340665], [114.209375, 22.341121]]}}, {"type": "Feature", "properties": {"id": "ghost_XE782_20240618143824", "plate_no": "XE782", "gap_start_time": "2024-06-18T14:38:24", "gap_end_time": "2024-06-18T16:35:15", "gap_duration_min": 116.85, "wasted_distance_km": 0.909, "prev_trip": "DA240618025901", "next_trip": "DA240618036411", "prev_O": [114.20883, 22.34105], "next_O": [114.1675891, 22.3073197]}, "geometry": {"type": "LineString", "coordinates": [[114.17194, 22.314228], [114.167245, 22.307305], [114.167245, 22.307305]]}}, {"type": "Feature", "properties": {"id": "ghost_XF1493_20240618094944", "plate_no": "XF1493", "gap_start_time": "2024-06-18T09:49:44", "gap_end_time": "2024-06-18T13:00:27", "gap_duration_min": 190.72, "wasted_distance_km": 8.851, "prev_trip": "DA240618039811", "next_trip": "DA240618021811", "prev_O": [114.1420781, 22.3704125], "next_O": [114.1788626, 22.3124067]}, "geometry": {"type": "LineString", "coordinates": [[114.19843, 22.389116], [114.178301, 22.311721]]}}, {"type": "Feature", "properties": {"id": "ghost_XM9047_20240618152540", "plate_no": "XM9047", "gap_start_time": "2024-06-18T15:25:40", "gap_end_time": "2024-06-18T16:31:10", "gap_duration_min": 65.5, "wasted_distance_km": 0.029, "prev_trip": "DA240618003201", "next_trip": "DA240618003202", "prev_O": [114.1734921, 22.2726294], "next_O": [114.1734921, 22.2726294]}, "geometry": {"type": "LineString", "coordinates": [[114.175395, 22.274415], [114.175255, 22.274186]]}}, {"type": "Feature", "properties": {"id": "ghost_XU8126_20240618101425", "plate_no": "XU8126", "gap_start_time": "2024-06-18T10:14:25", "gap_end_time": "2024-06-18T10:45:00", "gap_duration_min": 30.58, "wasted_distance_km": 1.471, "prev_trip": "DA240618026711", "next_trip": "DA240618028502", "prev_O": [114.20083, 22.3416778], "next_O": [114.18451, 22.324916]}, "geometry": {"type": "LineString", "coordinates": [[114.171655, 22.319751], [114.184691, 22.325196]]}}, {"type": "Feature", "properties": {"id": "ghost_XU8126_20240618110030", "plate_no": "XU8126", "gap_start_time": "2024-06-18T11:00:30", "gap_end_time": "2024-06-18T13:30:12", "gap_duration_min": 149.7, "wasted_distance_km": 2.946, "prev_trip": "DA240618028502", "next_trip": "DA240618041511", "prev_O": [114.18451, 22.324916], "next_O": [114.17154, 22.378342]}, "geometry": {"type": "LineString", "coordinates": [[114.20008, 22.377985], [114.171433, 22.377556]]}}, {"type": "Feature", "properties": {"id": "ghost_XV2836_20240618065317", "plate_no": "XV2836", "gap_start_time": "2024-06-18T06:53:17", "gap_end_time": "2024-06-18T16:35:42", "gap_duration_min": 582.42, "wasted_distance_km": 4.8, "prev_trip": "DA240618016211", "next_trip": "DA240618001402", "prev_O": [114.179555, 22.276041], "next_O": [114.1734816, 22.2725317]}, "geometry": {"type": "LineString", "coordinates": [[114.130575, 22.270745], [114.177163, 22.272835]]}}, {"type": "Feature", "properties": {"id": "ghost_XV7468_20240618082027", "plate_no": "XV7468", "gap_start_time": "2024-06-18T08:20:27", "gap_end_time": "2024-06-18T09:00:27", "gap_duration_min": 40.0, "wasted_distance_km": 4.978, "prev_trip": "DA240618012901", "next_trip": "DA240618015401", "prev_O": [114.1819743, 22.3714238], "next_O": [114.2336297, 22.4236669]}, "geometry": {"type": "LineString", "coordinates": [[114.195503, 22.39625], [114.233438, 22.42408]]}}, {"type": "Feature", "properties": {"id": "ghost_YK3534_20240618095807", "plate_no": "YK3534", "gap_start_time": "2024-06-18T09:58:07", "gap_end_time": "2024-06-18T14:50:13", "gap_duration_min": 292.1, "wasted_distance_km": 2.306, "prev_trip": "DA240618022411", "next_trip": "DA240618006511", "prev_O": [114.178114, 22.314217], "next_O": [114.192478, 22.338538]}, "geometry": {"type": "LineString", "coordinates": [[114.20648, 22.321303], [114.194236, 22.338673]]}}, {"type": "Feature", "properties": {"id": "ghost_YK5072_20240618095225", "plate_no": "YK5072", "gap_start_time": "2024-06-18T09:52:25", "gap_end_time": "2024-06-18T13:45:28", "gap_duration_min": 233.05, "wasted_distance_km": 7.59, "prev_trip": "DA240618025801", "next_trip": "DA240618020001", "prev_O": [114.1923776, 22.3079644], "next_O": [114.2501482, 22.3037201]}, "geometry": {"type": "LineString", "coordinates": [[114.177193, 22.311476], [114.250486, 22.303668]]}}, {"type": "Feature", "properties": {"id": "ghost_YK5072_20240618135957", "plate_no": "YK5072", "gap_start_time": "2024-06-18T13:59:57", "gap_end_time": "2024-06-18T15:40:04", "gap_duration_min": 100.12, "wasted_distance_km": 5.197, "prev_trip": "DA240618020001", "next_trip": "DA240618043902", "prev_O": [114.2501482, 22.3037201], "next_O": [114.1773199, 22.3198617]}, "geometry": {"type": "LineString", "coordinates": [[114.227525, 22.318198], [114.177021, 22.319561]]}}, {"type": "Feature", "properties": {"id": "ghost_YK7541_20240618105839", "plate_no": "YK7541", "gap_start_time": "2024-06-18T10:58:39", "gap_end_time": "2024-06-18T11:45:09", "gap_duration_min": 46.5, "wasted_distance_km": 1.477, "prev_trip": "DA240618042901", "next_trip": "DA240618035402", "prev_O": [114.136897, 22.253793], "next_O": [114.1572301, 22.280245]}, "geometry": {"type": "LineString", "coordinates": [[114.142095, 22.28798], [114.15451, 22.281316]]}}, {"type": "Feature", "properties": {"id": "ghost_YK7541_20240618121805", "plate_no": "YK7541", "gap_start_time": "2024-06-18T12:18:05", "gap_end_time": "2024-06-18T14:40:11", "gap_duration_min": 142.1, "wasted_distance_km": 10.764, "prev_trip": "DA240618035402", "next_trip": "DA240618031211", "prev_O": [114.1572301, 22.280245], "next_O": [114.2077498, 22.3227562]}, "geometry": {"type": "LineString", "coordinates": [[114.115786, 22.36788], [114.208186, 22.322411]]}}, {"type": "Feature", "properties": {"id": "ghost_YK7541_20240618150711", "plate_no": "YK7541", "gap_start_time": "2024-06-18T15:07:11", "gap_end_time": "2024-06-18T18:00:11", "gap_duration_min": 173.0, "wasted_distance_km": 15.089, "prev_trip": "DA240618031211", "next_trip": "DA240618009402", "prev_O": [114.2077498, 22.3227562], "next_O": [114.13489, 22.341561]}, "geometry": {"type": "LineString", "coordinates": [[114.272515, 22.296146], [114.13417, 22.341261]]}}, {"type": "Feature", "properties": {"id": "ghost_YK905_20240618085752", "plate_no": "YK905", "gap_start_time": "2024-06-18T08:57:52", "gap_end_time": "2024-06-18T09:45:19", "gap_duration_min": 47.45, "wasted_distance_km": 2.984, "prev_trip": "DA240618031111", "next_trip": "DA240618044201", "prev_O": [114.2710157, 22.2961486], "next_O": [114.1824387, 22.3166818]}, "geometry": {"type": "LineString", "coordinates": [[114.211388, 22.321751], [114.182945, 22.31646]]}}, {"type": "Feature", "properties": {"id": "ghost_YL8061_20240618075340", "plate_no": "YL8061", "gap_start_time": "2024-06-18T07:53:40", "gap_end_time": "2024-06-18T10:05:45", "gap_duration_min": 132.08, "wasted_distance_km": 2.803, "prev_trip": "DA240618049511", "next_trip": "DA240618048601", "prev_O": [114.2399321, 22.3366271], "next_O": [114.1976952, 22.2928927]}, "geometry": {"type": "LineString", "coordinates": [[114.185056, 22.269715], [114.198148, 22.29182]]}}, {"type": "Feature", "properties": {"id": "ghost_YL8061_20240618105121", "plate_no": "YL8061", "gap_start_time": "2024-06-18T10:51:21", "gap_end_time": "2024-06-18T14:30:15", "gap_duration_min": 218.9, "wasted_distance_km": 12.585, "prev_trip": "DA240618048601", "next_trip": "DA240618030301", "prev_O": [114.1976952, 22.2928927], "next_O": [114.1769402, 22.3199573]}, "geometry": {"type": "LineString", "coordinates": [[114.211893, 22.427005], [114.175753, 22.318873]]}}, {"type": "Feature", "properties": {"id": "ghost_YL8061_20240618144514", "plate_no": "YL8061", "gap_start_time": "2024-06-18T14:45:14", "gap_end_time": "2024-06-18T16:30:07", "gap_duration_min": 104.88, "wasted_distance_km": 1.798, "prev_trip": "DA240618030301", "next_trip": "DA240618026902", "prev_O": [114.1769402, 22.3199573], "next_O": [114.1681339, 22.3237335]}, "geometry": {"type": "LineString", "coordinates": [[114.17532, 22.308406], [114.168038, 22.323101]]}}, {"type": "Feature", "properties": {"id": "ghost_YY7490_20240618151214", "plate_no": "YY7490", "gap_start_time": "2024-06-18T15:12:14", "gap_end_time": "2024-06-18T18:30:26", "gap_duration_min": 198.2, "wasted_distance_km": 5.518, "prev_trip": "DA240618003011", "next_trip": "DA240618044101", "prev_O": [114.173637, 22.2733649], "next_O": [114.13917, 22.258037]}, "geometry": {"type": "LineString", "coordinates": [[114.186853, 22.27922], [114.139328, 22.256238]]}}, {"type": "Feature", "properties": {"id": "ghost_ZA394_20240618124102", "plate_no": "ZA394", "gap_start_time": "2024-06-18T12:41:02", "gap_end_time": "2024-06-18T14:45:21", "gap_duration_min": 124.32, "wasted_distance_km": 5.599, "prev_trip": "DA240618024201", "next_trip": "DA240618003511", "prev_O": [114.2314025, 22.2787402], "next_O": [114.2336165, 22.2637098]}, "geometry": {"type": "LineString", "coordinates": [[114.179835, 22.274708], [114.233068, 22.2643]]}}, {"type": "Feature", "properties": {"id": "ghost_ZA394_20240618151650", "plate_no": "ZA394", "gap_start_time": "2024-06-18T15:16:50", "gap_end_time": "2024-06-18T16:00:20", "gap_duration_min": 43.5, "wasted_distance_km": 1.576, "prev_trip": "DA240618003511", "next_trip": "DA240618003611", "prev_O": [114.2336165, 22.2637098], "next_O": [114.2336165, 22.2637098]}, "geometry": {"type": "LineString", "coordinates": [[114.23803, 22.277835], [114.233121, 22.264413]]}}, {"type": "Feature", "properties": {"id": "ghost_ZA394_20240618162320", "plate_no": "ZA394", "gap_start_time": "2024-06-18T16:23:20", "gap_end_time": "2024-06-18T17:55:00", "gap_duration_min": 91.67, "wasted_distance_km": 1.081, "prev_trip": "DA240618003611", "next_trip": "DA240618013202", "prev_O": [114.2336165, 22.2637098], "next_O": [114.2435956, 22.2730305]}, "geometry": {"type": "LineString", "coordinates": [[114.23377, 22.269493], [114.243721, 22.272618]]}}, {"type": "Feature", "properties": {"id": "ghost_ZA6585_20240618103533", "plate_no": "ZA6585", "gap_start_time": "2024-06-18T10:35:33", "gap_end_time": "2024-06-18T12:01:18", "gap_duration_min": 85.75, "wasted_distance_km": 9.013, "prev_trip": "DA240618028201", "next_trip": "DA240618035902", "prev_O": [114.2702546, 22.2944817], "next_O": [114.1257994, 22.2819173]}, "geometry": {"type": "LineString", "coordinates": [[114.212915, 22.289146], [114.125631, 22.282251]]}}, {"type": "Feature", "properties": {"id": "ghost_ZA6941_20240618092822", "plate_no": "ZA6941", "gap_start_time": "2024-06-18T09:28:22", "gap_end_time": "2024-06-18T14:00:13", "gap_duration_min": 271.85, "wasted_distance_km": 3.422, "prev_trip": "DA240618037411", "next_trip": "DA240618023701", "prev_O": [114.1686262, 22.2768098], "next_O": [114.1563306, 22.2491578]}, "geometry": {"type": "LineString", "coordinates": [[114.175301, 22.274458], [114.156373, 22.249153]]}}, {"type": "Feature", "properties": {"id": "ghost_ZA7388_20240618083250", "plate_no": "ZA7388", "gap_start_time": "2024-06-18T08:32:50", "gap_end_time": "2024-06-18T12:15:26", "gap_duration_min": 222.6, "wasted_distance_km": 1.342, "prev_trip": "DA240618000411", "next_trip": "DA240618040211", "prev_O": [114.1561, 22.24194], "next_O": [114.1824391, 22.335731]}, "geometry": {"type": "LineString", "coordinates": [[114.183651, 22.324095], [114.182525, 22.336121]]}}, {"type": "Feature", "properties": {"id": "ghost_ZA7388_20240618122255", "plate_no": "ZA7388", "gap_start_time": "2024-06-18T12:22:55", "gap_end_time": "2024-06-18T15:50:16", "gap_duration_min": 207.35, "wasted_distance_km": 10.323, "prev_trip": "DA240618040211", "next_trip": "DA240618004411", "prev_O": [114.1824391, 22.335731], "next_O": [114.1245247, 22.2709886]}, "geometry": {"type": "LineString", "coordinates": [[114.187151, 22.343335], [114.124453, 22.270845]]}}, {"type": "Feature", "properties": {"id": "ghost_ZB3274_20240618102119", "plate_no": "ZB3274", "gap_start_time": "2024-06-18T10:21:19", "gap_end_time": "2024-06-18T11:30:19", "gap_duration_min": 69.0, "wasted_distance_km": 3.863, "prev_trip": "DA240618023602", "next_trip": "DA240618023302", "prev_O": [114.1257917, 22.2819969], "next_O": [114.1762882, 22.2781796]}, "geometry": {"type": "LineString", "coordinates": [[114.154785, 22.24965], [114.176871, 22.277738]]}}, {"type": "Feature", "properties": {"id": "ghost_ZB3274_20240618115019", "plate_no": "ZB3274", "gap_start_time": "2024-06-18T11:50:19", "gap_end_time": "2024-06-18T14:30:00", "gap_duration_min": 159.68, "wasted_distance_km": 7.953, "prev_trip": "DA240618023302", "next_trip": "DA240618036111", "prev_O": [114.1762882, 22.2781796], "next_O": [114.14933, 22.24273]}, "geometry": {"type": "LineString", "coordinates": [[114.204863, 22.290953], [114.146243, 22.244338]]}}, {"type": "Feature", "properties": {"id": "ghost_ZB3274_20240618145130", "plate_no": "ZB3274", "gap_start_time": "2024-06-18T14:51:30", "gap_end_time": "2024-06-18T15:45:11", "gap_duration_min": 53.68, "wasted_distance_km": 1.64, "prev_trip": "DA240618036111", "next_trip": "DA240618006902", "prev_O": [114.14933, 22.24273], "next_O": [114.2253505, 22.2821867]}, "geometry": {"type": "LineString", "coordinates": [[114.233836, 22.269816], [114.225393, 22.282321]]}}]}