{"type": "FeatureCollection", "features": [{"type": "Feature", "properties": {"id": "ghost_RV3895_20240604105700", "plate_no": "RV3895", "gap_start_time": "2024-06-04T10:57:00", "gap_end_time": "2024-06-04T15:02:00", "gap_duration_min": 245.0, "wasted_distance_km": 8.781, "prev_trip": "DA240604032501", "next_trip": "DA240604028402", "prev_O": [114.1808597, 22.3802319], "next_O": [114.201222, 22.378404]}, "geometry": {"type": "LineString", "coordinates": [[114.1724, 22.450966], [114.205196, 22.379196], [114.204058, 22.379273]]}}, {"type": "Feature", "properties": {"id": "ghost_RV3895_20240604152600", "plate_no": "RV3895", "gap_start_time": "2024-06-04T15:26:00", "gap_end_time": "2024-06-04T19:00:00", "gap_duration_min": 214.0, "wasted_distance_km": 8.513, "prev_trip": "DA240604028402", "next_trip": "DA240604019702", "prev_O": [114.201222, 22.378404], "next_O": [114.201222, 22.378404]}, "geometry": {"type": "LineString", "coordinates": [[114.17676, 22.448433], [114.177045, 22.450611], [114.201643, 22.37981], [114.201643, 22.37981]]}}, {"type": "Feature", "properties": {"id": "ghost_RV4356_20240604083400", "plate_no": "RV4356", "gap_start_time": "2024-06-04T08:34:00", "gap_end_time": "2024-06-04T10:15:00", "gap_duration_min": 101.0, "wasted_distance_km": 1.272, "prev_trip": "DA240604013301", "next_trip": "DA240604025201", "prev_O": [114.1958168, 22.3349711], "next_O": [114.2389095, 22.3173983]}, "geometry": {"type": "LineString", "coordinates": [[114.228376, 22.311098], [114.238815, 22.317193], [114.238805, 22.317206]]}}, {"type": "Feature", "properties": {"id": "ghost_RV7493_20240604083800", "plate_no": "RV7493", "gap_start_time": "2024-06-04T08:38:00", "gap_end_time": "2024-06-04T10:15:00", "gap_duration_min": 97.0, "wasted_distance_km": 6.033, "prev_trip": "DA240604020111", "next_trip": "DA240604023401", "prev_O": [114.2329432, 22.3078569], "next_O": [114.136897, 22.253793]}, "geometry": {"type": "LineString", "coordinates": [[114.188048, 22.279515], [114.136753, 22.25326], [114.13676, 22.253253]]}}, {"type": "Feature", "properties": {"id": "ghost_RV8266_20240604092000", "plate_no": "RV8266", "gap_start_time": "2024-06-04T09:20:00", "gap_end_time": "2024-06-04T09:45:00", "gap_duration_min": 25.0, "wasted_distance_km": 0.062, "prev_trip": "DA240604005711", "next_trip": "DA240604029401", "prev_O": [114.1935851, 22.3362838], "next_O": [114.2278814, 22.3063034]}, "geometry": {"type": "LineString", "coordinates": [[114.227781, 22.305618], [114.227598, 22.306095], [114.227541, 22.306088]]}}, {"type": "Feature", "properties": {"id": "ghost_RX5674_20240604093700", "plate_no": "RX5674", "gap_start_time": "2024-06-04T09:37:00", "gap_end_time": "2024-06-04T11:00:00", "gap_duration_min": 83.0, "wasted_distance_km": 2.213, "prev_trip": "DA240604007211", "next_trip": "DA240604007811", "prev_O": [114.1987866, 22.3488882], "next_O": [114.2286722, 22.3119194]}, "geometry": {"type": "LineString", "coordinates": [[114.213711, 22.32616], [114.214735, 22.325576], [114.215748, 22.32424], [114.229408, 22.312638], [114.229408, 22.312638]]}}, {"type": "Feature", "properties": {"id": "ghost_RX5674_20240604112000", "plate_no": "RX5674", "gap_start_time": "2024-06-04T11:20:00", "gap_end_time": "2024-06-04T12:32:00", "gap_duration_min": 72.0, "wasted_distance_km": 0.96, "prev_trip": "DA240604007811", "next_trip": "DA240604035711", "prev_O": [114.2286722, 22.3119194], "next_O": [114.2129975, 22.3358317]}, "geometry": {"type": "LineString", "coordinates": [[114.20631, 22.329403], [114.212721, 22.335636], [114.212741, 22.335616]]}}, {"type": "Feature", "properties": {"id": "ghost_SL9703_20240604104300", "plate_no": "SL9703", "gap_start_time": "2024-06-04T10:43:00", "gap_end_time": "2024-06-04T12:45:00", "gap_duration_min": 122.0, "wasted_distance_km": 5.192, "prev_trip": "DA240604036411", "next_trip": "DA240604012002", "prev_O": [114.1613761, 22.3200828], "next_O": [114.152451, 22.3406025]}, "geometry": {"type": "LineString", "coordinates": [[114.184383, 22.377293], [114.152455, 22.34123], [114.152435, 22.34131]]}}, {"type": "Feature", "properties": {"id": "ghost_TC6931_20240604150300", "plate_no": "TC6931", "gap_start_time": "2024-06-04T15:03:00", "gap_end_time": "2024-06-04T16:30:00", "gap_duration_min": 87.0, "wasted_distance_km": 1.749, "prev_trip": "DA240604035502", "next_trip": "DA240604017002", "prev_O": [114.17436, 22.277886], "next_O": [114.1762978, 22.3189021]}, "geometry": {"type": "LineString", "coordinates": [[114.186495, 22.307698], [114.187253, 22.30783], [114.176923, 22.319348], [114.176971, 22.31933]]}}, {"type": "Feature", "properties": {"id": "ghost_TD4705_20240604071400", "plate_no": "TD4705", "gap_start_time": "2024-06-04T07:14:00", "gap_end_time": "2024-06-04T08:00:00", "gap_duration_min": 46.0, "wasted_distance_km": 0.638, "prev_trip": "DA240604030701", "next_trip": "DA240604003101", "prev_O": [114.2009294, 22.2910792], "next_O": [114.17302, 22.2774003]}, "geometry": {"type": "LineString", "coordinates": [[114.179143, 22.278638], [114.173291, 22.27709], [114.173255, 22.27719]]}}, {"type": "Feature", "properties": {"id": "ghost_TF2479_20240604070700", "plate_no": "TF2479", "gap_start_time": "2024-06-04T07:07:00", "gap_end_time": "2024-06-04T08:00:00", "gap_duration_min": 53.0, "wasted_distance_km": 0.345, "prev_trip": "DA240604026701", "next_trip": "DA240604001211", "prev_O": [114.204565, 22.2898326], "next_O": [114.1728298, 22.2766709]}, "geometry": {"type": "LineString", "coordinates": [[114.174786, 22.278525], [114.17226, 22.276558], [114.17221, 22.276558]]}}, {"type": "Feature", "properties": {"id": "ghost_TV8531_20240604103000", "plate_no": "TV8531", "gap_start_time": "2024-06-04T10:30:00", "gap_end_time": "2024-06-04T12:50:00", "gap_duration_min": 140.0, "wasted_distance_km": 1.469, "prev_trip": "DA240604039701", "next_trip": "DA240604040211", "prev_O": [114.2009377, 22.2920835], "next_O": [114.1245247, 22.2709886]}, "geometry": {"type": "LineString", "coordinates": [[114.128136, 22.284053], [114.124226, 22.271365], [114.124238, 22.271353]]}}, {"type": "Feature", "properties": {"id": "ghost_TW7410_20240604103200", "plate_no": "TW7410", "gap_start_time": "2024-06-04T10:32:00", "gap_end_time": "2024-06-04T14:15:00", "gap_duration_min": 223.0, "wasted_distance_km": 0.81, "prev_trip": "DA240604035401", "next_trip": "DA240604018201", "prev_O": [114.1714779, 22.310214], "next_O": [114.1688831, 22.3100847]}, "geometry": {"type": "LineString", "coordinates": [[114.175351, 22.309036], [114.16903, 22.312536], [114.168523, 22.312596]]}}, {"type": "Feature", "properties": {"id": "ghost_TW7410_20240604143400", "plate_no": "TW7410", "gap_start_time": "2024-06-04T14:34:00", "gap_end_time": "2024-06-04T16:45:00", "gap_duration_min": 131.0, "wasted_distance_km": 0.485, "prev_trip": "DA240604018201", "next_trip": "DA240604040102", "prev_O": [114.1688831, 22.3100847], "next_O": [114.230235, 22.308033]}, "geometry": {"type": "LineString", "coordinates": [[114.230378, 22.3099], [114.228563, 22.306023], [114.228498, 22.306141]]}}, {"type": "Feature", "properties": {"id": "ghost_TX9739_20240604121200", "plate_no": "TX9739", "gap_start_time": "2024-06-04T12:12:00", "gap_end_time": "2024-06-04T15:30:00", "gap_duration_min": 198.0, "wasted_distance_km": 7.004, "prev_trip": "DA240604025002", "next_trip": "DA240604032602", "prev_O": [114.1908047, 22.2754598], "next_O": [114.1277767, 22.280605]}, "geometry": {"type": "LineString", "coordinates": [[114.194473, 22.289248], [114.12711, 22.280406], [114.127136, 22.280421]]}}, {"type": "Feature", "properties": {"id": "ghost_TY3130_20240604091500", "plate_no": "TY3130", "gap_start_time": "2024-06-04T09:15:00", "gap_end_time": "2024-06-04T12:00:00", "gap_duration_min": 165.0, "wasted_distance_km": 7.113, "prev_trip": "DA240604041001", "next_trip": "DA240604039101", "prev_O": [114.1598434, 22.3369654], "next_O": [114.1344601, 22.3683854]}, "geometry": {"type": "LineString", "coordinates": [[114.17723, 22.317953], [114.13495, 22.368531], [114.134916, 22.368545]]}}, {"type": "Feature", "properties": {"id": "ghost_TY3130_20240604120900", "plate_no": "TY3130", "gap_start_time": "2024-06-04T12:09:00", "gap_end_time": "2024-06-04T14:45:00", "gap_duration_min": 156.0, "wasted_distance_km": 2.994, "prev_trip": "DA240604039101", "next_trip": "DA240604000202", "prev_O": [114.1344601, 22.3683854], "next_O": [114.1283333, 22.3458333]}, "geometry": {"type": "LineString", "coordinates": [[114.124333, 22.370411], [114.121845, 22.370183], [114.128286, 22.346305], [114.128286, 22.346305]]}}, {"type": "Feature", "properties": {"id": "ghost_TY3130_20240604145600", "plate_no": "TY3130", "gap_start_time": "2024-06-04T14:56:00", "gap_end_time": "2024-06-04T16:15:00", "gap_duration_min": 79.0, "wasted_distance_km": 1.084, "prev_trip": "DA240604000202", "next_trip": "DA240604000302", "prev_O": [114.1283333, 22.3458333], "next_O": [114.1283333, 22.3458333]}, "geometry": {"type": "LineString", "coordinates": [[114.131755, 22.35321], [114.125986, 22.346773], [114.126723, 22.34556]]}}, {"type": "Feature", "properties": {"id": "ghost_TY3130_20240604161600", "plate_no": "TY3130", "gap_start_time": "2024-06-04T16:16:00", "gap_end_time": "2024-06-04T19:00:00", "gap_duration_min": 164.0, "wasted_distance_km": 15.958, "prev_trip": "DA240604000302", "next_trip": "DA240604008211", "prev_O": [114.1283333, 22.3458333], "next_O": [114.2503345, 22.4318707]}, "geometry": {"type": "LineString", "coordinates": [[114.126596, 22.346133], [114.250458, 22.432618], [114.25046, 22.432621]]}}, {"type": "Feature", "properties": {"id": "ghost_TY3250_20240604081500", "plate_no": "TY3250", "gap_start_time": "2024-06-04T08:15:00", "gap_end_time": "2024-06-04T09:16:00", "gap_duration_min": 61.0, "wasted_distance_km": 0.81, "prev_trip": "DA240604014601", "next_trip": "DA240604001811", "prev_O": [114.1414736, 22.3728484], "next_O": [114.1236864, 22.362922]}, "geometry": {"type": "LineString", "coordinates": [[114.121135, 22.36971], [114.12006, 22.362525], [114.120056, 22.36249]]}}, {"type": "Feature", "properties": {"id": "ghost_TY3864_20240604084500", "plate_no": "TY3864", "gap_start_time": "2024-06-04T08:45:00", "gap_end_time": "2024-06-04T09:22:00", "gap_duration_min": 37.0, "wasted_distance_km": 2.063, "prev_trip": "DA240604000711", "next_trip": "DA240604031101", "prev_O": [114.217242, 22.322492], "next_O": [114.1923776, 22.3079644]}, "geometry": {"type": "LineString", "coordinates": [[114.183958, 22.324083], [114.19302, 22.307535], [114.19302, 22.307535]]}}, {"type": "Feature", "properties": {"id": "ghost_TY3864_20240604093000", "plate_no": "TY3864", "gap_start_time": "2024-06-04T09:30:00", "gap_end_time": "2024-06-04T10:10:00", "gap_duration_min": 40.0, "wasted_distance_km": 1.472, "prev_trip": "DA240604031101", "next_trip": "DA240604021501", "prev_O": [114.1923776, 22.3079644], "next_O": [114.1888322, 22.3076995]}, "geometry": {"type": "LineString", "coordinates": [[114.176381, 22.311536], [114.18919, 22.307806], [114.188315, 22.307841]]}}, {"type": "Feature", "properties": {"id": "ghost_UL3556_20240604084900", "plate_no": "UL3556", "gap_start_time": "2024-06-04T08:49:00", "gap_end_time": "2024-06-04T10:01:00", "gap_duration_min": 72.0, "wasted_distance_km": 2.241, "prev_trip": "DA240604002601", "next_trip": "DA240604013401", "prev_O": [114.268715, 22.2962922], "next_O": [114.1952678, 22.3395364]}, "geometry": {"type": "LineString", "coordinates": [[114.215895, 22.333993], [114.197756, 22.343343], [114.196736, 22.343233]]}}, {"type": "Feature", "properties": {"id": "ghost_UL3556_20240604100300", "plate_no": "UL3556", "gap_start_time": "2024-06-04T10:03:00", "gap_end_time": "2024-06-04T13:50:00", "gap_duration_min": 227.0, "wasted_distance_km": 9.582, "prev_trip": "DA240604013401", "next_trip": "DA240604039911", "prev_O": [114.1952678, 22.3395364], "next_O": [114.1034949, 22.3485601]}, "geometry": {"type": "LineString", "coordinates": [[114.19482, 22.344435], [114.194946, 22.344755], [114.103241, 22.348443], [114.104231, 22.34861]]}}, {"type": "Feature", "properties": {"id": "ghost_UM4207_20240604082400", "plate_no": "UM4207", "gap_start_time": "2024-06-04T08:24:00", "gap_end_time": "2024-06-04T13:40:00", "gap_duration_min": 316.0, "wasted_distance_km": 11.484, "prev_trip": "DA240604002701", "next_trip": "DA240604042011", "prev_O": [114.1890105, 22.3079943], "next_O": [114.1325641, 22.266401]}, "geometry": {"type": "LineString", "coordinates": [[114.209203, 22.334275], [114.210998, 22.334525], [114.212415, 22.333758], [114.13216, 22.266668], [114.132161, 22.26666]]}}, {"type": "Feature", "properties": {"id": "ghost_UM5134_20240604103000", "plate_no": "UM5134", "gap_start_time": "2024-06-04T10:30:00", "gap_end_time": "2024-06-04T12:45:00", "gap_duration_min": 135.0, "wasted_distance_km": 2.127, "prev_trip": "DA240604026101", "next_trip": "DA240604017302", "prev_O": [114.1905419, 22.3144051], "next_O": [114.1699917, 22.3123666]}, "geometry": {"type": "LineString", "coordinates": [[114.185845, 22.325065], [114.16993, 22.312885], [114.169918, 22.312868]]}}, {"type": "Feature", "properties": {"id": "ghost_UM5926_20240604101800", "plate_no": "UM5926", "gap_start_time": "2024-06-04T10:18:00", "gap_end_time": "2024-06-04T12:15:00", "gap_duration_min": 117.0, "wasted_distance_km": 0.308, "prev_trip": "DA240604044811", "next_trip": "DA240604044911", "prev_O": [114.2162716, 22.325616], "next_O": [114.1832816, 22.3250389]}, "geometry": {"type": "LineString", "coordinates": [[114.187113, 22.3258], [114.185448, 22.32494], [114.186376, 22.325458]]}}, {"type": "Feature", "properties": {"id": "ghost_UM7167_20240604091800", "plate_no": "UM7167", "gap_start_time": "2024-06-04T09:18:00", "gap_end_time": "2024-06-04T10:16:00", "gap_duration_min": 58.0, "wasted_distance_km": 7.295, "prev_trip": "DA240604007501", "next_trip": "DA240604004701", "prev_O": [114.1786768, 22.3729477], "next_O": [114.1687461, 22.442696]}, "geometry": {"type": "LineString", "coordinates": [[114.194136, 22.38079], [114.168631, 22.442011], [114.168631, 22.442011]]}}, {"type": "Feature", "properties": {"id": "ghost_UN8698_20240604124900", "plate_no": "UN8698", "gap_start_time": "2024-06-04T12:49:00", "gap_end_time": "2024-06-04T13:05:00", "gap_duration_min": 16.0, "wasted_distance_km": 1.446, "prev_trip": "DA240604012711", "next_trip": "DA240604026611", "prev_O": [114.201222, 22.378404], "next_O": [114.2113817, 22.4136093]}, "geometry": {"type": "LineString", "coordinates": [[114.20563, 22.404948], [114.205435, 22.403878], [114.204926, 22.403455], [114.2109, 22.413295]]}}, {"type": "Feature", "properties": {"id": "ghost_VA7459_20240604134100", "plate_no": "VA7459", "gap_start_time": "2024-06-04T13:41:00", "gap_end_time": "2024-06-04T14:50:00", "gap_duration_min": 69.0, "wasted_distance_km": 11.909, "prev_trip": "DA240604037001", "next_trip": "DA240604038411", "prev_O": [114.140359, 22.36439], "next_O": [114.228323, 22.3069112]}, "geometry": {"type": "LineString", "coordinates": [[114.127146, 22.363848], [114.224836, 22.306613], [114.224695, 22.30658]]}}, {"type": "Feature", "properties": {"id": "ghost_VA7986_20240604094900", "plate_no": "VA7986", "gap_start_time": "2024-06-04T09:49:00", "gap_end_time": "2024-06-04T10:45:00", "gap_duration_min": 56.0, "wasted_distance_km": 2.705, "prev_trip": "DA240604031301", "next_trip": "DA240604016011", "prev_O": [114.1744015, 22.276511], "next_O": [114.149351, 22.280507]}, "geometry": {"type": "LineString", "coordinates": [[114.173918, 22.275038], [114.173843, 22.274633], [114.149038, 22.28045], [114.149185, 22.280258]]}}, {"type": "Feature", "properties": {"id": "ghost_VA7986_20240604110100", "plate_no": "VA7986", "gap_start_time": "2024-06-04T11:01:00", "gap_end_time": "2024-06-04T13:00:00", "gap_duration_min": 119.0, "wasted_distance_km": 4.12, "prev_trip": "DA240604016011", "next_trip": "DA240604034102", "prev_O": [114.149351, 22.280507], "next_O": [114.1312975, 22.2700674]}, "geometry": {"type": "LineString", "coordinates": [[114.169715, 22.27758], [114.130556, 22.270726], [114.130391, 22.270801]]}}, {"type": "Feature", "properties": {"id": "ghost_VD4748_20240604103500", "plate_no": "VD4748", "gap_start_time": "2024-06-04T10:35:00", "gap_end_time": "2024-06-04T12:00:00", "gap_duration_min": 85.0, "wasted_distance_km": 1.671, "prev_trip": "DA240604038501", "next_trip": "DA240604046001", "prev_O": [114.2259587, 22.2821854], "next_O": [114.2399321, 22.2967937]}, "geometry": {"type": "LineString", "coordinates": [[114.23059, 22.308045], [114.240751, 22.29634], [114.24077, 22.296343]]}}, {"type": "Feature", "properties": {"id": "ghost_VD6128_20240604112900", "plate_no": "VD6128", "gap_start_time": "2024-06-04T11:29:00", "gap_end_time": "2024-06-04T14:15:00", "gap_duration_min": 166.0, "wasted_distance_km": 4.685, "prev_trip": "DA240604018711", "next_trip": "DA240604021611", "prev_O": [114.2633691, 22.3066332], "next_O": [114.1391512, 22.3392022]}, "geometry": {"type": "LineString", "coordinates": [[114.158935, 22.302276], [114.138875, 22.340098]]}}, {"type": "Feature", "properties": {"id": "ghost_VD6128_20240604141800", "plate_no": "VD6128", "gap_start_time": "2024-06-04T14:18:00", "gap_end_time": "2024-06-04T18:00:00", "gap_duration_min": 222.0, "wasted_distance_km": 5.732, "prev_trip": "DA240604021611", "next_trip": "DA240604043402", "prev_O": [114.1391512, 22.3392022], "next_O": [114.187673, 22.33908]}, "geometry": {"type": "LineString", "coordinates": [[114.135853, 22.343341], [114.135856, 22.342331], [114.136001, 22.34183], [114.135841, 22.340338], [114.188283, 22.340386], [114.188286, 22.340368]]}}, {"type": "Feature", "properties": {"id": "ghost_VD768_20240604120100", "plate_no": "VD768", "gap_start_time": "2024-06-04T12:01:00", "gap_end_time": "2024-06-04T14:15:00", "gap_duration_min": 134.0, "wasted_distance_km": 4.247, "prev_trip": "DA240604036511", "next_trip": "DA240604035001", "prev_O": [114.1843553, 22.3776418], "next_O": [114.126046, 22.3469248]}, "geometry": {"type": "LineString", "coordinates": [[114.157588, 22.322661], [114.158106, 22.32206], [114.126775, 22.345621], [114.126826, 22.345676]]}}, {"type": "Feature", "properties": {"id": "ghost_VE8500_20240604095800", "plate_no": "VE8500", "gap_start_time": "2024-06-04T09:58:00", "gap_end_time": "2024-06-04T15:40:00", "gap_duration_min": 342.0, "wasted_distance_km": 3.187, "prev_trip": "DA240604020701", "next_trip": "DA240604002602", "prev_O": [114.23823, 22.31119], "next_O": [114.212997, 22.3358478]}, "geometry": {"type": "LineString", "coordinates": [[114.184513, 22.325263], [114.213271, 22.335706], [114.213203, 22.335755]]}}, {"type": "Feature", "properties": {"id": "ghost_VG427_20240604114900", "plate_no": "VG427", "gap_start_time": "2024-06-04T11:49:00", "gap_end_time": "2024-06-04T14:00:00", "gap_duration_min": 131.0, "wasted_distance_km": 8.036, "prev_trip": "DA240604018811", "next_trip": "DA240604040701", "prev_O": [114.2633691, 22.3066332], "next_O": [114.140001, 22.37024]}, "geometry": {"type": "LineString", "coordinates": [[114.163555, 22.301208], [114.139785, 22.370021], [114.139753, 22.37001]]}}, {"type": "Feature", "properties": {"id": "ghost_VG427_20240604140900", "plate_no": "VG427", "gap_start_time": "2024-06-04T14:09:00", "gap_end_time": "2024-06-04T15:00:00", "gap_duration_min": 51.0, "wasted_distance_km": 8.262, "prev_trip": "DA240604040701", "next_trip": "DA240604039802", "prev_O": [114.140001, 22.37024], "next_O": [114.184829, 22.3262591]}, "geometry": {"type": "LineString", "coordinates": [[114.119911, 22.369928], [114.12009, 22.36949], [114.186166, 22.329101], [114.186791, 22.32909]]}}, {"type": "Feature", "properties": {"id": "ghost_VV6972_20240604105100", "plate_no": "VV6972", "gap_start_time": "2024-06-04T10:51:00", "gap_end_time": "2024-06-04T14:16:00", "gap_duration_min": 205.0, "wasted_distance_km": 12.985, "prev_trip": "DA240604040301", "next_trip": "DA240604004802", "prev_O": [114.2314804, 22.4191167], "next_O": [114.238738, 22.2921844]}, "geometry": {"type": "LineString", "coordinates": [[114.131633, 22.359611], [114.23787, 22.29652]]}}, {"type": "Feature", "properties": {"id": "ghost_VV6972_20240604150200", "plate_no": "VV6972", "gap_start_time": "2024-06-04T15:02:00", "gap_end_time": "2024-06-04T16:10:00", "gap_duration_min": 68.0, "wasted_distance_km": 8.591, "prev_trip": "DA240604004802", "next_trip": "DA240604023901", "prev_O": [114.238738, 22.2921844], "next_O": [114.108687, 22.349069]}, "geometry": {"type": "LineString", "coordinates": [[114.190713, 22.337158], [114.108405, 22.350316]]}}, {"type": "Feature", "properties": {"id": "ghost_VW3473_20240604114900", "plate_no": "VW3473", "gap_start_time": "2024-06-04T11:49:00", "gap_end_time": "2024-06-04T13:46:00", "gap_duration_min": 117.0, "wasted_distance_km": 0.193, "prev_trip": "DA240604042701", "next_trip": "DA240604042702", "prev_O": [114.130117, 22.3496304], "next_O": [114.17099, 22.312405]}, "geometry": {"type": "LineString", "coordinates": [[114.1706, 22.313415], [114.169, 22.312556], [114.169006, 22.312578]]}}, {"type": "Feature", "properties": {"id": "ghost_VX2887_20240604131100", "plate_no": "VX2887", "gap_start_time": "2024-06-04T13:11:00", "gap_end_time": "2024-06-04T15:45:00", "gap_duration_min": 154.0, "wasted_distance_km": 4.827, "prev_trip": "DA240604019111", "next_trip": "DA240604006902", "prev_O": [114.1603497, 22.3034464], "next_O": [114.2253505, 22.2821867]}, "geometry": {"type": "LineString", "coordinates": [[114.258855, 22.310621], [114.259603, 22.31088], [114.22581, 22.282023], [114.225681, 22.282011]]}}, {"type": "Feature", "properties": {"id": "ghost_VX3591_20240604114300", "plate_no": "VX3591", "gap_start_time": "2024-06-04T11:43:00", "gap_end_time": "2024-06-04T13:15:00", "gap_duration_min": 92.0, "wasted_distance_km": 4.047, "prev_trip": "DA240604020211", "next_trip": "DA240604026301", "prev_O": [114.186863, 22.2806577], "next_O": [114.2028248, 22.3407664]}, "geometry": {"type": "LineString", "coordinates": [[114.179048, 22.317313], [114.202686, 22.340678], [114.199025, 22.343126], [114.198791, 22.343126]]}}, {"type": "Feature", "properties": {"id": "ghost_VY5967_20240604102400", "plate_no": "VY5967", "gap_start_time": "2024-06-04T10:24:00", "gap_end_time": "2024-06-04T11:30:00", "gap_duration_min": 66.0, "wasted_distance_km": 8.199, "prev_trip": "DA240604028101", "next_trip": "DA240604031102", "prev_O": [114.1343735, 22.4923227], "next_O": [114.1743743, 22.3091876]}, "geometry": {"type": "LineString", "coordinates": [[114.201783, 22.377561], [114.200483, 22.377883], [114.175146, 22.309618], [114.175275, 22.30991]]}}, {"type": "Feature", "properties": {"id": "ghost_VY5967_20240604113800", "plate_no": "VY5967", "gap_start_time": "2024-06-04T11:38:00", "gap_end_time": "2024-06-04T13:55:00", "gap_duration_min": 137.0, "wasted_distance_km": 6.426, "prev_trip": "DA240604031102", "next_trip": "DA240604031601", "prev_O": [114.1743743, 22.3091876], "next_O": [114.2516341, 22.3048796]}, "geometry": {"type": "LineString", "coordinates": [[114.189878, 22.308968], [114.251691, 22.304356], [114.25143, 22.304701]]}}, {"type": "Feature", "properties": {"id": "ghost_VY5967_20240604141100", "plate_no": "VY5967", "gap_start_time": "2024-06-04T14:11:00", "gap_end_time": "2024-06-04T15:40:00", "gap_duration_min": 89.0, "wasted_distance_km": 3.403, "prev_trip": "DA240604031601", "next_trip": "DA240604041002", "prev_O": [114.2516341, 22.3048796], "next_O": [114.1762153, 22.3188841]}, "geometry": {"type": "LineString", "coordinates": [[114.206451, 22.324411], [114.207965, 22.324478], [114.176923, 22.319281], [114.176908, 22.319291]]}}, {"type": "Feature", "properties": {"id": "ghost_WN9331_20240604093300", "plate_no": "WN9331", "gap_start_time": "2024-06-04T09:33:00", "gap_end_time": "2024-06-04T13:41:00", "gap_duration_min": 248.0, "wasted_distance_km": 7.072, "prev_trip": "DA240604011201", "next_trip": "DA240604030301", "prev_O": [114.1924518, 22.3783249], "next_O": [114.1553149, 22.2409917]}, "geometry": {"type": "LineString", "coordinates": [[114.164366, 22.306533], [114.157741, 22.243266], [114.157778, 22.24325]]}}, {"type": "Feature", "properties": {"id": "ghost_WN9331_20240604135300", "plate_no": "WN9331", "gap_start_time": "2024-06-04T13:53:00", "gap_end_time": "2024-06-04T16:00:00", "gap_duration_min": 127.0, "wasted_distance_km": 13.995, "prev_trip": "DA240604030301", "next_trip": "DA240604019402", "prev_O": [114.1553149, 22.2409917], "next_O": [114.2014147, 22.3788502]}, "geometry": {"type": "LineString", "coordinates": [[114.127341, 22.273018], [114.201728, 22.378385], [114.201733, 22.3784]]}}, {"type": "Feature", "properties": {"id": "ghost_WP3306_20240604071600", "plate_no": "WP3306", "gap_start_time": "2024-06-04T07:16:00", "gap_end_time": "2024-06-04T14:15:00", "gap_duration_min": 419.0, "wasted_distance_km": 30.167, "prev_trip": "DA240604025311", "next_trip": "DA240604004702", "prev_O": [113.9754031, 22.3958919], "next_O": [114.238738, 22.2921844]}, "geometry": {"type": "LineString", "coordinates": [[113.973215, 22.407443], [113.974158, 22.407785], [114.238305, 22.292278], [114.238165, 22.292268]]}}, {"type": "Feature", "properties": {"id": "ghost_WP3825_20240604095100", "plate_no": "WP3825", "gap_start_time": "2024-06-04T09:51:00", "gap_end_time": "2024-06-04T10:30:00", "gap_duration_min": 39.0, "wasted_distance_km": 3.367, "prev_trip": "DA240604028611", "next_trip": "DA240604012001", "prev_O": [114.1943514, 22.3386963], "next_O": [114.1462113, 22.3319851]}, "geometry": {"type": "LineString", "coordinates": [[114.172236, 22.314116], [114.145801, 22.33193], [114.14583, 22.331943]]}}, {"type": "Feature", "properties": {"id": "ghost_WP3890_20240604103400", "plate_no": "WP3890", "gap_start_time": "2024-06-04T10:34:00", "gap_end_time": "2024-06-04T14:00:00", "gap_duration_min": 206.0, "wasted_distance_km": 5.437, "prev_trip": "DA240604026001", "next_trip": "DA240604030902", "prev_O": [114.1905419, 22.3144051], "next_O": [114.1533197, 22.2847502]}, "geometry": {"type": "LineString", "coordinates": [[114.184088, 22.32336], [114.183935, 22.323615], [114.153291, 22.285091], [114.152893, 22.285251], [114.15271, 22.285585]]}}, {"type": "Feature", "properties": {"id": "ghost_WP3895_20240604055400", "plate_no": "WP3895", "gap_start_time": "2024-06-04T05:54:00", "gap_end_time": "2024-06-04T06:30:00", "gap_duration_min": 36.0, "wasted_distance_km": 0.545, "prev_trip": "DA240604021101", "next_trip": "DA240604018111", "prev_O": [114.0979333, 22.3489429], "next_O": [114.179555, 22.276041]}, "geometry": {"type": "LineString", "coordinates": [[114.174626, 22.277928], [114.179425, 22.275921], [114.179428, 22.275893]]}}, {"type": "Feature", "properties": {"id": "ghost_WP3895_20240604065300", "plate_no": "WP3895", "gap_start_time": "2024-06-04T06:53:00", "gap_end_time": "2024-06-04T09:26:00", "gap_duration_min": 153.0, "wasted_distance_km": 10.266, "prev_trip": "DA240604018111", "next_trip": "DA240604027511", "prev_O": [114.179555, 22.276041], "next_O": [114.2295647, 22.2779318]}, "geometry": {"type": "LineString", "coordinates": [[114.130313, 22.270633], [114.229631, 22.277878], [114.229631, 22.277746]]}}, {"type": "Feature", "properties": {"id": "ghost_WP4172_20240604074300", "plate_no": "WP4172", "gap_start_time": "2024-06-04T07:43:00", "gap_end_time": "2024-06-04T08:15:00", "gap_duration_min": 32.0, "wasted_distance_km": 1.402, "prev_trip": "DA240604015901", "next_trip": "DA240604006711", "prev_O": [114.2553258, 22.3226635], "next_O": [114.2567421, 22.3113053]}, "geometry": {"type": "LineString", "coordinates": [[114.269705, 22.318161], [114.259648, 22.310845], [114.260273, 22.310335]]}}, {"type": "Feature", "properties": {"id": "ghost_WP923_20240604152400", "plate_no": "WP923", "gap_start_time": "2024-06-04T15:24:00", "gap_end_time": "2024-06-04T16:45:00", "gap_duration_min": 81.0, "wasted_distance_km": 1.328, "prev_trip": "DA240604007502", "next_trip": "DA240604014902", "prev_O": [114.1987643, 22.3804685], "next_O": [114.1700846, 22.3760056]}, "geometry": {"type": "LineString", "coordinates": [[114.178105, 22.371048], [114.17541, 22.36917], [114.169683, 22.376208], [114.169698, 22.376196]]}}, {"type": "Feature", "properties": {"id": "ghost_XE1372_20240604124000", "plate_no": "XE1372", "gap_start_time": "2024-06-04T12:40:00", "gap_end_time": "2024-06-04T17:01:00", "gap_duration_min": 261.0, "wasted_distance_km": 9.232, "prev_trip": "DA240604029901", "next_trip": "DA240604027302", "prev_O": [114.1307673, 22.3630464], "next_O": [114.1312907, 22.269962]}, "geometry": {"type": "LineString", "coordinates": [[114.179276, 22.339548], [114.179771, 22.339193], [114.130783, 22.270325]]}}, {"type": "Feature", "properties": {"id": "ghost_XE1886_20240604101200", "plate_no": "XE1886", "gap_start_time": "2024-06-04T10:12:00", "gap_end_time": "2024-06-04T15:15:00", "gap_duration_min": 303.0, "wasted_distance_km": 7.445, "prev_trip": "DA240604045301", "next_trip": "DA240604007111", "prev_O": [114.2363451, 22.3060767], "next_O": [114.222657, 22.3205314]}, "geometry": {"type": "LineString", "coordinates": [[114.15055, 22.33609], [114.220708, 22.320466], [114.220761, 22.320663]]}}, {"type": "Feature", "properties": {"id": "ghost_XE2198_20240604082300", "plate_no": "XE2198", "gap_start_time": "2024-06-04T08:23:00", "gap_end_time": "2024-06-04T09:01:00", "gap_duration_min": 38.0, "wasted_distance_km": 4.668, "prev_trip": "DA240604015101", "next_trip": "DA240604017001", "prev_O": [114.1819743, 22.3714238], "next_O": [114.2336297, 22.4236669]}, "geometry": {"type": "LineString", "coordinates": [[114.195366, 22.396335], [114.229725, 22.423776]]}}, {"type": "Feature", "properties": {"id": "ghost_XE7053_20240604094600", "plate_no": "XE7053", "gap_start_time": "2024-06-04T09:46:00", "gap_end_time": "2024-06-04T11:49:00", "gap_duration_min": 123.0, "wasted_distance_km": 0.293, "prev_trip": "DA240604034201", "next_trip": "DA240604034202", "prev_O": [114.2702546, 22.2944817], "next_O": [114.2127228, 22.2887855]}, "geometry": {"type": "LineString", "coordinates": [[114.210585, 22.289216], [114.210656, 22.288888], [114.213123, 22.289171]]}}, {"type": "Feature", "properties": {"id": "ghost_XE7053_20240604122000", "plate_no": "XE7053", "gap_start_time": "2024-06-04T12:20:00", "gap_end_time": "2024-06-04T14:25:00", "gap_duration_min": 125.0, "wasted_distance_km": 9.94, "prev_trip": "DA240604034202", "next_trip": "DA240604021402", "prev_O": [114.2127228, 22.2887855], "next_O": [114.1725229, 22.3019182]}, "geometry": {"type": "LineString", "coordinates": [[114.267096, 22.31733], [114.171978, 22.301793], [114.17196, 22.301818]]}}, {"type": "Feature", "properties": {"id": "ghost_XE7595_20240604130500", "plate_no": "XE7595", "gap_start_time": "2024-06-04T13:05:00", "gap_end_time": "2024-06-04T14:00:00", "gap_duration_min": 55.0, "wasted_distance_km": 1.354, "prev_trip": "DA240604010911", "next_trip": "DA240604019401", "prev_O": [114.129029, 22.3585969], "next_O": [114.118893, 22.369665]}, "geometry": {"type": "LineString", "coordinates": [[114.128395, 22.359365], [114.120678, 22.369228]]}}, {"type": "Feature", "properties": {"id": "ghost_XE8413_20240604092900", "plate_no": "XE8413", "gap_start_time": "2024-06-04T09:29:00", "gap_end_time": "2024-06-04T11:30:00", "gap_duration_min": 121.0, "wasted_distance_km": 23.559, "prev_trip": "DA240604013201", "next_trip": "DA240604042302", "prev_O": [114.0311912, 22.4437761], "next_O": [114.1738962, 22.4602197]}, "geometry": {"type": "LineString", "coordinates": [[113.965526, 22.373571], [114.17443, 22.4607], [114.174438, 22.460701]]}}, {"type": "Feature", "properties": {"id": "ghost_XF1493_20240604085300", "plate_no": "XF1493", "gap_start_time": "2024-06-04T08:53:00", "gap_end_time": "2024-06-04T09:46:00", "gap_duration_min": 53.0, "wasted_distance_km": 11.023, "prev_trip": "DA240604014801", "next_trip": "DA240604044501", "prev_O": [114.137108, 22.5004969], "next_O": [114.0362594, 22.4453875]}, "geometry": {"type": "LineString", "coordinates": [[114.12999, 22.495988], [114.037475, 22.445796]]}}, {"type": "Feature", "properties": {"id": "ghost_XM4556_20240604131300", "plate_no": "XM4556", "gap_start_time": "2024-06-04T13:13:00", "gap_end_time": "2024-06-04T14:30:00", "gap_duration_min": 77.0, "wasted_distance_km": 7.709, "prev_trip": "DA240604018911", "next_trip": "DA240604038011", "prev_O": [114.1603497, 22.3034464], "next_O": [114.1966145, 22.3456548]}, "geometry": {"type": "LineString", "coordinates": [[114.259378, 22.30868], [114.258963, 22.308495], [114.19629, 22.345695], [114.196288, 22.345715]]}}, {"type": "Feature", "properties": {"id": "ghost_XM4556_20240604143200", "plate_no": "XM4556", "gap_start_time": "2024-06-04T14:32:00", "gap_end_time": "2024-06-04T17:05:00", "gap_duration_min": 153.0, "wasted_distance_km": 4.466, "prev_trip": "DA240604038011", "next_trip": "DA240604019911", "prev_O": [114.1966145, 22.3456548], "next_O": [114.1743747, 22.3091816]}, "geometry": {"type": "LineString", "coordinates": [[114.195155, 22.3453], [114.17479, 22.309915], [114.174868, 22.309928]]}}, {"type": "Feature", "properties": {"id": "ghost_XM9047_20240604122400", "plate_no": "XM9047", "gap_start_time": "2024-06-04T12:24:00", "gap_end_time": "2024-06-04T14:00:00", "gap_duration_min": 96.0, "wasted_distance_km": 5.566, "prev_trip": "DA240604022201", "next_trip": "DA240604045801", "prev_O": [114.2343596, 22.3128412], "next_O": [114.1464621, 22.2863197]}, "geometry": {"type": "LineString", "coordinates": [[114.16313, 22.333951], [114.146081, 22.286528], [114.146001, 22.286496]]}}, {"type": "Feature", "properties": {"id": "ghost_XM9047_20240604140600", "plate_no": "XM9047", "gap_start_time": "2024-06-04T14:06:00", "gap_end_time": "2024-06-04T16:30:00", "gap_duration_min": 144.0, "wasted_distance_km": 2.264, "prev_trip": "DA240604045801", "next_trip": "DA240604032302", "prev_O": [114.1464621, 22.2863197], "next_O": [114.1312907, 22.269962]}, "geometry": {"type": "LineString", "coordinates": [[114.143856, 22.28689], [114.131085, 22.270768], [114.130911, 22.270508], [114.13088, 22.27045]]}}, {"type": "Feature", "properties": {"id": "ghost_XM9877_20240604113500", "plate_no": "XM9877", "gap_start_time": "2024-06-04T11:35:00", "gap_end_time": "2024-06-04T14:00:00", "gap_duration_min": 145.0, "wasted_distance_km": 11.879, "prev_trip": "DA240604004801", "next_trip": "DA240604045901", "prev_O": [114.203988, 22.3498096], "next_O": [114.1363749, 22.2524269]}, "geometry": {"type": "LineString", "coordinates": [[114.238283, 22.300381], [114.238663, 22.299388], [114.239071, 22.298235], [114.239488, 22.297153], [114.239913, 22.296378], [114.139246, 22.253568], [114.139228, 22.253581]]}}, {"type": "Feature", "properties": {"id": "ghost_XM9877_20240604141200", "plate_no": "XM9877", "gap_start_time": "2024-06-04T14:12:00", "gap_end_time": "2024-06-04T15:00:00", "gap_duration_min": 48.0, "wasted_distance_km": 2.356, "prev_trip": "DA240604045901", "next_trip": "DA240604042511", "prev_O": [114.1363749, 22.2524269], "next_O": [114.124214, 22.270644]}, "geometry": {"type": "LineString", "coordinates": [[114.14069, 22.285488], [114.124161, 22.270885], [114.12413, 22.270915]]}}, {"type": "Feature", "properties": {"id": "ghost_XM9877_20240604151000", "plate_no": "XM9877", "gap_start_time": "2024-06-04T15:10:00", "gap_end_time": "2024-06-04T15:50:00", "gap_duration_min": 40.0, "wasted_distance_km": 0.821, "prev_trip": "DA240604042511", "next_trip": "DA240604004211", "prev_O": [114.124214, 22.270644], "next_O": [114.1245247, 22.2709886]}, "geometry": {"type": "LineString", "coordinates": [[114.128006, 22.26759], [114.128461, 22.268061], [114.129031, 22.268548], [114.12958, 22.269053], [114.124303, 22.270843], [114.124186, 22.270871]]}}, {"type": "Feature", "properties": {"id": "ghost_XU8126_20240604080200", "plate_no": "XU8126", "gap_start_time": "2024-06-04T08:02:00", "gap_end_time": "2024-06-04T09:00:00", "gap_duration_min": 58.0, "wasted_distance_km": 1.527, "prev_trip": "DA240604034001", "next_trip": "DA240604019211", "prev_O": [114.113115, 22.369607], "next_O": [114.1077745, 22.3780519]}, "geometry": {"type": "LineString", "coordinates": [[114.113163, 22.369508], [114.113971, 22.369065], [114.115106, 22.368718], [114.107953, 22.378306], [114.107846, 22.378266]]}}, {"type": "Feature", "properties": {"id": "ghost_XU8126_20240604091200", "plate_no": "XU8126", "gap_start_time": "2024-06-04T09:12:00", "gap_end_time": "2024-06-04T10:30:00", "gap_duration_min": 78.0, "wasted_distance_km": 0.525, "prev_trip": "DA240604019211", "next_trip": "DA240604036001", "prev_O": [114.1077745, 22.3780519], "next_O": [114.1203858, 22.3670155]}, "geometry": {"type": "LineString", "coordinates": [[114.121735, 22.372251], [114.12066, 22.367686], [114.120658, 22.367638]]}}, {"type": "Feature", "properties": {"id": "ghost_XV6358_20240604123100", "plate_no": "XV6358", "gap_start_time": "2024-06-04T12:31:00", "gap_end_time": "2024-06-04T13:45:00", "gap_duration_min": 74.0, "wasted_distance_km": 2.952, "prev_trip": "DA240604008702", "next_trip": "DA240604027811", "prev_O": [114.2002975, 22.292898], "next_O": [114.23366, 22.26308]}, "geometry": {"type": "LineString", "coordinates": [[114.213991, 22.282561], [114.233711, 22.263318], [114.233733, 22.263343]]}}, {"type": "Feature", "properties": {"id": "ghost_XV7112_20240604104800", "plate_no": "XV7112", "gap_start_time": "2024-06-04T10:48:00", "gap_end_time": "2024-06-04T13:30:00", "gap_duration_min": 162.0, "wasted_distance_km": 0.383, "prev_trip": "DA240604008101", "next_trip": "DA240604008102", "prev_O": [114.132062, 22.345299], "next_O": [114.1112277, 22.370821]}, "geometry": {"type": "LineString", "coordinates": [[114.115065, 22.371435], [114.111433, 22.371471], [114.111478, 22.37155]]}}, {"type": "Feature", "properties": {"id": "ghost_XV7468_20240604124800", "plate_no": "XV7468", "gap_start_time": "2024-06-04T12:48:00", "gap_end_time": "2024-06-04T14:45:00", "gap_duration_min": 117.0, "wasted_distance_km": 9.843, "prev_trip": "DA240604025902", "next_trip": "DA240604003511", "prev_O": [114.2579494, 22.3113757], "next_O": [114.2336165, 22.2637098]}, "geometry": {"type": "LineString", "coordinates": [[114.140373, 22.249378], [114.233801, 22.263045], [114.233883, 22.26402]]}}, {"type": "Feature", "properties": {"id": "ghost_YK4856_20240604082400", "plate_no": "YK4856", "gap_start_time": "2024-06-04T08:24:00", "gap_end_time": "2024-06-04T10:00:00", "gap_duration_min": 96.0, "wasted_distance_km": 5.994, "prev_trip": "DA240604012301", "next_trip": "DA240604035111", "prev_O": [114.1919131, 22.3437841], "next_O": [114.2276028, 22.3043425]}, "geometry": {"type": "LineString", "coordinates": [[114.171728, 22.314138], [114.22812, 22.308443], [114.228638, 22.309563], [114.228776, 22.309728]]}}, {"type": "Feature", "properties": {"id": "ghost_YK5072_20240604074700", "plate_no": "YK5072", "gap_start_time": "2024-06-04T07:47:00", "gap_end_time": "2024-06-04T08:15:00", "gap_duration_min": 28.0, "wasted_distance_km": 5.407, "prev_trip": "DA240604023101", "next_trip": "DA240604005611", "prev_O": [114.2362403, 22.3012777], "next_O": [114.274778, 22.2967206]}, "geometry": {"type": "LineString", "coordinates": [[114.227533, 22.319151], [114.273815, 22.296458], [114.27395, 22.296566]]}}, {"type": "Feature", "properties": {"id": "ghost_YK5072_20240604092800", "plate_no": "YK5072", "gap_start_time": "2024-06-04T09:28:00", "gap_end_time": "2024-06-04T14:45:00", "gap_duration_min": 317.0, "wasted_distance_km": 3.738, "prev_trip": "DA240604005611", "next_trip": "DA240604027911", "prev_O": [114.274778, 22.2967206], "next_O": [114.266679, 22.306334]}, "geometry": {"type": "LineString", "coordinates": [[114.230596, 22.30805], [114.266855, 22.307256], [114.266805, 22.307216]]}}, {"type": "Feature", "properties": {"id": "ghost_YK5072_20240604145700", "plate_no": "YK5072", "gap_start_time": "2024-06-04T14:57:00", "gap_end_time": "2024-06-04T15:30:00", "gap_duration_min": 33.0, "wasted_distance_km": 0.193, "prev_trip": "DA240604027911", "next_trip": "DA240604013302", "prev_O": [114.266679, 22.306334], "next_O": [114.2286722, 22.3119194]}, "geometry": {"type": "LineString", "coordinates": [[114.228773, 22.311643], [114.227858, 22.310131]]}}, {"type": "Feature", "properties": {"id": "ghost_YK5072_20240604154800", "plate_no": "YK5072", "gap_start_time": "2024-06-04T15:48:00", "gap_end_time": "2024-06-04T17:00:00", "gap_duration_min": 72.0, "wasted_distance_km": 4.641, "prev_trip": "DA240604013302", "next_trip": "DA240604006111", "prev_O": [114.2286722, 22.3119194], "next_O": [114.2303424, 22.3079333]}, "geometry": {"type": "LineString", "coordinates": [[114.195443, 22.334226], [114.230641, 22.308113], [114.23064, 22.308111]]}}, {"type": "Feature", "properties": {"id": "ghost_YK6404_20240604142700", "plate_no": "YK6404", "gap_start_time": "2024-06-04T14:27:00", "gap_end_time": "2024-06-04T15:40:00", "gap_duration_min": 73.0, "wasted_distance_km": 2.03, "prev_trip": "DA240604027411", "next_trip": "DA240604002702", "prev_O": [114.23366, 22.26308], "next_O": [114.212997, 22.3358478]}, "geometry": {"type": "LineString", "coordinates": [[114.223006, 22.319923], [114.213153, 22.335666], [114.21322, 22.335675]]}}, {"type": "Feature", "properties": {"id": "ghost_YK9007_20240604101500", "plate_no": "YK9007", "gap_start_time": "2024-06-04T10:15:00", "gap_end_time": "2024-06-04T14:35:00", "gap_duration_min": 260.0, "wasted_distance_km": 8.504, "prev_trip": "DA240604040501", "next_trip": "DA240604003011", "prev_O": [114.140001, 22.37024], "next_O": [114.173637, 22.2733649]}, "geometry": {"type": "LineString", "coordinates": [[114.134695, 22.341046], [114.174088, 22.273813]]}}, {"type": "Feature", "properties": {"id": "ghost_YK9198_20240604094900", "plate_no": "YK9198", "gap_start_time": "2024-06-04T09:49:00", "gap_end_time": "2024-06-04T14:15:00", "gap_duration_min": 266.0, "wasted_distance_km": 6.152, "prev_trip": "DA240604037101", "next_trip": "DA240604024201", "prev_O": [114.2295521, 22.3191796], "next_O": [114.2340809, 22.3214275]}, "geometry": {"type": "LineString", "coordinates": [[114.177796, 22.30345], [114.234108, 22.321606], [114.234268, 22.321665]]}}, {"type": "Feature", "properties": {"id": "ghost_YL1345_20240604101600", "plate_no": "YL1345", "gap_start_time": "2024-06-04T10:16:00", "gap_end_time": "2024-06-04T11:21:00", "gap_duration_min": 65.0, "wasted_distance_km": 10.405, "prev_trip": "DA240604025711", "next_trip": "DA240604014701", "prev_O": [114.1875475, 22.3435146], "next_O": [114.2695581, 22.2966399]}, "geometry": {"type": "LineString", "coordinates": [[114.181835, 22.3363], [114.182125, 22.336031], [114.272748, 22.295641], [114.272613, 22.295578]]}}, {"type": "Feature", "properties": {"id": "ghost_YL9716_20240604081400", "plate_no": "YL9716", "gap_start_time": "2024-06-04T08:14:00", "gap_end_time": "2024-06-04T08:50:00", "gap_duration_min": 36.0, "wasted_distance_km": 2.659, "prev_trip": "DA240604013511", "next_trip": "DA240604030501", "prev_O": [114.2008749, 22.3424073], "next_O": [114.186736, 22.30968]}, "geometry": {"type": "LineString", "coordinates": [[114.195723, 22.332441], [114.186848, 22.310111], [114.186863, 22.309993]]}}, {"type": "Feature", "properties": {"id": "ghost_YL9716_20240604090500", "plate_no": "YL9716", "gap_start_time": "2024-06-04T09:05:00", "gap_end_time": "2024-06-04T10:15:00", "gap_duration_min": 70.0, "wasted_distance_km": 5.216, "prev_trip": "DA240604030501", "next_trip": "DA240604038901", "prev_O": [114.186736, 22.30968], "next_O": [114.2014802, 22.3440162]}, "geometry": {"type": "LineString", "coordinates": [[114.178348, 22.302646], [114.202193, 22.343853], [114.202346, 22.343948]]}}, {"type": "Feature", "properties": {"id": "ghost_YL9716_20240604103700", "plate_no": "YL9716", "gap_start_time": "2024-06-04T10:37:00", "gap_end_time": "2024-06-04T11:00:00", "gap_duration_min": 23.0, "wasted_distance_km": 0.356, "prev_trip": "DA240604038901", "next_trip": "DA240604025102", "prev_O": [114.2014802, 22.3440162], "next_O": [114.1794258, 22.3230736]}, "geometry": {"type": "LineString", "coordinates": [[114.183068, 22.32454], [114.179946, 22.323201], [114.179928, 22.323186]]}}, {"type": "Feature", "properties": {"id": "ghost_YZ9431_20240604094400", "plate_no": "YZ9431", "gap_start_time": "2024-06-04T09:44:00", "gap_end_time": "2024-06-04T12:30:00", "gap_duration_min": 166.0, "wasted_distance_km": 1.316, "prev_trip": "DA240604029011", "next_trip": "DA240604031302", "prev_O": [114.1277438, 22.2834946], "next_O": [114.1777472, 22.2755438]}, "geometry": {"type": "LineString", "coordinates": [[114.190501, 22.275091], [114.17789, 22.274828], [114.177961, 22.274681]]}}, {"type": "Feature", "properties": {"id": "ghost_ZA3805_20240604123900", "plate_no": "ZA3805", "gap_start_time": "2024-06-04T12:39:00", "gap_end_time": "2024-06-04T16:30:00", "gap_duration_min": 231.0, "wasted_distance_km": 22.675, "prev_trip": "DA240604044002", "next_trip": "DA240604039002", "prev_O": [114.171654, 22.3303537], "next_O": [114.0036885, 22.4500309]}, "geometry": {"type": "LineString", "coordinates": [[114.208813, 22.383793], [114.000406, 22.450555], [114.0004, 22.450576]]}}, {"type": "Feature", "properties": {"id": "ghost_ZA4388_20240604090100", "plate_no": "ZA4388", "gap_start_time": "2024-06-04T09:01:00", "gap_end_time": "2024-06-04T12:50:00", "gap_duration_min": 229.0, "wasted_distance_km": 13.802, "prev_trip": "DA240604026901", "next_trip": "DA240604029301", "prev_O": [114.1563338, 22.2493075], "next_O": [114.2537702, 22.3241518]}, "geometry": {"type": "LineString", "coordinates": [[114.128166, 22.281188], [114.253888, 22.324483], [114.253905, 22.324483]]}}, {"type": "Feature", "properties": {"id": "ghost_ZA4388_20240604131600", "plate_no": "ZA4388", "gap_start_time": "2024-06-04T13:16:00", "gap_end_time": "2024-06-04T14:45:00", "gap_duration_min": 89.0, "wasted_distance_km": 10.852, "prev_trip": "DA240604029301", "next_trip": "DA240604041802", "prev_O": [114.2537702, 22.3241518], "next_O": [114.2113817, 22.4136093]}, "geometry": {"type": "LineString", "coordinates": [[114.17852, 22.321663], [114.1775, 22.32128], [114.211253, 22.412663], [114.21125, 22.412675]]}}, {"type": "Feature", "properties": {"id": "ghost_ZA6585_20240604093900", "plate_no": "ZA6585", "gap_start_time": "2024-06-04T09:39:00", "gap_end_time": "2024-06-04T14:05:00", "gap_duration_min": 266.0, "wasted_distance_km": 2.823, "prev_trip": "DA240604002911", "next_trip": "DA240604023501", "prev_O": [114.2365271, 22.2631632], "next_O": [114.1759245, 22.2508551]}, "geometry": {"type": "LineString", "coordinates": [[114.174796, 22.27639], [114.175498, 22.251035], [114.175513, 22.25105]]}}, {"type": "Feature", "properties": {"id": "ghost_ZB3274_20240604131700", "plate_no": "ZB3274", "gap_start_time": "2024-06-04T13:17:00", "gap_end_time": "2024-06-04T15:30:00", "gap_duration_min": 133.0, "wasted_distance_km": 2.877, "prev_trip": "DA240604030702", "next_trip": "DA240604028302", "prev_O": [114.1788078, 22.279342], "next_O": [114.1777194, 22.2755944]}, "geometry": {"type": "LineString", "coordinates": [[114.198796, 22.292416], [114.177773, 22.27536], [114.177773, 22.27536]]}}]}