{"type": "FeatureCollection", "features": [{"type": "Feature", "properties": {"id": "ghost_RH3326_20240622101016", "plate_no": "RH3326", "gap_start_time": "2024-06-22T10:10:16", "gap_end_time": "2024-06-22T13:10:24", "gap_duration_min": 180.13, "wasted_distance_km": 13.152, "prev_trip": "DA240622000701", "next_trip": "DA240622003011", "prev_O": [114.2492217, 22.2617169], "next_O": [114.1806739, 22.371019]}, "geometry": {"type": "LineString", "coordinates": [[114.234581, 22.26436], [114.18009, 22.371363]]}}, {"type": "Feature", "properties": {"id": "ghost_RV4210_20240622133707", "plate_no": "RV4210", "gap_start_time": "2024-06-22T13:37:07", "gap_end_time": "2024-06-22T16:10:28", "gap_duration_min": 153.35, "wasted_distance_km": 2.441, "prev_trip": "DA240622008201", "next_trip": "DA240622029702", "prev_O": [114.274778, 22.2967206], "next_O": [114.1668799, 22.2950249]}, "geometry": {"type": "LineString", "coordinates": [[114.192896, 22.287373], [114.17051, 22.294651]]}}, {"type": "Feature", "properties": {"id": "ghost_RV4356_20240622100842", "plate_no": "RV4356", "gap_start_time": "2024-06-22T10:08:42", "gap_end_time": "2024-06-22T11:40:12", "gap_duration_min": 91.5, "wasted_distance_km": 5.048, "prev_trip": "DA240622001501", "next_trip": "DA240622022502", "prev_O": [114.1728895, 22.4569367], "next_O": [114.1608536, 22.3324787]}, "geometry": {"type": "LineString", "coordinates": [[114.208703, 22.321901], [114.16096, 22.332408]]}}, {"type": "Feature", "properties": {"id": "ghost_RV4356_20240622115512", "plate_no": "RV4356", "gap_start_time": "2024-06-22T11:55:12", "gap_end_time": "2024-06-22T18:00:23", "gap_duration_min": 365.18, "wasted_distance_km": 8.736, "prev_trip": "DA240622022502", "next_trip": "DA240622026701", "prev_O": [114.1608536, 22.3324787], "next_O": [114.2099788, 22.3850846]}, "geometry": {"type": "LineString", "coordinates": [[114.149148, 22.331281], [114.210401, 22.385716]]}}, {"type": "Feature", "properties": {"id": "ghost_RV7493_20240622093246", "plate_no": "RV7493", "gap_start_time": "2024-06-22T09:32:46", "gap_end_time": "2024-06-22T10:55:04", "gap_duration_min": 82.3, "wasted_distance_km": 0.365, "prev_trip": "DA240622025111", "next_trip": "DA240622002001", "prev_O": [114.254142, 22.325608], "next_O": [114.220486, 22.32286]}, "geometry": {"type": "LineString", "coordinates": [[114.217171, 22.32141], [114.22039, 22.322796]]}}, {"type": "Feature", "properties": {"id": "ghost_RX5674_20240622110530", "plate_no": "RX5674", "gap_start_time": "2024-06-22T11:05:30", "gap_end_time": "2024-06-22T16:15:14", "gap_duration_min": 309.73, "wasted_distance_km": 4.714, "prev_trip": "DA240622036201", "next_trip": "DA240622007802", "prev_O": [114.2593425, 22.3236181], "next_O": [114.1997154, 22.3379307]}, "geometry": {"type": "LineString", "coordinates": [[114.173916, 22.303335], [114.200061, 22.338151]]}}, {"type": "Feature", "properties": {"id": "ghost_SM140_20240622090832", "plate_no": "SM140", "gap_start_time": "2024-06-22T09:08:32", "gap_end_time": "2024-06-22T15:33:19", "gap_duration_min": 384.78, "wasted_distance_km": 25.196, "prev_trip": "DA240622035511", "next_trip": "DA240622012702", "prev_O": [114.1914759, 22.3395127], "next_O": [114.1788626, 22.3124067]}, "geometry": {"type": "LineString", "coordinates": [[113.936646, 22.314763], [114.181578, 22.314753]]}}, {"type": "Feature", "properties": {"id": "ghost_TC1655_20240622112741", "plate_no": "TC1655", "gap_start_time": "2024-06-22T11:27:41", "gap_end_time": "2024-06-22T14:00:12", "gap_duration_min": 152.52, "wasted_distance_km": 0.022, "prev_trip": "DA240622005711", "next_trip": "DA240622006311", "prev_O": [114.1501361, 22.244705], "next_O": [113.934502, 22.319401]}, "geometry": {"type": "LineString", "coordinates": [[113.934113, 22.3196], [113.934241, 22.319441]]}}, {"type": "Feature", "properties": {"id": "ghost_TC6931_20240622163706", "plate_no": "TC6931", "gap_start_time": "2024-06-22T16:37:06", "gap_end_time": "2024-06-22T19:00:36", "gap_duration_min": 143.5, "wasted_distance_km": 8.663, "prev_trip": "DA240622021502", "next_trip": "DA240622026902", "prev_O": [114.1669634, 22.4482415], "next_O": [114.1743747, 22.3091816]}, "geometry": {"type": "LineString", "coordinates": [[114.122466, 22.368685], [114.17452, 22.307436]]}}, {"type": "Feature", "properties": {"id": "ghost_TC6931_20240622191236", "plate_no": "TC6931", "gap_start_time": "2024-06-22T19:12:36", "gap_end_time": "2024-06-22T21:00:06", "gap_duration_min": 107.5, "wasted_distance_km": 4.408, "prev_trip": "DA240622026902", "next_trip": "DA240622014102", "prev_O": [114.1743747, 22.3091816], "next_O": [114.2143211, 22.3331598]}, "geometry": {"type": "LineString", "coordinates": [[114.17765, 22.312515], [114.214455, 22.332818]]}}, {"type": "Feature", "properties": {"id": "ghost_TD7860_20240622110813", "plate_no": "TD7860", "gap_start_time": "2024-06-22T11:08:13", "gap_end_time": "2024-06-22T14:00:35", "gap_duration_min": 172.37, "wasted_distance_km": 0.127, "prev_trip": "DA240622006211", "next_trip": "DA240622006811", "prev_O": [114.1751006, 22.4488917], "next_O": [113.934502, 22.319401]}, "geometry": {"type": "LineString", "coordinates": [[113.934205, 22.319526], [113.935215, 22.318866]]}}, {"type": "Feature", "properties": {"id": "ghost_TF1503_20240622095322", "plate_no": "TF1503", "gap_start_time": "2024-06-22T09:53:22", "gap_end_time": "2024-06-22T12:30:07", "gap_duration_min": 156.75, "wasted_distance_km": 21.137, "prev_trip": "DA240622022201", "next_trip": "DA240622019611", "prev_O": [114.1972308, 22.4277515], "next_O": [114.1923099, 22.3180667]}, "geometry": {"type": "LineString", "coordinates": [[114.126118, 22.498116], [114.192145, 22.318096]]}}, {"type": "Feature", "properties": {"id": "ghost_TF1503_20240622125007", "plate_no": "TF1503", "gap_start_time": "2024-06-22T12:50:07", "gap_end_time": "2024-06-22T14:45:16", "gap_duration_min": 115.15, "wasted_distance_km": 1.762, "prev_trip": "DA240622019611", "next_trip": "DA240622001111", "prev_O": [114.1923099, 22.3180667], "next_O": [114.2336165, 22.2637098]}, "geometry": {"type": "LineString", "coordinates": [[114.229013, 22.279431], [114.233485, 22.264133]]}}, {"type": "Feature", "properties": {"id": "ghost_TF1503_20240622150416", "plate_no": "TF1503", "gap_start_time": "2024-06-22T15:04:16", "gap_end_time": "2024-06-22T16:00:46", "gap_duration_min": 56.5, "wasted_distance_km": 0.515, "prev_trip": "DA240622001111", "next_trip": "DA240622001211", "prev_O": [114.2336165, 22.2637098], "next_O": [114.2336165, 22.2637098]}, "geometry": {"type": "LineString", "coordinates": [[114.238056, 22.261266], [114.23338, 22.26291]]}}, {"type": "Feature", "properties": {"id": "ghost_TF1503_20240622160346", "plate_no": "TF1503", "gap_start_time": "2024-06-22T16:03:46", "gap_end_time": "2024-06-22T18:00:16", "gap_duration_min": 116.5, "wasted_distance_km": 6.187, "prev_trip": "DA240622001211", "next_trip": "DA240622015302", "prev_O": [114.2336165, 22.2637098], "next_O": [114.179118, 22.27986]}, "geometry": {"type": "LineString", "coordinates": [[114.23579, 22.262105], [114.17893, 22.280191]]}}, {"type": "Feature", "properties": {"id": "ghost_TF443_20240622102253", "plate_no": "TF443", "gap_start_time": "2024-06-22T10:22:53", "gap_end_time": "2024-06-22T12:30:12", "gap_duration_min": 127.32, "wasted_distance_km": 0.025, "prev_trip": "DA240622017501", "next_trip": "DA240622025502", "prev_O": [114.140001, 22.37024], "next_O": [114.2014802, 22.3820272]}, "geometry": {"type": "LineString", "coordinates": [[114.202566, 22.38146], [114.20265, 22.381246]]}}, {"type": "Feature", "properties": {"id": "ghost_TF443_20240622130042", "plate_no": "TF443", "gap_start_time": "2024-06-22T13:00:42", "gap_end_time": "2024-06-22T16:01:15", "gap_duration_min": 180.55, "wasted_distance_km": 2.043, "prev_trip": "DA240622025502", "next_trip": "DA240622029602", "prev_O": [114.2014802, 22.3820272], "next_O": [114.1668799, 22.2950249]}, "geometry": {"type": "LineString", "coordinates": [[114.185725, 22.304698], [114.168826, 22.295051]]}}, {"type": "Feature", "properties": {"id": "ghost_TW274_20240622073852", "plate_no": "TW274", "gap_start_time": "2024-06-22T07:38:52", "gap_end_time": "2024-06-22T08:00:16", "gap_duration_min": 21.4, "wasted_distance_km": 1.35, "prev_trip": "DA240622008011", "next_trip": "DA240622016111", "prev_O": [114.2633591, 22.3175133], "next_O": [114.26277, 22.308295]}, "geometry": {"type": "LineString", "coordinates": [[114.269626, 22.318156], [114.261468, 22.308646]]}}, {"type": "Feature", "properties": {"id": "ghost_TW274_20240622084345", "plate_no": "TW274", "gap_start_time": "2024-06-22T08:43:45", "gap_end_time": "2024-06-22T09:30:29", "gap_duration_min": 46.73, "wasted_distance_km": 0.33, "prev_trip": "DA240622016111", "next_trip": "DA240622010711", "prev_O": [114.26277, 22.308295], "next_O": [114.1953497, 22.3898836]}, "geometry": {"type": "LineString", "coordinates": [[114.198271, 22.388863], [114.195335, 22.39007]]}}, {"type": "Feature", "properties": {"id": "ghost_TW274_20240622095459", "plate_no": "TW274", "gap_start_time": "2024-06-22T09:54:59", "gap_end_time": "2024-06-22T12:30:20", "gap_duration_min": 155.35, "wasted_distance_km": 2.225, "prev_trip": "DA240622010711", "next_trip": "DA240622026901", "prev_O": [114.1953497, 22.3898836], "next_O": [114.1772603, 22.3129427]}, "geometry": {"type": "LineString", "coordinates": [[114.158993, 22.322985], [114.177446, 22.312551]]}}, {"type": "Feature", "properties": {"id": "ghost_TW7410_20240622104601", "plate_no": "TW7410", "gap_start_time": "2024-06-22T10:46:01", "gap_end_time": "2024-06-22T13:00:21", "gap_duration_min": 134.33, "wasted_distance_km": 8.256, "prev_trip": "DA240622037601", "next_trip": "DA240622033701", "prev_O": [114.2397463, 22.3033602], "next_O": [114.1610806, 22.3360204]}, "geometry": {"type": "LineString", "coordinates": [[114.235286, 22.310065], [114.160446, 22.336901]]}}, {"type": "Feature", "properties": {"id": "ghost_TW7410_20240622131748", "plate_no": "TW7410", "gap_start_time": "2024-06-22T13:17:48", "gap_end_time": "2024-06-22T18:00:11", "gap_duration_min": 282.38, "wasted_distance_km": 8.163, "prev_trip": "DA240622033701", "next_trip": "DA240622016311", "prev_O": [114.1610806, 22.3360204], "next_O": [114.1999667, 22.3927796]}, "geometry": {"type": "LineString", "coordinates": [[114.225956, 22.324123], [114.201505, 22.393965]]}}, {"type": "Feature", "properties": {"id": "ghost_TX9739_20240622055236", "plate_no": "TX9739", "gap_start_time": "2024-06-22T05:52:36", "gap_end_time": "2024-06-22T07:00:08", "gap_duration_min": 67.53, "wasted_distance_km": 3.448, "prev_trip": "DA240622012501", "next_trip": "DA240622016701", "prev_O": [114.0979333, 22.3489429], "next_O": [114.204565, 22.2898326]}, "geometry": {"type": "LineString", "coordinates": [[114.174618, 22.277768], [114.203766, 22.293071]]}}, {"type": "Feature", "properties": {"id": "ghost_TX9739_20240622070638", "plate_no": "TX9739", "gap_start_time": "2024-06-22T07:06:38", "gap_end_time": "2024-06-22T08:15:09", "gap_duration_min": 68.52, "wasted_distance_km": 4.049, "prev_trip": "DA240622016701", "next_trip": "DA240622019211", "prev_O": [114.204565, 22.2898326], "next_O": [114.1585432, 22.247762]}, "geometry": {"type": "LineString", "coordinates": [[114.174526, 22.280628], [114.158848, 22.247233]]}}, {"type": "Feature", "properties": {"id": "ghost_TX9769_20240622103147", "plate_no": "TX9769", "gap_start_time": "2024-06-22T10:31:47", "gap_end_time": "2024-06-22T16:45:01", "gap_duration_min": 373.23, "wasted_distance_km": 6.376, "prev_trip": "DA240622036511", "next_trip": "DA240622004211", "prev_O": [114.229125, 22.3155505], "next_O": [114.1941178, 22.2884225]}, "geometry": {"type": "LineString", "coordinates": [[114.157786, 22.334111], [114.194786, 22.288108]]}}, {"type": "Feature", "properties": {"id": "ghost_UL7617_20240622101656", "plate_no": "UL7617", "gap_start_time": "2024-06-22T10:16:56", "gap_end_time": "2024-06-22T11:00:26", "gap_duration_min": 43.5, "wasted_distance_km": 0.296, "prev_trip": "DA240622011401", "next_trip": "DA240622032301", "prev_O": [113.9449805, 22.2912052], "next_O": [114.1245247, 22.2709886]}, "geometry": {"type": "LineString", "coordinates": [[114.126205, 22.273206], [114.124325, 22.271196]]}}, {"type": "Feature", "properties": {"id": "ghost_UM4207_20240622090552", "plate_no": "UM4207", "gap_start_time": "2024-06-22T09:05:52", "gap_end_time": "2024-06-22T09:30:22", "gap_duration_min": 24.5, "wasted_distance_km": 8.053, "prev_trip": "DA240622016011", "next_trip": "DA240622030311", "prev_O": [114.1985124, 22.3742141], "next_O": [114.1747755, 22.4612811]}, "geometry": {"type": "LineString", "coordinates": [[114.201428, 22.393975], [114.174426, 22.461963]]}}, {"type": "Feature", "properties": {"id": "ghost_UM4207_20240622094952", "plate_no": "UM4207", "gap_start_time": "2024-06-22T09:49:52", "gap_end_time": "2024-06-22T11:00:23", "gap_duration_min": 70.52, "wasted_distance_km": 1.365, "prev_trip": "DA240622030311", "next_trip": "DA240622008311", "prev_O": [114.1747755, 22.4612811], "next_O": [114.2260703, 22.4165537]}, "geometry": {"type": "LineString", "coordinates": [[114.213336, 22.414093], [114.22638, 22.416378]]}}, {"type": "Feature", "properties": {"id": "ghost_UM4207_20240622112123", "plate_no": "UM4207", "gap_start_time": "2024-06-22T11:21:23", "gap_end_time": "2024-06-22T13:08:41", "gap_duration_min": 107.3, "wasted_distance_km": 2.116, "prev_trip": "DA240622008311", "next_trip": "DA240622016502", "prev_O": [114.2260703, 22.4165537], "next_O": [114.2113817, 22.4136093]}, "geometry": {"type": "LineString", "coordinates": [[114.218866, 22.395623], [114.211088, 22.413238]]}}, {"type": "Feature", "properties": {"id": "ghost_UM4207_20240622134540", "plate_no": "UM4207", "gap_start_time": "2024-06-22T13:45:40", "gap_end_time": "2024-06-22T15:00:02", "gap_duration_min": 74.37, "wasted_distance_km": 4.071, "prev_trip": "DA240622016502", "next_trip": "DA240622001502", "prev_O": [114.2113817, 22.4136093], "next_O": [114.2084586, 22.3197465]}, "geometry": {"type": "LineString", "coordinates": [[114.169478, 22.324701], [114.20883, 22.320761]]}}, {"type": "Feature", "properties": {"id": "ghost_UM5134_20240622094357", "plate_no": "UM5134", "gap_start_time": "2024-06-22T09:43:57", "gap_end_time": "2024-06-22T12:00:27", "gap_duration_min": 136.5, "wasted_distance_km": 15.294, "prev_trip": "DA240622008711", "next_trip": "DA240622016802", "prev_O": [114.1256023, 22.4982258], "next_O": [114.1869902, 22.3737698]}, "geometry": {"type": "LineString", "coordinates": [[114.136031, 22.50343], [114.18676, 22.374126]]}}, {"type": "Feature", "properties": {"id": "ghost_UM5134_20240622122627", "plate_no": "UM5134", "gap_start_time": "2024-06-22T12:26:27", "gap_end_time": "2024-06-22T14:15:19", "gap_duration_min": 108.87, "wasted_distance_km": 7.902, "prev_trip": "DA240622016802", "next_trip": "DA240622001702", "prev_O": [114.1869902, 22.3737698], "next_O": [114.173077, 22.4611085]}, "geometry": {"type": "LineString", "coordinates": [[114.238155, 22.42307], [114.17358, 22.461645]]}}, {"type": "Feature", "properties": {"id": "ghost_UM5926_20240622090342", "plate_no": "UM5926", "gap_start_time": "2024-06-22T09:03:42", "gap_end_time": "2024-06-22T10:00:12", "gap_duration_min": 56.5, "wasted_distance_km": 0.799, "prev_trip": "DA240622015911", "next_trip": "DA240622015301", "prev_O": [114.1418452, 22.3699119], "next_O": [114.199679, 22.3964246]}, "geometry": {"type": "LineString", "coordinates": [[114.196393, 22.391595], [114.20002, 22.397955]]}}, {"type": "Feature", "properties": {"id": "ghost_UM5926_20240622103612", "plate_no": "UM5926", "gap_start_time": "2024-06-22T10:36:12", "gap_end_time": "2024-06-22T15:00:02", "gap_duration_min": 263.83, "wasted_distance_km": 3.197, "prev_trip": "DA240622015301", "next_trip": "DA240622005111", "prev_O": [114.199679, 22.3964246], "next_O": [114.1495194, 22.2704876]}, "geometry": {"type": "LineString", "coordinates": [[114.179008, 22.28028], [114.149773, 22.270533]]}}, {"type": "Feature", "properties": {"id": "ghost_UN9790_20240622130915", "plate_no": "UN9790", "gap_start_time": "2024-06-22T13:09:15", "gap_end_time": "2024-06-22T14:45:09", "gap_duration_min": 95.9, "wasted_distance_km": 6.456, "prev_trip": "DA240622037002", "next_trip": "DA240622001411", "prev_O": [113.9412938, 22.289733], "next_O": [114.1200839, 22.3703121]}, "geometry": {"type": "LineString", "coordinates": [[114.060185, 22.353003], [114.120045, 22.370505]]}}, {"type": "Feature", "properties": {"id": "ghost_UP4016_20240622095924", "plate_no": "UP4016", "gap_start_time": "2024-06-22T09:59:24", "gap_end_time": "2024-06-22T12:20:18", "gap_duration_min": 140.9, "wasted_distance_km": 19.885, "prev_trip": "DA240622015711", "next_trip": "DA240622022202", "prev_O": [114.2163021, 22.3244614], "next_O": [114.126324, 22.4984453]}, "geometry": {"type": "LineString", "coordinates": [[114.188838, 22.32899], [114.126173, 22.498175]]}}, {"type": "Feature", "properties": {"id": "ghost_UP4016_20240622124548", "plate_no": "UP4016", "gap_start_time": "2024-06-22T12:45:48", "gap_end_time": "2024-06-22T15:00:06", "gap_duration_min": 134.3, "wasted_distance_km": 5.478, "prev_trip": "DA240622022202", "next_trip": "DA240622021811", "prev_O": [114.126324, 22.4984453], "next_O": [114.2014147, 22.3788502]}, "geometry": {"type": "LineString", "coordinates": [[114.197221, 22.42765], [114.20123, 22.378525]]}}, {"type": "Feature", "properties": {"id": "ghost_UP6525_20240622112139", "plate_no": "UP6525", "gap_start_time": "2024-06-22T11:21:39", "gap_end_time": "2024-06-22T14:00:14", "gap_duration_min": 158.58, "wasted_distance_km": 0.014, "prev_trip": "DA240622006111", "next_trip": "DA240622006711", "prev_O": [114.177173, 22.335706], "next_O": [113.934502, 22.319401]}, "geometry": {"type": "LineString", "coordinates": [[113.933971, 22.31961], [113.93411, 22.319593]]}}, {"type": "Feature", "properties": {"id": "ghost_VD4748_20240622094920", "plate_no": "VD4748", "gap_start_time": "2024-06-22T09:49:20", "gap_end_time": "2024-06-22T11:01:01", "gap_duration_min": 71.68, "wasted_distance_km": 2.161, "prev_trip": "DA240622027011", "next_trip": "DA240622037211", "prev_O": [114.227208, 22.417964], "next_O": [114.1762882, 22.2781796]}, "geometry": {"type": "LineString", "coordinates": [[114.158231, 22.280311], [114.179183, 22.27902]]}}, {"type": "Feature", "properties": {"id": "ghost_VD4748_20240622111531", "plate_no": "VD4748", "gap_start_time": "2024-06-22T11:15:31", "gap_end_time": "2024-06-22T13:14:00", "gap_duration_min": 118.48, "wasted_distance_km": 3.223, "prev_trip": "DA240622037211", "next_trip": "DA240622020002", "prev_O": [114.1762882, 22.2781796], "next_O": [114.1602846, 22.3285899]}, "geometry": {"type": "LineString", "coordinates": [[114.192106, 22.339311], [114.161643, 22.332526]]}}, {"type": "Feature", "properties": {"id": "ghost_VD6128_20240622092447", "plate_no": "VD6128", "gap_start_time": "2024-06-22T09:24:47", "gap_end_time": "2024-06-22T12:15:03", "gap_duration_min": 170.27, "wasted_distance_km": 7.516, "prev_trip": "DA240622002101", "next_trip": "DA240622022411", "prev_O": [114.1786768, 22.3729477], "next_O": [114.1613761, 22.3200828]}, "geometry": {"type": "LineString", "coordinates": [[114.194061, 22.38067], [114.161348, 22.320226]]}}, {"type": "Feature", "properties": {"id": "ghost_VD6128_20240622122703", "plate_no": "VD6128", "gap_start_time": "2024-06-22T12:27:03", "gap_end_time": "2024-06-22T15:00:03", "gap_duration_min": 153.0, "wasted_distance_km": 0.484, "prev_trip": "DA240622022411", "next_trip": "DA240622008602", "prev_O": [114.1613761, 22.3200828], "next_O": [114.1675891, 22.3073197]}, "geometry": {"type": "LineString", "coordinates": [[114.167026, 22.302966], [114.167333, 22.307305]]}}, {"type": "Feature", "properties": {"id": "ghost_VD6386_20240622112526", "plate_no": "VD6386", "gap_start_time": "2024-06-22T11:25:26", "gap_end_time": "2024-06-22T12:46:26", "gap_duration_min": 81.0, "wasted_distance_km": 0.529, "prev_trip": "DA240622020001", "next_trip": "DA240622028811", "prev_O": [113.9950875, 22.4611084], "next_O": [114.156454, 22.3349727]}, "geometry": {"type": "LineString", "coordinates": [[114.161001, 22.33246], [114.156535, 22.33482]]}}, {"type": "Feature", "properties": {"id": "ghost_VD6386_20240622135449", "plate_no": "VD6386", "gap_start_time": "2024-06-22T13:54:49", "gap_end_time": "2024-06-22T15:45:28", "gap_duration_min": 110.65, "wasted_distance_km": 0.351, "prev_trip": "DA240622028811", "next_trip": "DA240622025811", "prev_O": [114.156454, 22.3349727], "next_O": [113.943288, 22.321343]}, "geometry": {"type": "LineString", "coordinates": [[113.940928, 22.31979], [113.944203, 22.320676]]}}, {"type": "Feature", "properties": {"id": "ghost_VE6920_20240622104650", "plate_no": "VE6920", "gap_start_time": "2024-06-22T10:46:50", "gap_end_time": "2024-06-22T11:50:08", "gap_duration_min": 63.3, "wasted_distance_km": 2.647, "prev_trip": "DA240622012811", "next_trip": "DA240622004802", "prev_O": [114.1786768, 22.3122616], "next_O": [114.160196, 22.334899]}, "geometry": {"type": "LineString", "coordinates": [[114.17246, 22.313863], [114.160655, 22.335018]]}}, {"type": "Feature", "properties": {"id": "ghost_VE6920_20240622120438", "plate_no": "VE6920", "gap_start_time": "2024-06-22T12:04:38", "gap_end_time": "2024-06-22T14:30:10", "gap_duration_min": 145.53, "wasted_distance_km": 1.835, "prev_trip": "DA240622004802", "next_trip": "DA240622029911", "prev_O": [114.160196, 22.334899], "next_O": [114.130117, 22.3496304]}, "geometry": {"type": "LineString", "coordinates": [[114.140816, 22.336566], [114.12979, 22.349538]]}}, {"type": "Feature", "properties": {"id": "ghost_VE7344_20240622103555", "plate_no": "VE7344", "gap_start_time": "2024-06-22T10:35:55", "gap_end_time": "2024-06-22T14:00:28", "gap_duration_min": 204.55, "wasted_distance_km": 4.522, "prev_trip": "DA240622027211", "next_trip": "DA240622030101", "prev_O": [114.1905908, 22.34458], "next_O": [114.17154, 22.378342]}, "geometry": {"type": "LineString", "coordinates": [[114.19519, 22.343678], [114.170948, 22.377606]]}}, {"type": "Feature", "properties": {"id": "ghost_VV6972_20240622065225", "plate_no": "VV6972", "gap_start_time": "2024-06-22T06:52:25", "gap_end_time": "2024-06-22T08:00:25", "gap_duration_min": 68.0, "wasted_distance_km": 5.113, "prev_trip": "DA240622014211", "next_trip": "DA240622011901", "prev_O": [114.2018517, 22.3360239], "next_O": [114.2176648, 22.334549]}, "geometry": {"type": "LineString", "coordinates": [[114.17255, 22.314705], [114.217246, 22.334828]]}}, {"type": "Feature", "properties": {"id": "ghost_VV6972_20240622081155", "plate_no": "VV6972", "gap_start_time": "2024-06-22T08:11:55", "gap_end_time": "2024-06-22T09:25:27", "gap_duration_min": 73.53, "wasted_distance_km": 3.533, "prev_trip": "DA240622011901", "next_trip": "DA240622002711", "prev_O": [114.2176648, 22.334549], "next_O": [114.2563803, 22.3104625]}, "geometry": {"type": "LineString", "coordinates": [[114.225988, 22.324145], [114.257008, 22.310506]]}}, {"type": "Feature", "properties": {"id": "ghost_VV6972_20240622095227", "plate_no": "VV6972", "gap_start_time": "2024-06-22T09:52:27", "gap_end_time": "2024-06-22T12:47:51", "gap_duration_min": 175.4, "wasted_distance_km": 3.543, "prev_trip": "DA240622002711", "next_trip": "DA240622030711", "prev_O": [114.2563803, 22.3104625], "next_O": [114.1571359, 22.283086]}, "geometry": {"type": "LineString", "coordinates": [[114.190735, 22.285565], [114.156333, 22.284151]]}}, {"type": "Feature", "properties": {"id": "ghost_VV7298_20240622121337", "plate_no": "VV7298", "gap_start_time": "2024-06-22T12:13:37", "gap_end_time": "2024-06-22T14:00:00", "gap_duration_min": 106.38, "wasted_distance_km": 12.135, "prev_trip": "DA240622000702", "next_trip": "DA240622032101", "prev_O": [114.2329964, 22.2675897], "next_O": [114.133025, 22.287181]}, "geometry": {"type": "LineString", "coordinates": [[114.248328, 22.264558], [114.13298, 22.287278]]}}, {"type": "Feature", "properties": {"id": "ghost_VW4627_20240622101244", "plate_no": "VW4627", "gap_start_time": "2024-06-22T10:12:44", "gap_end_time": "2024-06-22T11:30:14", "gap_duration_min": 77.5, "wasted_distance_km": 1.279, "prev_trip": "DA240622032801", "next_trip": "DA240622022602", "prev_O": [113.9998786, 22.4666015], "next_O": [114.167667, 22.3069429]}, "geometry": {"type": "LineString", "coordinates": [[114.170123, 22.319396], [114.168538, 22.307988]]}}, {"type": "Feature", "properties": {"id": "ghost_VW7058_20240622084417", "plate_no": "VW7058", "gap_start_time": "2024-06-22T08:44:17", "gap_end_time": "2024-06-22T10:00:29", "gap_duration_min": 76.2, "wasted_distance_km": 1.062, "prev_trip": "DA240622008501", "next_trip": "DA240622019411", "prev_O": [113.9962947, 22.4360283], "next_O": [114.2263954, 22.2825665]}, "geometry": {"type": "LineString", "coordinates": [[114.218023, 22.287031], [114.226655, 22.281791]]}}, {"type": "Feature", "properties": {"id": "ghost_VW7058_20240622102929", "plate_no": "VW7058", "gap_start_time": "2024-06-22T10:29:29", "gap_end_time": "2024-06-22T14:00:10", "gap_duration_min": 210.68, "wasted_distance_km": 5.809, "prev_trip": "DA240622019411", "next_trip": "DA240622018801", "prev_O": [114.2263954, 22.2825665], "next_O": [114.176375, 22.370148]}, "geometry": {"type": "LineString", "coordinates": [[114.192356, 22.318605], [114.174745, 22.368241]]}}, {"type": "Feature", "properties": {"id": "ghost_VW8372_20240622101739", "plate_no": "VW8372", "gap_start_time": "2024-06-22T10:17:39", "gap_end_time": "2024-06-22T12:10:09", "gap_duration_min": 112.5, "wasted_distance_km": 9.607, "prev_trip": "DA240622020801", "next_trip": "DA240622000102", "prev_O": [114.2642247, 22.3155765], "next_O": [114.2420742, 22.2654561]}, "geometry": {"type": "LineString", "coordinates": [[114.197828, 22.343283], [114.242263, 22.26729]]}}, {"type": "Feature", "properties": {"id": "ghost_VW8372_20240622121839", "plate_no": "VW8372", "gap_start_time": "2024-06-22T12:18:39", "gap_end_time": "2024-06-22T13:11:05", "gap_duration_min": 52.43, "wasted_distance_km": 2.068, "prev_trip": "DA240622000102", "next_trip": "DA240622013611", "prev_O": [114.2420742, 22.2654561], "next_O": [114.2261179, 22.2773119]}, "geometry": {"type": "LineString", "coordinates": [[114.236425, 22.262371], [114.226375, 22.278473]]}}, {"type": "Feature", "properties": {"id": "ghost_VW8372_20240622131536", "plate_no": "VW8372", "gap_start_time": "2024-06-22T13:15:36", "gap_end_time": "2024-06-22T15:45:11", "gap_duration_min": 149.58, "wasted_distance_km": 23.017, "prev_trip": "DA240622013611", "next_trip": "DA240622015502", "prev_O": [114.2261179, 22.2773119], "next_O": [114.01701, 22.308116]}, "geometry": {"type": "LineString", "coordinates": [[114.236273, 22.269026], [114.016491, 22.307663]]}}, {"type": "Feature", "properties": {"id": "ghost_VW871_20240622110447", "plate_no": "VW871", "gap_start_time": "2024-06-22T11:04:47", "gap_end_time": "2024-06-22T13:30:14", "gap_duration_min": 145.45, "wasted_distance_km": 10.0, "prev_trip": "DA240622017902", "next_trip": "DA240622008601", "prev_O": [114.1698988, 22.3207521], "next_O": [114.1060175, 22.3439865]}, "geometry": {"type": "LineString", "coordinates": [[114.131863, 22.257363], [114.106251, 22.344121]]}}, {"type": "Feature", "properties": {"id": "ghost_VW871_20240622135710", "plate_no": "VW871", "gap_start_time": "2024-06-22T13:57:10", "gap_end_time": "2024-06-22T16:00:19", "gap_duration_min": 123.15, "wasted_distance_km": 8.197, "prev_trip": "DA240622008601", "next_trip": "DA240622002302", "prev_O": [114.1060175, 22.3439865], "next_O": [114.1253327, 22.369354]}, "geometry": {"type": "LineString", "coordinates": [[114.167418, 22.307443], [114.124976, 22.36984]]}}, {"type": "Feature", "properties": {"id": "ghost_VW895_20240622140007", "plate_no": "VW895", "gap_start_time": "2024-06-22T14:00:07", "gap_end_time": "2024-06-22T16:20:10", "gap_duration_min": 140.05, "wasted_distance_km": 8.362, "prev_trip": "DA240622002301", "next_trip": "DA240622029002", "prev_O": [113.9776925, 22.4141578], "next_O": [114.1676248, 22.3069524]}, "geometry": {"type": "LineString", "coordinates": [[114.122825, 22.36902], [114.167908, 22.306436]]}}, {"type": "Feature", "properties": {"id": "ghost_VW895_20240622164039", "plate_no": "VW895", "gap_start_time": "2024-06-22T16:40:39", "gap_end_time": "2024-06-22T20:00:10", "gap_duration_min": 199.52, "wasted_distance_km": 6.841, "prev_trip": "DA240622029002", "next_trip": "DA240622032511", "prev_O": [114.1676248, 22.3069524], "next_O": [114.1725, 22.30586]}, "geometry": {"type": "LineString", "coordinates": [[114.130121, 22.350208], [114.176936, 22.306503]]}}, {"type": "Feature", "properties": {"id": "ghost_VY7246_20240622100059", "plate_no": "VY7246", "gap_start_time": "2024-06-22T10:00:59", "gap_end_time": "2024-06-22T12:05:00", "gap_duration_min": 124.02, "wasted_distance_km": 5.394, "prev_trip": "DA240622022501", "next_trip": "DA240622023902", "prev_O": [114.1462113, 22.3319851], "next_O": [114.2129959, 22.3358706]}, "geometry": {"type": "LineString", "coordinates": [[114.160858, 22.332325], [114.213163, 22.33589]]}}, {"type": "Feature", "properties": {"id": "ghost_WP1681_20240622084406", "plate_no": "WP1681", "gap_start_time": "2024-06-22T08:44:06", "gap_end_time": "2024-06-22T09:30:25", "gap_duration_min": 46.32, "wasted_distance_km": 8.31, "prev_trip": "DA240622002201", "next_trip": "DA240622004911", "prev_O": [114.23134, 22.42554], "next_O": [114.2503345, 22.4318707]}, "geometry": {"type": "LineString", "coordinates": [[114.196103, 22.377358], [114.251725, 22.431586]]}}, {"type": "Feature", "properties": {"id": "ghost_WP1681_20240622102255", "plate_no": "WP1681", "gap_start_time": "2024-06-22T10:22:55", "gap_end_time": "2024-06-22T13:32:16", "gap_duration_min": 189.35, "wasted_distance_km": 1.821, "prev_trip": "DA240622004911", "next_trip": "DA240622027111", "prev_O": [114.2503345, 22.4318707], "next_O": [114.1547347, 22.2846202]}, "geometry": {"type": "LineString", "coordinates": [[114.151908, 22.266891], [114.155798, 22.282871]]}}, {"type": "Feature", "properties": {"id": "ghost_WP3306_20240622090251", "plate_no": "WP3306", "gap_start_time": "2024-06-22T09:02:51", "gap_end_time": "2024-06-22T10:00:24", "gap_duration_min": 57.55, "wasted_distance_km": 4.854, "prev_trip": "DA240622017701", "next_trip": "DA240622019101", "prev_O": [113.9427268, 22.2858597], "next_O": [114.2154225, 22.2854066]}, "geometry": {"type": "LineString", "coordinates": [[114.16955, 22.2963], [114.215245, 22.28545]]}}, {"type": "Feature", "properties": {"id": "ghost_WP3306_20240622102924", "plate_no": "WP3306", "gap_start_time": "2024-06-22T10:29:24", "gap_end_time": "2024-06-22T13:10:02", "gap_duration_min": 160.63, "wasted_distance_km": 0.165, "prev_trip": "DA240622019101", "next_trip": "DA240622019102", "prev_O": [114.2154225, 22.2854066], "next_O": [114.1608724, 22.3325804]}, "geometry": {"type": "LineString", "coordinates": [[114.16003, 22.330845], [114.161211, 22.331843]]}}, {"type": "Feature", "properties": {"id": "ghost_WP3306_20240622133131", "plate_no": "WP3306", "gap_start_time": "2024-06-22T13:31:31", "gap_end_time": "2024-06-22T14:30:29", "gap_duration_min": 58.97, "wasted_distance_km": 1.419, "prev_trip": "DA240622019102", "next_trip": "DA240622013411", "prev_O": [114.1608724, 22.3325804], "next_O": [114.2009991, 22.289963]}, "geometry": {"type": "LineString", "coordinates": [[114.212008, 22.284946], [114.200695, 22.292241]]}}, {"type": "Feature", "properties": {"id": "ghost_WP3890_20240622104143", "plate_no": "WP3890", "gap_start_time": "2024-06-22T10:41:43", "gap_end_time": "2024-06-22T14:30:22", "gap_duration_min": 228.65, "wasted_distance_km": 6.211, "prev_trip": "DA240622005011", "next_trip": "DA240622032302", "prev_O": [114.2503345, 22.4318707], "next_O": [114.2075017, 22.2915374]}, "geometry": {"type": "LineString", "coordinates": [[114.149576, 22.270995], [114.205823, 22.291278]]}}, {"type": "Feature", "properties": {"id": "ghost_WP3890_20240622150122", "plate_no": "WP3890", "gap_start_time": "2024-06-22T15:01:22", "gap_end_time": "2024-06-22T16:40:22", "gap_duration_min": 99.0, "wasted_distance_km": 1.019, "prev_trip": "DA240622032302", "next_trip": "DA240622011502", "prev_O": [114.2075017, 22.2915374], "next_O": [114.1257917, 22.2819969]}, "geometry": {"type": "LineString", "coordinates": [[114.12547, 22.272988], [114.125695, 22.282153]]}}, {"type": "Feature", "properties": {"id": "ghost_WP3895_20240622061150", "plate_no": "WP3895", "gap_start_time": "2024-06-22T06:11:50", "gap_end_time": "2024-06-22T06:30:48", "gap_duration_min": 18.97, "wasted_distance_km": 3.346, "prev_trip": "DA240622014801", "next_trip": "DA240622012311", "prev_O": [114.2165038, 22.324664], "next_O": [114.1917521, 22.3405523]}, "geometry": {"type": "LineString", "coordinates": [[114.160885, 22.334031], [114.193115, 22.338098]]}}, {"type": "Feature", "properties": {"id": "ghost_WP3895_20240622065548", "plate_no": "WP3895", "gap_start_time": "2024-06-22T06:55:48", "gap_end_time": "2024-06-22T13:10:26", "gap_duration_min": 374.63, "wasted_distance_km": 20.56, "prev_trip": "DA240622012311", "next_trip": "DA240622026511", "prev_O": [114.1917521, 22.3405523], "next_O": [114.20582, 22.462254]}, "geometry": {"type": "LineString", "coordinates": [[114.17463, 22.27867], [114.204935, 22.461433]]}}, {"type": "Feature", "properties": {"id": "ghost_XE7168_20240622103447", "plate_no": "XE7168", "gap_start_time": "2024-06-22T10:34:47", "gap_end_time": "2024-06-22T15:45:19", "gap_duration_min": 310.53, "wasted_distance_km": 23.216, "prev_trip": "DA240622022911", "next_trip": "DA240622025911", "prev_O": [114.2343596, 22.3128412], "next_O": [113.943288, 22.321343]}, "geometry": {"type": "LineString", "coordinates": [[114.169661, 22.31021], [113.944261, 22.32079]]}}, {"type": "Feature", "properties": {"id": "ghost_XE7898_20240622132219", "plate_no": "XE7898", "gap_start_time": "2024-06-22T13:22:19", "gap_end_time": "2024-06-22T16:29:17", "gap_duration_min": 186.97, "wasted_distance_km": 0.12, "prev_trip": "DA240622007701", "next_trip": "DA240622007702", "prev_O": [114.1917274, 22.3748517], "next_O": [114.1997154, 22.3379307]}, "geometry": {"type": "LineString", "coordinates": [[114.197626, 22.339308], [114.19826, 22.340211]]}}, {"type": "Feature", "properties": {"id": "ghost_XE8451_20240622094622", "plate_no": "XE8451", "gap_start_time": "2024-06-22T09:46:22", "gap_end_time": "2024-06-22T11:00:22", "gap_duration_min": 74.0, "wasted_distance_km": 10.657, "prev_trip": "DA240622033301", "next_trip": "DA240622021501", "prev_O": [114.1809256, 22.3814192], "next_O": [114.1203858, 22.3670155]}, "geometry": {"type": "LineString", "coordinates": [[114.211463, 22.413166], [114.1205, 22.367206]]}}, {"type": "Feature", "properties": {"id": "ghost_XE8451_20240622113422", "plate_no": "XE8451", "gap_start_time": "2024-06-22T11:34:22", "gap_end_time": "2024-06-22T12:16:32", "gap_duration_min": 42.17, "wasted_distance_km": 13.097, "prev_trip": "DA240622021501", "next_trip": "DA240622009902", "prev_O": [114.1203858, 22.3670155], "next_O": [114.1616315, 22.3345252]}, "geometry": {"type": "LineString", "coordinates": [[114.167493, 22.450991], [114.162305, 22.333306]]}}, {"type": "Feature", "properties": {"id": "ghost_XE9425_20240622101720", "plate_no": "XE9425", "gap_start_time": "2024-06-22T10:17:20", "gap_end_time": "2024-06-22T12:20:57", "gap_duration_min": 123.62, "wasted_distance_km": 4.693, "prev_trip": "DA240622028401", "next_trip": "DA240622036302", "prev_O": [114.1613893, 22.3031927], "next_O": [114.1717909, 22.3154728]}, "geometry": {"type": "LineString", "coordinates": [[114.216481, 22.313461], [114.170865, 22.312645]]}}, {"type": "Feature", "properties": {"id": "ghost_XE9425_20240622124457", "plate_no": "XE9425", "gap_start_time": "2024-06-22T12:44:57", "gap_end_time": "2024-06-22T15:06:00", "gap_duration_min": 141.05, "wasted_distance_km": 4.839, "prev_trip": "DA240622036302", "next_trip": "DA240622035901", "prev_O": [114.1717909, 22.3154728], "next_O": [114.1672658, 22.314764]}, "geometry": {"type": "LineString", "coordinates": [[114.207215, 22.339655], [114.170181, 22.312821]]}}, {"type": "Feature", "properties": {"id": "ghost_XM4556_20240622074421", "plate_no": "XM4556", "gap_start_time": "2024-06-22T07:44:21", "gap_end_time": "2024-06-22T09:03:51", "gap_duration_min": 79.5, "wasted_distance_km": 11.268, "prev_trip": "DA240622009801", "next_trip": "DA240622014411", "prev_O": [114.2553258, 22.3226635], "next_O": [114.1613761, 22.3257294]}, "geometry": {"type": "LineString", "coordinates": [[114.269678, 22.318078], [114.160503, 22.326425]]}}, {"type": "Feature", "properties": {"id": "ghost_XM6122_20240622094307", "plate_no": "XM6122", "gap_start_time": "2024-06-22T09:43:07", "gap_end_time": "2024-06-22T11:00:12", "gap_duration_min": 77.08, "wasted_distance_km": 8.629, "prev_trip": "DA240622008901", "next_trip": "DA240622011201", "prev_O": [114.1545766, 22.3342163], "next_O": [114.1000403, 22.3499824]}, "geometry": {"type": "LineString", "coordinates": [[114.17905, 22.322176], [114.100675, 22.349855]]}}, {"type": "Feature", "properties": {"id": "ghost_XM6122_20240622112242", "plate_no": "XM6122", "gap_start_time": "2024-06-22T11:22:42", "gap_end_time": "2024-06-22T15:10:29", "gap_duration_min": 227.78, "wasted_distance_km": 8.134, "prev_trip": "DA240622011201", "next_trip": "DA240622002102", "prev_O": [114.1000403, 22.3499824], "next_O": [114.1987643, 22.3804685]}, "geometry": {"type": "LineString", "coordinates": [[114.16884, 22.312745], [114.199093, 22.380335]]}}, {"type": "Feature", "properties": {"id": "ghost_XM9047_20240622132815", "plate_no": "XM9047", "gap_start_time": "2024-06-22T13:28:15", "gap_end_time": "2024-06-22T14:00:15", "gap_duration_min": 32.0, "wasted_distance_km": 5.18, "prev_trip": "DA240622021711", "next_trip": "DA240622011501", "prev_O": [114.2287366, 22.3118568], "next_O": [114.2249994, 22.4223581]}, "geometry": {"type": "LineString", "coordinates": [[114.204843, 22.379153], [114.225273, 22.421736]]}}, {"type": "Feature", "properties": {"id": "ghost_XN7948_20240622122418", "plate_no": "XN7948", "gap_start_time": "2024-06-22T12:24:18", "gap_end_time": "2024-06-22T15:00:19", "gap_duration_min": 156.02, "wasted_distance_km": 4.2, "prev_trip": "DA240622013011", "next_trip": "DA240622023201", "prev_O": [114.1726104, 22.314136], "next_O": [114.2097714, 22.3329283]}, "geometry": {"type": "LineString", "coordinates": [[114.173131, 22.313235], [114.208251, 22.33251]]}}, {"type": "Feature", "properties": {"id": "ghost_XU9430_20240622112734", "plate_no": "XU9430", "gap_start_time": "2024-06-22T11:27:34", "gap_end_time": "2024-06-22T14:00:22", "gap_duration_min": 152.8, "wasted_distance_km": 0.04, "prev_trip": "DA240622005811", "next_trip": "DA240622006411", "prev_O": [114.23866, 22.2964354], "next_O": [113.934502, 22.319401]}, "geometry": {"type": "LineString", "coordinates": [[113.934061, 22.3197], [113.933811, 22.319425]]}}, {"type": "Feature", "properties": {"id": "ghost_XU9430_20240622144052", "plate_no": "XU9430", "gap_start_time": "2024-06-22T14:40:52", "gap_end_time": "2024-06-22T16:30:23", "gap_duration_min": 109.52, "wasted_distance_km": 0.273, "prev_trip": "DA240622006411", "next_trip": "DA240622007011", "prev_O": [113.934502, 22.319401], "next_O": [114.0169585, 22.3071941]}, "geometry": {"type": "LineString", "coordinates": [[114.016453, 22.307058], [114.014513, 22.308735]]}}, {"type": "Feature", "properties": {"id": "ghost_XV2836_20240622100826", "plate_no": "XV2836", "gap_start_time": "2024-06-22T10:08:26", "gap_end_time": "2024-06-22T15:00:08", "gap_duration_min": 291.7, "wasted_distance_km": 16.685, "prev_trip": "DA240622000601", "next_trip": "DA240622020102", "prev_O": [114.2492217, 22.2617169], "next_O": [114.2112544, 22.4117423]}, "geometry": {"type": "LineString", "coordinates": [[114.234521, 22.264475], [114.21164, 22.413031]]}}, {"type": "Feature", "properties": {"id": "ghost_XV4803_20240622134731", "plate_no": "XV4803", "gap_start_time": "2024-06-22T13:47:31", "gap_end_time": "2024-06-22T14:00:01", "gap_duration_min": 12.5, "wasted_distance_km": 0.349, "prev_trip": "DA240622021311", "next_trip": "DA240622034411", "prev_O": [114.1476512, 22.243373], "next_O": [114.1642456, 22.2463683]}, "geometry": {"type": "LineString", "coordinates": [[114.166353, 22.24396], [114.163711, 22.24593]]}}, {"type": "Feature", "properties": {"id": "ghost_XV4803_20240622142601", "plate_no": "XV4803", "gap_start_time": "2024-06-22T14:26:01", "gap_end_time": "2024-06-22T15:30:24", "gap_duration_min": 64.38, "wasted_distance_km": 4.947, "prev_trip": "DA240622034411", "next_trip": "DA240622008802", "prev_O": [114.1642456, 22.2463683], "next_O": [114.1469988, 22.2446809]}, "geometry": {"type": "LineString", "coordinates": [[114.13069, 22.285806], [114.147211, 22.244026]]}}, {"type": "Feature", "properties": {"id": "ghost_XV4803_20240622155553", "plate_no": "XV4803", "gap_start_time": "2024-06-22T15:55:53", "gap_end_time": "2024-06-22T21:00:29", "gap_duration_min": 304.6, "wasted_distance_km": 15.752, "prev_trip": "DA240622008802", "next_trip": "DA240622027502", "prev_O": [114.1469988, 22.2446809], "next_O": [114.2081213, 22.3901734]}, "geometry": {"type": "LineString", "coordinates": [[114.124326, 22.271326], [114.207556, 22.390246]]}}, {"type": "Feature", "properties": {"id": "ghost_XV6358_20240622133300", "plate_no": "XV6358", "gap_start_time": "2024-06-22T13:33:00", "gap_end_time": "2024-06-22T16:45:02", "gap_duration_min": 192.03, "wasted_distance_km": 6.87, "prev_trip": "DA240622023302", "next_trip": "DA240622003111", "prev_O": [114.1703644, 22.4487703], "next_O": [114.1941178, 22.2884225]}, "geometry": {"type": "LineString", "coordinates": [[114.258285, 22.306575], [114.194481, 22.28834]]}}, {"type": "Feature", "properties": {"id": "ghost_YJ4587_20240622121353", "plate_no": "YJ4587", "gap_start_time": "2024-06-22T12:13:53", "gap_end_time": "2024-06-22T15:12:07", "gap_duration_min": 178.23, "wasted_distance_km": 0.153, "prev_trip": "DA240622004701", "next_trip": "DA240622004702", "prev_O": [114.177655, 22.3010111], "next_O": [114.1687395, 22.2974784]}, "geometry": {"type": "LineString", "coordinates": [[114.171703, 22.294646], [114.170546, 22.293788]]}}, {"type": "Feature", "properties": {"id": "ghost_YK4683_20240622121929", "plate_no": "YK4683", "gap_start_time": "2024-06-22T12:19:29", "gap_end_time": "2024-06-22T15:02:28", "gap_duration_min": 162.98, "wasted_distance_km": 8.303, "prev_trip": "DA240622027801", "next_trip": "DA240622005211", "prev_O": [114.1943978, 22.401522], "next_O": [114.1495194, 22.2704876]}, "geometry": {"type": "LineString", "coordinates": [[114.179745, 22.339223], [114.14987, 22.269855]]}}, {"type": "Feature", "properties": {"id": "ghost_YK5072_20240622090910", "plate_no": "YK5072", "gap_start_time": "2024-06-22T09:09:10", "gap_end_time": "2024-06-22T13:01:44", "gap_duration_min": 232.57, "wasted_distance_km": 5.218, "prev_trip": "DA240622026101", "next_trip": "DA240622029102", "prev_O": [114.2369567, 22.425049], "next_O": [114.207831, 22.32266]}, "geometry": {"type": "LineString", "coordinates": [[114.175058, 22.360978], [114.208321, 22.325548]]}}, {"type": "Feature", "properties": {"id": "ghost_YK6404_20240622111356", "plate_no": "YK6404", "gap_start_time": "2024-06-22T11:13:56", "gap_end_time": "2024-06-22T13:00:50", "gap_duration_min": 106.9, "wasted_distance_km": 12.713, "prev_trip": "DA240622035411", "next_trip": "DA240622023402", "prev_O": [114.1715818, 22.3302289], "next_O": [114.1703644, 22.4487703]}, "geometry": {"type": "LineString", "coordinates": [[114.140601, 22.336153], [114.173686, 22.44632]]}}, {"type": "Feature", "properties": {"id": "ghost_YK6404_20240622140019", "plate_no": "YK6404", "gap_start_time": "2024-06-22T14:00:19", "gap_end_time": "2024-06-22T18:00:19", "gap_duration_min": 240.0, "wasted_distance_km": 7.838, "prev_trip": "DA240622023402", "next_trip": "DA240622018411", "prev_O": [114.1703644, 22.4487703], "next_O": [114.1913558, 22.2872008]}, "geometry": {"type": "LineString", "coordinates": [[114.212721, 22.220378], [114.190136, 22.2877]]}}, {"type": "Feature", "properties": {"id": "ghost_YK6404_20240622184319", "plate_no": "YK6404", "gap_start_time": "2024-06-22T18:43:19", "gap_end_time": "2024-06-22T20:00:19", "gap_duration_min": 77.0, "wasted_distance_km": 6.898, "prev_trip": "DA240622018411", "next_trip": "DA240622033702", "prev_O": [114.1913558, 22.2872008], "next_O": [114.2270881, 22.3229689]}, "geometry": {"type": "LineString", "coordinates": [[114.192235, 22.375766], [114.227335, 22.322905]]}}, {"type": "Feature", "properties": {"id": "ghost_YK7398_20240622105830", "plate_no": "YK7398", "gap_start_time": "2024-06-22T10:58:30", "gap_end_time": "2024-06-22T15:45:11", "gap_duration_min": 286.68, "wasted_distance_km": 0.12, "prev_trip": "DA240622015601", "next_trip": "DA240622015602", "prev_O": [114.2574096, 22.3119682], "next_O": [114.01701, 22.308116]}, "geometry": {"type": "LineString", "coordinates": [[114.016138, 22.308273], [114.016531, 22.30726]]}}, {"type": "Feature", "properties": {"id": "ghost_YK7541_20240622085508", "plate_no": "YK7541", "gap_start_time": "2024-06-22T08:55:08", "gap_end_time": "2024-06-22T11:15:20", "gap_duration_min": 140.2, "wasted_distance_km": 20.976, "prev_trip": "DA240622037001", "next_trip": "DA240622021602", "prev_O": [114.0611117, 22.3533971], "next_O": [114.1338341, 22.341565]}, "geometry": {"type": "LineString", "coordinates": [[113.938541, 22.287871], [114.134088, 22.341336]]}}, {"type": "Feature", "properties": {"id": "ghost_YK7541_20240622113550", "plate_no": "YK7541", "gap_start_time": "2024-06-22T11:35:50", "gap_end_time": "2024-06-22T14:00:10", "gap_duration_min": 144.33, "wasted_distance_km": 1.906, "prev_trip": "DA240622021602", "next_trip": "DA240622028501", "prev_O": [114.1338341, 22.341565], "next_O": [114.1209665, 22.3723971]}, "geometry": {"type": "LineString", "coordinates": [[114.136125, 22.362846], [114.120885, 22.372598]]}}, {"type": "Feature", "properties": {"id": "ghost_YK7541_20240622143410", "plate_no": "YK7541", "gap_start_time": "2024-06-22T14:34:10", "gap_end_time": "2024-06-22T15:15:10", "gap_duration_min": 41.0, "wasted_distance_km": 1.028, "prev_trip": "DA240622028501", "next_trip": "DA240622001602", "prev_O": [114.1209665, 22.3723971], "next_O": [114.1863128, 22.3274713]}, "geometry": {"type": "LineString", "coordinates": [[114.18238, 22.319091], [114.186393, 22.327556]]}}, {"type": "Feature", "properties": {"id": "ghost_YK8969_20240622120938", "plate_no": "YK8969", "gap_start_time": "2024-06-22T12:09:38", "gap_end_time": "2024-06-22T13:20:08", "gap_duration_min": 70.5, "wasted_distance_km": 3.076, "prev_trip": "DA240622000602", "next_trip": "DA240622002511", "prev_O": [114.2329964, 22.2675897], "next_O": [114.2269991, 22.2807278]}, "geometry": {"type": "LineString", "coordinates": [[114.24935, 22.263061], [114.227148, 22.28159]]}}, {"type": "Feature", "properties": {"id": "ghost_YK905_20240622101225", "plate_no": "YK905", "gap_start_time": "2024-06-22T10:12:25", "gap_end_time": "2024-06-22T11:45:00", "gap_duration_min": 92.58, "wasted_distance_km": 9.866, "prev_trip": "DA240622009901", "next_trip": "DA240622007801", "prev_O": [114.185621, 22.3275253], "next_O": [114.2546989, 22.3257479]}, "geometry": {"type": "LineString", "coordinates": [[114.159963, 22.330663], [114.255655, 22.324631]]}}, {"type": "Feature", "properties": {"id": "ghost_YK905_20240622123830", "plate_no": "YK905", "gap_start_time": "2024-06-22T12:38:30", "gap_end_time": "2024-06-22T15:00:29", "gap_duration_min": 141.98, "wasted_distance_km": 1.997, "prev_trip": "DA240622007801", "next_trip": "DA240622037301", "prev_O": [114.2546989, 22.3257479], "next_O": [114.2176659, 22.324314]}, "geometry": {"type": "LineString", "coordinates": [[114.203393, 22.337126], [114.217051, 22.324358]]}}, {"type": "Feature", "properties": {"id": "ghost_YL1345_20240622103728", "plate_no": "YL1345", "gap_start_time": "2024-06-22T10:37:28", "gap_end_time": "2024-06-22T17:00:40", "gap_duration_min": 383.2, "wasted_distance_km": 3.077, "prev_trip": "DA240622014101", "next_trip": "DA240622032602", "prev_O": [114.1944442, 22.338916], "next_O": [114.1885693, 22.3170225]}, "geometry": {"type": "LineString", "coordinates": [[114.21225, 22.333781], [114.188341, 22.31715]]}}, {"type": "Feature", "properties": {"id": "ghost_YL7929_20240622091327", "plate_no": "YL7929", "gap_start_time": "2024-06-22T09:13:27", "gap_end_time": "2024-06-22T11:30:20", "gap_duration_min": 136.88, "wasted_distance_km": 5.224, "prev_trip": "DA240622016911", "next_trip": "DA240622019802", "prev_O": [114.1884798, 22.3268521], "next_O": [114.1338213, 22.341361]}, "geometry": {"type": "LineString", "coordinates": [[114.175601, 22.313411], [114.134566, 22.341088]]}}, {"type": "Feature", "properties": {"id": "ghost_YL7929_20240622114850", "plate_no": "YL7929", "gap_start_time": "2024-06-22T11:48:50", "gap_end_time": "2024-06-22T13:15:16", "gap_duration_min": 86.43, "wasted_distance_km": 1.929, "prev_trip": "DA240622019802", "next_trip": "DA240622031902", "prev_O": [114.1338213, 22.341361], "next_O": [114.1242953, 22.3595196]}, "geometry": {"type": "LineString", "coordinates": [[114.10577, 22.358845], [114.124521, 22.359315]]}}, {"type": "Feature", "properties": {"id": "ghost_YY7621_20240622082918", "plate_no": "YY7621", "gap_start_time": "2024-06-22T08:29:18", "gap_end_time": "2024-06-22T12:15:16", "gap_duration_min": 225.97, "wasted_distance_km": 5.774, "prev_trip": "DA240622000301", "next_trip": "DA240622001601", "prev_O": [114.1266489, 22.3476314], "next_O": [114.1767495, 22.3199671]}, "geometry": {"type": "LineString", "coordinates": [[114.128133, 22.346401], [114.17587, 22.319076]]}}, {"type": "Feature", "properties": {"id": "ghost_YY7621_20240622122248", "plate_no": "YY7621", "gap_start_time": "2024-06-22T12:22:48", "gap_end_time": "2024-06-22T16:18:30", "gap_duration_min": 235.7, "wasted_distance_km": 6.094, "prev_trip": "DA240622001601", "next_trip": "DA240622000402", "prev_O": [114.1767495, 22.3199671], "next_O": [114.1283333, 22.3458333]}, "geometry": {"type": "LineString", "coordinates": [[114.183458, 22.324038], [114.1292, 22.346065]]}}, {"type": "Feature", "properties": {"id": "ghost_ZA2376_20240622102337", "plate_no": "ZA2376", "gap_start_time": "2024-06-22T10:23:37", "gap_end_time": "2024-06-22T12:00:00", "gap_duration_min": 96.38, "wasted_distance_km": 3.946, "prev_trip": "DA240622012211", "next_trip": "DA240622014511", "prev_O": [114.1944442, 22.338916], "next_O": [114.2007492, 22.3380469]}, "geometry": {"type": "LineString", "coordinates": [[114.229585, 22.314155], [114.200721, 22.337535]]}}, {"type": "Feature", "properties": {"id": "ghost_ZA2376_20240622121330", "plate_no": "ZA2376", "gap_start_time": "2024-06-22T12:13:30", "gap_end_time": "2024-06-22T13:45:17", "gap_duration_min": 91.78, "wasted_distance_km": 8.701, "prev_trip": "DA240622014511", "next_trip": "DA240622005301", "prev_O": [114.2007492, 22.3380469], "next_O": [114.230273, 22.3225526]}, "geometry": {"type": "LineString", "coordinates": [[114.146928, 22.336018], [114.230318, 22.322846]]}}, {"type": "Feature", "properties": {"id": "ghost_ZA2376_20240622141123", "plate_no": "ZA2376", "gap_start_time": "2024-06-22T14:11:23", "gap_end_time": "2024-06-22T15:35:01", "gap_duration_min": 83.63, "wasted_distance_km": 0.411, "prev_trip": "DA240622005301", "next_trip": "DA240622005302", "prev_O": [114.230273, 22.3225526], "next_O": [114.257666, 22.312751]}, "geometry": {"type": "LineString", "coordinates": [[114.2617, 22.312018], [114.257711, 22.312201]]}}, {"type": "Feature", "properties": {"id": "ghost_ZA3805_20240622090033", "plate_no": "ZA3805", "gap_start_time": "2024-06-22T09:00:33", "gap_end_time": "2024-06-22T14:45:06", "gap_duration_min": 344.55, "wasted_distance_km": 6.265, "prev_trip": "DA240622016801", "next_trip": "DA240622018111", "prev_O": [114.2375737, 22.4230553], "next_O": [114.2077187, 22.3228659]}, "geometry": {"type": "LineString", "coordinates": [[114.189871, 22.37591], [114.208393, 22.322231]]}}, {"type": "Feature", "properties": {"id": "ghost_ZA976_20240622140038", "plate_no": "ZA976", "gap_start_time": "2024-06-22T14:00:38", "gap_end_time": "2024-06-22T17:05:56", "gap_duration_min": 185.3, "wasted_distance_km": 3.538, "prev_trip": "DA240622023501", "next_trip": "DA240622010802", "prev_O": [114.022682, 22.447859], "next_O": [114.1868598, 22.306521]}, "geometry": {"type": "LineString", "coordinates": [[114.160521, 22.331841], [114.183885, 22.308496]]}}, {"type": "Feature", "properties": {"id": "ghost_ZA976_20240622174727", "plate_no": "ZA976", "gap_start_time": "2024-06-22T17:47:27", "gap_end_time": "2024-06-22T19:30:05", "gap_duration_min": 102.63, "wasted_distance_km": 9.302, "prev_trip": "DA240622010802", "next_trip": "DA240622010111", "prev_O": [114.1868598, 22.306521], "next_O": [114.0707413, 22.432825]}, "geometry": {"type": "LineString", "coordinates": [[113.982233, 22.411588], [114.068561, 22.436676]]}}]}