{"type": "FeatureCollection", "features": [{"type": "Feature", "properties": {"id": "ghost_RV3895_20240625100836", "plate_no": "RV3895", "gap_start_time": "2024-06-25T10:08:36", "gap_end_time": "2024-06-25T13:00:25", "gap_duration_min": 171.82, "wasted_distance_km": 7.513, "prev_trip": "DA240625019511", "next_trip": "DA240625029201", "prev_O": [114.1914758, 22.3395128], "next_O": [114.1203858, 22.3670155]}, "geometry": {"type": "LineString", "coordinates": [[114.171326, 22.318695], [114.120595, 22.367315]]}}, {"type": "Feature", "properties": {"id": "ghost_RV3951_20240625081829", "plate_no": "RV3951", "gap_start_time": "2024-06-25T08:18:29", "gap_end_time": "2024-06-25T09:00:27", "gap_duration_min": 41.97, "wasted_distance_km": 5.583, "prev_trip": "DA240625042011", "next_trip": "DA240625018901", "prev_O": [114.185168, 22.3394295], "next_O": [114.2259078, 22.4240978]}, "geometry": {"type": "LineString", "coordinates": [[114.204168, 22.378656], [114.226495, 22.424426]]}}, {"type": "Feature", "properties": {"id": "ghost_RV8266_20240625083437", "plate_no": "RV8266", "gap_start_time": "2024-06-25T08:34:37", "gap_end_time": "2024-06-25T09:31:42", "gap_duration_min": 57.08, "wasted_distance_km": 3.05, "prev_trip": "DA240625012401", "next_trip": "DA240625043301", "prev_O": [114.1958168, 22.3349711], "next_O": [114.213037, 22.3351101]}, "geometry": {"type": "LineString", "coordinates": [[114.227805, 22.311485], [114.2129, 22.335193]]}}, {"type": "Feature", "properties": {"id": "ghost_SL9199_20240625085522", "plate_no": "SL9199", "gap_start_time": "2024-06-25T08:55:22", "gap_end_time": "2024-06-25T11:02:22", "gap_duration_min": 127.0, "wasted_distance_km": 9.15, "prev_trip": "DA240625008901", "next_trip": "DA240625042111", "prev_O": [114.1704097, 22.4442723], "next_O": [114.201222, 22.378404]}, "geometry": {"type": "LineString", "coordinates": [[114.172, 22.455586], [114.204988, 22.379158]]}}, {"type": "Feature", "properties": {"id": "ghost_SL9199_20240625111726", "plate_no": "SL9199", "gap_start_time": "2024-06-25T11:17:26", "gap_end_time": "2024-06-25T13:45:05", "gap_duration_min": 147.65, "wasted_distance_km": 1.996, "prev_trip": "DA240625042111", "next_trip": "DA240625039411", "prev_O": [114.201222, 22.378404], "next_O": [114.1498105, 22.334746]}, "geometry": {"type": "LineString", "coordinates": [[114.16628, 22.324128], [114.1496, 22.333293]]}}, {"type": "Feature", "properties": {"id": "ghost_SL9199_20240625140436", "plate_no": "SL9199", "gap_start_time": "2024-06-25T14:04:36", "gap_end_time": "2024-06-25T15:10:08", "gap_duration_min": 65.53, "wasted_distance_km": 0.399, "prev_trip": "DA240625039411", "next_trip": "DA240625007702", "prev_O": [114.1498105, 22.334746], "next_O": [114.1987643, 22.3804685]}, "geometry": {"type": "LineString", "coordinates": [[114.196065, 22.382781], [114.198828, 22.380256]]}}, {"type": "Feature", "properties": {"id": "ghost_SL9199_20240625151935", "plate_no": "SL9199", "gap_start_time": "2024-06-25T15:19:35", "gap_end_time": "2024-06-25T16:45:01", "gap_duration_min": 85.43, "wasted_distance_km": 1.092, "prev_trip": "DA240625007702", "next_trip": "DA240625010902", "prev_O": [114.1987643, 22.3804685], "next_O": [114.1700846, 22.3760056]}, "geometry": {"type": "LineString", "coordinates": [[114.179028, 22.371496], [114.169693, 22.37618]]}}, {"type": "Feature", "properties": {"id": "ghost_SM140_20240625082929", "plate_no": "SM140", "gap_start_time": "2024-06-25T08:29:29", "gap_end_time": "2024-06-25T17:00:09", "gap_duration_min": 510.67, "wasted_distance_km": 0.58, "prev_trip": "DA240625016001", "next_trip": "DA240625022102", "prev_O": [114.1919131, 22.3437841], "next_O": [114.1743747, 22.3091816]}, "geometry": {"type": "LineString", "coordinates": [[114.171983, 22.314163], [114.174706, 22.309598]]}}, {"type": "Feature", "properties": {"id": "ghost_SM453_20240625082833", "plate_no": "SM453", "gap_start_time": "2024-06-25T08:28:33", "gap_end_time": "2024-06-25T10:50:25", "gap_duration_min": 141.87, "wasted_distance_km": 3.336, "prev_trip": "DA240625005911", "next_trip": "DA240625031502", "prev_O": [114.228604, 22.2810547], "next_O": [114.207831, 22.32266]}, "geometry": {"type": "LineString", "coordinates": [[114.233916, 22.30596], [114.207308, 22.323105]]}}, {"type": "Feature", "properties": {"id": "ghost_TD4705_20240625092508", "plate_no": "TD4705", "gap_start_time": "2024-06-25T09:25:08", "gap_end_time": "2024-06-25T14:15:34", "gap_duration_min": 290.43, "wasted_distance_km": 11.449, "prev_trip": "DA240625005611", "next_trip": "DA240625028601", "prev_O": [114.1489636, 22.3309502], "next_O": [114.126046, 22.3469248]}, "geometry": {"type": "LineString", "coordinates": [[114.230176, 22.309863], [114.126735, 22.34788]]}}, {"type": "Feature", "properties": {"id": "ghost_TD7860_20240625081849", "plate_no": "TD7860", "gap_start_time": "2024-06-25T08:18:49", "gap_end_time": "2024-06-25T15:45:09", "gap_duration_min": 446.33, "wasted_distance_km": 6.551, "prev_trip": "DA240625011301", "next_trip": "DA240625008902", "prev_O": [114.1819743, 22.3714238], "next_O": [114.1754722, 22.4530181]}, "geometry": {"type": "LineString", "coordinates": [[114.195313, 22.396445], [114.175413, 22.452415]]}}, {"type": "Feature", "properties": {"id": "ghost_TD7860_20240625162709", "plate_no": "TD7860", "gap_start_time": "2024-06-25T16:27:09", "gap_end_time": "2024-06-25T17:30:07", "gap_duration_min": 62.97, "wasted_distance_km": 10.504, "prev_trip": "DA240625008902", "next_trip": "DA240625040502", "prev_O": [114.1754722, 22.4530181], "next_O": [114.1246908, 22.4968697]}, "geometry": {"type": "LineString", "coordinates": [[114.196716, 22.429036], [114.125276, 22.496598]]}}, {"type": "Feature", "properties": {"id": "ghost_TE7832_20240625123304", "plate_no": "TE7832", "gap_start_time": "2024-06-25T12:33:04", "gap_end_time": "2024-06-25T17:56:10", "gap_duration_min": 323.1, "wasted_distance_km": 9.706, "prev_trip": "DA240625038802", "next_trip": "DA240625011802", "prev_O": [114.1453133, 22.2851348], "next_O": [114.2435956, 22.2730305]}, "geometry": {"type": "LineString", "coordinates": [[114.150251, 22.25221], [114.241053, 22.275818]]}}, {"type": "Feature", "properties": {"id": "ghost_TV8531_20240625104626", "plate_no": "TV8531", "gap_start_time": "2024-06-25T10:46:26", "gap_end_time": "2024-06-25T13:00:10", "gap_duration_min": 133.73, "wasted_distance_km": 4.946, "prev_trip": "DA240625025901", "next_trip": "DA240625024511", "prev_O": [114.13917, 22.258037], "next_O": [114.1321573, 22.2669059]}, "geometry": {"type": "LineString", "coordinates": [[114.179311, 22.274473], [114.131941, 22.266951]]}}, {"type": "Feature", "properties": {"id": "ghost_TV9732_20240625115325", "plate_no": "TV9732", "gap_start_time": "2024-06-25T11:53:25", "gap_end_time": "2024-06-25T13:20:17", "gap_duration_min": 86.87, "wasted_distance_km": 5.029, "prev_trip": "DA240625019311", "next_trip": "DA240625013511", "prev_O": [114.186863, 22.2806577], "next_O": [114.2287366, 22.3118568]}, "geometry": {"type": "LineString", "coordinates": [[114.178505, 22.31757], [114.227196, 22.313535]]}}, {"type": "Feature", "properties": {"id": "ghost_TW274_20240625100039", "plate_no": "TW274", "gap_start_time": "2024-06-25T10:00:39", "gap_end_time": "2024-06-25T11:20:19", "gap_duration_min": 79.67, "wasted_distance_km": 2.68, "prev_trip": "DA240625022311", "next_trip": "DA240625044502", "prev_O": [114.1556113, 22.2406223], "next_O": [114.1763226, 22.3187944]}, "geometry": {"type": "LineString", "coordinates": [[114.158808, 22.301943], [114.176936, 22.319251]]}}, {"type": "Feature", "properties": {"id": "ghost_TW6581_20240625093706", "plate_no": "TW6581", "gap_start_time": "2024-06-25T09:37:06", "gap_end_time": "2024-06-25T13:00:23", "gap_duration_min": 203.28, "wasted_distance_km": 5.913, "prev_trip": "DA240625011901", "next_trip": "DA240625007611", "prev_O": [114.1924518, 22.3783249], "next_O": [114.2182917, 22.3260159]}, "geometry": {"type": "LineString", "coordinates": [[114.164711, 22.306373], [114.217988, 22.326335]]}}, {"type": "Feature", "properties": {"id": "ghost_TW8217_20240625090558", "plate_no": "TW8217", "gap_start_time": "2024-06-25T09:05:58", "gap_end_time": "2024-06-25T10:00:07", "gap_duration_min": 54.15, "wasted_distance_km": 10.717, "prev_trip": "DA240625030311", "next_trip": "DA240625031311", "prev_O": [114.2710157, 22.2961486], "next_O": [114.1219651, 22.3751398]}, "geometry": {"type": "LineString", "coordinates": [[114.209096, 22.321306], [114.122666, 22.37515]]}}, {"type": "Feature", "properties": {"id": "ghost_TW8217_20240625102732", "plate_no": "TW8217", "gap_start_time": "2024-06-25T10:27:32", "gap_end_time": "2024-06-25T14:40:21", "gap_duration_min": 252.82, "wasted_distance_km": 19.727, "prev_trip": "DA240625031311", "next_trip": "DA240625040501", "prev_O": [114.1219651, 22.3751398], "next_O": [114.137108, 22.5004969]}, "geometry": {"type": "LineString", "coordinates": [[114.178748, 22.32701], [114.13728, 22.50023]]}}, {"type": "Feature", "properties": {"id": "ghost_TX9739_20240625055024", "plate_no": "TX9739", "gap_start_time": "2024-06-25T05:50:24", "gap_end_time": "2024-06-25T06:45:24", "gap_duration_min": 55.0, "wasted_distance_km": 0.782, "prev_trip": "DA240625018601", "next_trip": "DA240625016511", "prev_O": [114.0979333, 22.3489429], "next_O": [114.179555, 22.276041]}, "geometry": {"type": "LineString", "coordinates": [[114.174671, 22.282258], [114.178238, 22.276053]]}}, {"type": "Feature", "properties": {"id": "ghost_TX9739_20240625070154", "plate_no": "TX9739", "gap_start_time": "2024-06-25T07:01:54", "gap_end_time": "2024-06-25T08:06:12", "gap_duration_min": 64.3, "wasted_distance_km": 4.343, "prev_trip": "DA240625016511", "next_trip": "DA240625003001", "prev_O": [114.179555, 22.276041], "next_O": [114.17302, 22.2774003]}, "geometry": {"type": "LineString", "coordinates": [[114.130801, 22.27246], [114.172735, 22.276878]]}}, {"type": "Feature", "properties": {"id": "ghost_TX9739_20240625082545", "plate_no": "TX9739", "gap_start_time": "2024-06-25T08:25:45", "gap_end_time": "2024-06-25T15:50:18", "gap_duration_min": 444.55, "wasted_distance_km": 12.881, "prev_trip": "DA240625003001", "next_trip": "DA240625011501", "prev_O": [114.17302, 22.2774003], "next_O": [114.2100776, 22.3855092]}, "geometry": {"type": "LineString", "coordinates": [[114.17346, 22.276535], [114.20994, 22.387351]]}}, {"type": "Feature", "properties": {"id": "ghost_TX9739_20240625160118", "plate_no": "TX9739", "gap_start_time": "2024-06-25T16:01:18", "gap_end_time": "2024-06-25T16:21:19", "gap_duration_min": 20.02, "wasted_distance_km": 1.236, "prev_trip": "DA240625011501", "next_trip": "DA240625035402", "prev_O": [114.2100776, 22.3855092], "next_O": [114.1952336, 22.3879318]}, "geometry": {"type": "LineString", "coordinates": [[114.204796, 22.379085], [114.198428, 22.388516]]}}, {"type": "Feature", "properties": {"id": "ghost_TY3130_20240625082432", "plate_no": "TY3130", "gap_start_time": "2024-06-25T08:24:32", "gap_end_time": "2024-06-25T09:15:13", "gap_duration_min": 50.68, "wasted_distance_km": 5.147, "prev_trip": "DA240625012601", "next_trip": "DA240625001711", "prev_O": [114.1304421, 22.3637081], "next_O": [114.1236864, 22.362922]}, "geometry": {"type": "LineString", "coordinates": [[114.160536, 22.331315], [114.123353, 22.362301]]}}, {"type": "Feature", "properties": {"id": "ghost_TY3130_20240625092943", "plate_no": "TY3130", "gap_start_time": "2024-06-25T09:29:43", "gap_end_time": "2024-06-25T14:10:42", "gap_duration_min": 280.98, "wasted_distance_km": 8.952, "prev_trip": "DA240625001711", "next_trip": "DA240625045711", "prev_O": [114.1236864, 22.362922], "next_O": [114.208881, 22.3887091]}, "geometry": {"type": "LineString", "coordinates": [[114.12202, 22.373728], [114.207271, 22.3901]]}}, {"type": "Feature", "properties": {"id": "ghost_TY3130_20240625144643", "plate_no": "TY3130", "gap_start_time": "2024-06-25T14:46:43", "gap_end_time": "2024-06-25T16:30:15", "gap_duration_min": 103.53, "wasted_distance_km": 25.233, "prev_trip": "DA240625045711", "next_trip": "DA240625022902", "prev_O": [114.208881, 22.3887091], "next_O": [114.2107277, 22.413691]}, "geometry": {"type": "LineString", "coordinates": [[113.967796, 22.387043], [114.21162, 22.413071]]}}, {"type": "Feature", "properties": {"id": "ghost_TY3130_20240625164945", "plate_no": "TY3130", "gap_start_time": "2024-06-25T16:49:45", "gap_end_time": "2024-06-25T17:18:40", "gap_duration_min": 28.92, "wasted_distance_km": 4.481, "prev_trip": "DA240625022902", "next_trip": "DA240625044402", "prev_O": [114.2107277, 22.413691], "next_O": [114.2113817, 22.4136093]}, "geometry": {"type": "LineString", "coordinates": [[114.182865, 22.382111], [114.211628, 22.412395]]}}, {"type": "Feature", "properties": {"id": "ghost_TY3130_20240625174812", "plate_no": "TY3130", "gap_start_time": "2024-06-25T17:48:12", "gap_end_time": "2024-06-25T19:00:08", "gap_duration_min": 71.93, "wasted_distance_km": 8.604, "prev_trip": "DA240625044402", "next_trip": "DA240625019002", "prev_O": [114.2113817, 22.4136093], "next_O": [114.201222, 22.378404]}, "geometry": {"type": "LineString", "coordinates": [[114.228381, 22.306185], [114.201716, 22.379525]]}}, {"type": "Feature", "properties": {"id": "ghost_TY3250_20240625102222", "plate_no": "TY3250", "gap_start_time": "2024-06-25T10:22:22", "gap_end_time": "2024-06-25T13:15:19", "gap_duration_min": 172.95, "wasted_distance_km": 3.555, "prev_trip": "DA240625011401", "next_trip": "DA240625048701", "prev_O": [114.1929813, 22.3429615], "next_O": [114.2074247, 22.3290408]}, "geometry": {"type": "LineString", "coordinates": [[114.176406, 22.311478], [114.206361, 22.32743]]}}, {"type": "Feature", "properties": {"id": "ghost_TY3864_20240625082625", "plate_no": "TY3864", "gap_start_time": "2024-06-25T08:26:25", "gap_end_time": "2024-06-25T09:47:22", "gap_duration_min": 80.95, "wasted_distance_km": 2.632, "prev_trip": "DA240625006911", "next_trip": "DA240625030201", "prev_O": [114.2567421, 22.3113053], "next_O": [114.2289201, 22.3218223]}, "geometry": {"type": "LineString", "coordinates": [[114.251521, 22.326235], [114.226476, 22.321378]]}}, {"type": "Feature", "properties": {"id": "ghost_UL3556_20240625085216", "plate_no": "UL3556", "gap_start_time": "2024-06-25T08:52:16", "gap_end_time": "2024-06-25T12:00:42", "gap_duration_min": 188.43, "wasted_distance_km": 1.21, "prev_trip": "DA240625002501", "next_trip": "DA240625016301", "prev_O": [114.268715, 22.2962922], "next_O": [114.2025948, 22.3300654]}, "geometry": {"type": "LineString", "coordinates": [[114.213223, 22.335681], [114.203921, 22.329018]]}}, {"type": "Feature", "properties": {"id": "ghost_UL7617_20240625100947", "plate_no": "UL7617", "gap_start_time": "2024-06-25T10:09:47", "gap_end_time": "2024-06-25T14:45:15", "gap_duration_min": 275.47, "wasted_distance_km": 11.385, "prev_trip": "DA240625001901", "next_trip": "DA240625032202", "prev_O": [114.0735167, 22.4266562], "next_O": [113.9319458, 22.2772163]}, "geometry": {"type": "LineString", "coordinates": [[113.961188, 22.375325], [113.931873, 22.276595]]}}, {"type": "Feature", "properties": {"id": "ghost_UL7804_20240625110007", "plate_no": "UL7804", "gap_start_time": "2024-06-25T11:00:07", "gap_end_time": "2024-06-25T13:30:03", "gap_duration_min": 149.93, "wasted_distance_km": 6.934, "prev_trip": "DA240625013811", "next_trip": "DA240625009511", "prev_O": [114.149351, 22.280507], "next_O": [114.2303424, 22.3079333]}, "geometry": {"type": "LineString", "coordinates": [[114.171605, 22.277991], [114.230655, 22.308056]]}}, {"type": "Feature", "properties": {"id": "ghost_UL7804_20240625134836", "plate_no": "UL7804", "gap_start_time": "2024-06-25T13:48:36", "gap_end_time": "2024-06-25T16:01:06", "gap_duration_min": 132.5, "wasted_distance_km": 16.227, "prev_trip": "DA240625009511", "next_trip": "DA240625010102", "prev_O": [114.2303424, 22.3079333], "next_O": [114.1219651, 22.3714765]}, "geometry": {"type": "LineString", "coordinates": [[114.269433, 22.317986], [114.122661, 22.37154]]}}, {"type": "Feature", "properties": {"id": "ghost_UM4207_20240625100631", "plate_no": "UM4207", "gap_start_time": "2024-06-25T10:06:31", "gap_end_time": "2024-06-25T12:45:15", "gap_duration_min": 158.73, "wasted_distance_km": 2.708, "prev_trip": "DA240625026801", "next_trip": "DA240625046811", "prev_O": [114.2382603, 22.3032465], "next_O": [114.192173, 22.304086]}, "geometry": {"type": "LineString", "coordinates": [[114.21407, 22.31588], [114.191006, 22.30415]]}}, {"type": "Feature", "properties": {"id": "ghost_UM5134_20240625102140", "plate_no": "UM5134", "gap_start_time": "2024-06-25T10:21:40", "gap_end_time": "2024-06-25T14:00:23", "gap_duration_min": 218.72, "wasted_distance_km": 10.201, "prev_trip": "DA240625050011", "next_trip": "DA240625013602", "prev_O": [114.2276028, 22.3043425], "next_O": [114.2697606, 22.3182761]}, "geometry": {"type": "LineString", "coordinates": [[114.170831, 22.312338], [114.269791, 22.318285]]}}, {"type": "Feature", "properties": {"id": "ghost_UN8698_20240625115205", "plate_no": "UN8698", "gap_start_time": "2024-06-25T11:52:05", "gap_end_time": "2024-06-25T12:30:04", "gap_duration_min": 37.98, "wasted_distance_km": 3.079, "prev_trip": "DA240625018902", "next_trip": "DA240625026901", "prev_O": [114.2014147, 22.3788502], "next_O": [114.2183846, 22.3955654]}, "geometry": {"type": "LineString", "coordinates": [[114.226356, 22.422283], [114.218791, 22.395493]]}}, {"type": "Feature", "properties": {"id": "ghost_UN8698_20240625125731", "plate_no": "UN8698", "gap_start_time": "2024-06-25T12:57:31", "gap_end_time": "2024-06-25T16:02:10", "gap_duration_min": 184.65, "wasted_distance_km": 0.001, "prev_trip": "DA240625026901", "next_trip": "DA240625026902", "prev_O": [114.2183846, 22.3955654], "next_O": [114.1743747, 22.3091816]}, "geometry": {"type": "LineString", "coordinates": [[114.175663, 22.313166], [114.175671, 22.313176]]}}, {"type": "Feature", "properties": {"id": "ghost_UN9790_20240625085954", "plate_no": "UN9790", "gap_start_time": "2024-06-25T08:59:54", "gap_end_time": "2024-06-25T11:02:03", "gap_duration_min": 122.15, "wasted_distance_km": 4.232, "prev_trip": "DA240625010901", "next_trip": "DA240625011101", "prev_O": [114.137108, 22.5004969], "next_O": [114.1910075, 22.3429899]}, "geometry": {"type": "LineString", "coordinates": [[114.173933, 22.377338], [114.191345, 22.342851]]}}, {"type": "Feature", "properties": {"id": "ghost_UN9790_20240625111708", "plate_no": "UN9790", "gap_start_time": "2024-06-25T11:17:08", "gap_end_time": "2024-06-25T13:30:15", "gap_duration_min": 133.12, "wasted_distance_km": 2.899, "prev_trip": "DA240625011101", "next_trip": "DA240625045601", "prev_O": [114.1910075, 22.3429899], "next_O": [114.2032682, 22.3293706]}, "geometry": {"type": "LineString", "coordinates": [[114.224966, 22.313038], [114.203045, 22.329431]]}}, {"type": "Feature", "properties": {"id": "ghost_UP3870_20240625114600", "plate_no": "UP3870", "gap_start_time": "2024-06-25T11:46:00", "gap_end_time": "2024-06-25T17:15:37", "gap_duration_min": 329.62, "wasted_distance_km": 10.727, "prev_trip": "DA240625046402", "next_trip": "DA240625011502", "prev_O": [114.1777194, 22.2755944], "next_O": [114.201222, 22.378404]}, "geometry": {"type": "LineString", "coordinates": [[114.222123, 22.283921], [114.201483, 22.378483]]}}, {"type": "Feature", "properties": {"id": "ghost_VA7459_20240625124430", "plate_no": "VA7459", "gap_start_time": "2024-06-25T12:44:30", "gap_end_time": "2024-06-25T15:00:13", "gap_duration_min": 135.72, "wasted_distance_km": 2.149, "prev_trip": "DA240625030002", "next_trip": "DA240625011201", "prev_O": [114.177655, 22.3010004], "next_O": [114.1331919, 22.2850741]}, "geometry": {"type": "LineString", "coordinates": [[114.13232, 22.266566], [114.13332, 22.285866]]}}, {"type": "Feature", "properties": {"id": "ghost_VA7459_20240625151813", "plate_no": "VA7459", "gap_start_time": "2024-06-25T15:18:13", "gap_end_time": "2024-06-25T15:50:12", "gap_duration_min": 31.98, "wasted_distance_km": 1.31, "prev_trip": "DA240625011201", "next_trip": "DA240625004111", "prev_O": [114.1331919, 22.2850741], "next_O": [114.1245247, 22.2709886]}, "geometry": {"type": "LineString", "coordinates": [[114.126376, 22.282116], [114.124408, 22.270478]]}}, {"type": "Feature", "properties": {"id": "ghost_VD1562_20240625100856", "plate_no": "VD1562", "gap_start_time": "2024-06-25T10:08:56", "gap_end_time": "2024-06-25T13:30:22", "gap_duration_min": 201.43, "wasted_distance_km": 4.787, "prev_trip": "DA240625046501", "next_trip": "DA240625049801", "prev_O": [114.1554078, 22.3285302], "next_O": [114.2012006, 22.3449238]}, "geometry": {"type": "LineString", "coordinates": [[114.169393, 22.31276], [114.19977, 22.345371]]}}, {"type": "Feature", "properties": {"id": "ghost_VD4748_20240625110955", "plate_no": "VD4748", "gap_start_time": "2024-06-25T11:09:55", "gap_end_time": "2024-06-25T14:01:09", "gap_duration_min": 171.23, "wasted_distance_km": 2.926, "prev_trip": "DA240625050311", "next_trip": "DA240625044102", "prev_O": [114.1571815, 22.247205], "next_O": [114.1533197, 22.2847502]}, "geometry": {"type": "LineString", "coordinates": [[114.132418, 22.266843], [114.152158, 22.28579]]}}, {"type": "Feature", "properties": {"id": "ghost_VD6128_20240625090021", "plate_no": "VD6128", "gap_start_time": "2024-06-25T09:00:21", "gap_end_time": "2024-06-25T13:15:13", "gap_duration_min": 254.87, "wasted_distance_km": 9.079, "prev_trip": "DA240625007801", "next_trip": "DA240625042601", "prev_O": [114.23134, 22.42554], "next_O": [114.1572491, 22.4488973]}, "geometry": {"type": "LineString", "coordinates": [[114.201038, 22.377713], [114.157653, 22.448828]]}}, {"type": "Feature", "properties": {"id": "ghost_VE7344_20240625125104", "plate_no": "VE7344", "gap_start_time": "2024-06-25T12:51:04", "gap_end_time": "2024-06-25T14:45:04", "gap_duration_min": 114.0, "wasted_distance_km": 0.769, "prev_trip": "DA240625035111", "next_trip": "DA240625000102", "prev_O": [114.1034949, 22.3485601], "next_O": [114.1283333, 22.3458333]}, "geometry": {"type": "LineString", "coordinates": [[114.13401, 22.341448], [114.12866, 22.346276]]}}, {"type": "Feature", "properties": {"id": "ghost_VE7344_20240625150004", "plate_no": "VE7344", "gap_start_time": "2024-06-25T15:00:04", "gap_end_time": "2024-06-25T16:18:04", "gap_duration_min": 78.0, "wasted_distance_km": 1.079, "prev_trip": "DA240625000102", "next_trip": "DA240625000202", "prev_O": [114.1283333, 22.3458333], "next_O": [114.1283333, 22.3458333]}, "geometry": {"type": "LineString", "coordinates": [[114.131288, 22.35429], [114.12684, 22.345505]]}}, {"type": "Feature", "properties": {"id": "ghost_VE8500_20240625140502", "plate_no": "VE8500", "gap_start_time": "2024-06-25T14:05:02", "gap_end_time": "2024-06-25T16:30:01", "gap_duration_min": 144.98, "wasted_distance_km": 8.674, "prev_trip": "DA240625023401", "next_trip": "DA240625015202", "prev_O": [114.1563306, 22.2491578], "next_O": [114.1762978, 22.3189021]}, "geometry": {"type": "LineString", "coordinates": [[114.157583, 22.24353], [114.177093, 22.31942]]}}, {"type": "Feature", "properties": {"id": "ghost_VF8574_20240625123135", "plate_no": "VF8574", "gap_start_time": "2024-06-25T12:31:35", "gap_end_time": "2024-06-25T13:30:21", "gap_duration_min": 58.77, "wasted_distance_km": 8.46, "prev_trip": "DA240625029711", "next_trip": "DA240625046702", "prev_O": [114.1613761, 22.3200828], "next_O": [114.1254938, 22.3694653]}, "geometry": {"type": "LineString", "coordinates": [[114.16941, 22.305625], [114.124888, 22.369601]]}}, {"type": "Feature", "properties": {"id": "ghost_VV6972_20240625122350", "plate_no": "VV6972", "gap_start_time": "2024-06-25T12:23:50", "gap_end_time": "2024-06-25T15:39:44", "gap_duration_min": 195.9, "wasted_distance_km": 8.388, "prev_trip": "DA240625043511", "next_trip": "DA240625037302", "prev_O": [114.1967048, 22.3901327], "next_O": [114.1619514, 22.3330976]}, "geometry": {"type": "LineString", "coordinates": [[114.223578, 22.282068], [114.16295, 22.332508]]}}, {"type": "Feature", "properties": {"id": "ghost_VV6972_20240625155914", "plate_no": "VV6972", "gap_start_time": "2024-06-25T15:59:14", "gap_end_time": "2024-06-25T16:31:14", "gap_duration_min": 32.0, "wasted_distance_km": 9.654, "prev_trip": "DA240625037302", "next_trip": "DA240625043202", "prev_O": [114.1619514, 22.3330976], "next_O": [114.2302764, 22.3081963]}, "geometry": {"type": "LineString", "coordinates": [[114.17449, 22.377508], [114.230741, 22.308008]]}}, {"type": "Feature", "properties": {"id": "ghost_VW871_20240625112911", "plate_no": "VW871", "gap_start_time": "2024-06-25T11:29:11", "gap_end_time": "2024-06-25T14:25:43", "gap_duration_min": 176.53, "wasted_distance_km": 6.691, "prev_trip": "DA240625034101", "next_trip": "DA240625005502", "prev_O": [114.0343755, 22.4454013], "next_O": [114.173077, 22.4611085]}, "geometry": {"type": "LineString", "coordinates": [[114.213298, 22.414101], [114.173003, 22.461365]]}}, {"type": "Feature", "properties": {"id": "ghost_VX2887_20240625131649", "plate_no": "VX2887", "gap_start_time": "2024-06-25T13:16:49", "gap_end_time": "2024-06-25T15:15:23", "gap_duration_min": 118.57, "wasted_distance_km": 4.628, "prev_trip": "DA240625039202", "next_trip": "DA240625007311", "prev_O": [114.207831, 22.32266], "next_O": [114.222657, 22.3205314]}, "geometry": {"type": "LineString", "coordinates": [[114.183541, 22.340225], [114.22266, 22.319898], [114.222776, 22.319858]]}}, {"type": "Feature", "properties": {"id": "ghost_WN8723_20240625124541", "plate_no": "WN8723", "gap_start_time": "2024-06-25T12:45:41", "gap_end_time": "2024-06-25T14:00:19", "gap_duration_min": 74.63, "wasted_distance_km": 9.874, "prev_trip": "DA240625030102", "next_trip": "DA240625010601", "prev_O": [114.177655, 22.3010004], "next_O": [114.2271621, 22.2808967]}, "geometry": {"type": "LineString", "coordinates": [[114.13223, 22.266571], [114.22692, 22.28097]]}}, {"type": "Feature", "properties": {"id": "ghost_WN9330_20240625110609", "plate_no": "WN9330", "gap_start_time": "2024-06-25T11:06:09", "gap_end_time": "2024-06-25T13:20:26", "gap_duration_min": 134.28, "wasted_distance_km": 7.967, "prev_trip": "DA240625026311", "next_trip": "DA240625043201", "prev_O": [113.9676328, 22.3869056], "next_O": [114.2666792, 22.3063335]}, "geometry": {"type": "LineString", "coordinates": [[114.19105, 22.322383], [114.26657, 22.306508]]}}, {"type": "Feature", "properties": {"id": "ghost_WN9330_20240625134027", "plate_no": "WN9330", "gap_start_time": "2024-06-25T13:40:27", "gap_end_time": "2024-06-25T15:00:10", "gap_duration_min": 79.72, "wasted_distance_km": 8.666, "prev_trip": "DA240625043201", "next_trip": "DA240625007802", "prev_O": [114.2666792, 22.3063335], "next_O": [114.1987643, 22.3804685]}, "geometry": {"type": "LineString", "coordinates": [[114.23058, 22.308098], [114.198926, 22.380325]]}}, {"type": "Feature", "properties": {"id": "ghost_WN9330_20240625153209", "plate_no": "WN9330", "gap_start_time": "2024-06-25T15:32:09", "gap_end_time": "2024-06-25T18:30:14", "gap_duration_min": 178.08, "wasted_distance_km": 25.931, "prev_trip": "DA240625007802", "next_trip": "DA240625008201", "prev_O": [114.1987643, 22.3804685], "next_O": [113.9770187, 22.3878801]}, "geometry": {"type": "LineString", "coordinates": [[114.22666, 22.422175], [113.977165, 22.387855]]}}, {"type": "Feature", "properties": {"id": "ghost_WN9331_20240625091506", "plate_no": "WN9331", "gap_start_time": "2024-06-25T09:15:06", "gap_end_time": "2024-06-25T12:30:01", "gap_duration_min": 194.92, "wasted_distance_km": 11.609, "prev_trip": "DA240625007701", "next_trip": "DA240625009401", "prev_O": [114.1786768, 22.3729477], "next_O": [114.2301801, 22.2800295]}, "geometry": {"type": "LineString", "coordinates": [[114.198906, 22.380203], [114.23033, 22.279931]]}}, {"type": "Feature", "properties": {"id": "ghost_WN9331_20240625124601", "plate_no": "WN9331", "gap_start_time": "2024-06-25T12:46:01", "gap_end_time": "2024-06-25T14:30:56", "gap_duration_min": 104.92, "wasted_distance_km": 5.8, "prev_trip": "DA240625009401", "next_trip": "DA240625050511", "prev_O": [114.2301801, 22.2800295], "next_O": [114.1857709, 22.2793445]}, "geometry": {"type": "LineString", "coordinates": [[114.131156, 22.286218], [114.186951, 22.278756]]}}, {"type": "Feature", "properties": {"id": "ghost_WN9331_20240625150156", "plate_no": "WN9331", "gap_start_time": "2024-06-25T15:01:56", "gap_end_time": "2024-06-25T15:40:21", "gap_duration_min": 38.42, "wasted_distance_km": 5.779, "prev_trip": "DA240625050511", "next_trip": "DA240625002602", "prev_O": [114.1857709, 22.2793445], "next_O": [114.212997, 22.3358478]}, "geometry": {"type": "LineString", "coordinates": [[114.157061, 22.334385], [114.213226, 22.335756]]}}, {"type": "Feature", "properties": {"id": "ghost_WP1681_20240625134645", "plate_no": "WP1681", "gap_start_time": "2024-06-25T13:46:45", "gap_end_time": "2024-06-25T17:45:29", "gap_duration_min": 238.73, "wasted_distance_km": 18.859, "prev_trip": "DA240625041711", "next_trip": "DA240625027002", "prev_O": [114.2012398, 22.3875756], "next_O": [114.1664384, 22.4419917]}, "geometry": {"type": "LineString", "coordinates": [[114.044015, 22.316076], [114.166665, 22.442186]]}}, {"type": "Feature", "properties": {"id": "ghost_WP4172_20240625155539", "plate_no": "WP4172", "gap_start_time": "2024-06-25T15:55:39", "gap_end_time": "2024-06-25T19:00:18", "gap_duration_min": 184.65, "wasted_distance_km": 12.191, "prev_trip": "DA240625012402", "next_trip": "DA240625008311", "prev_O": [114.2286722, 22.3119194], "next_O": [114.2503345, 22.4318707]}, "geometry": {"type": "LineString", "coordinates": [[114.19589, 22.335271], [114.250466, 22.4326]]}}, {"type": "Feature", "properties": {"id": "ghost_WP510_20240625114113", "plate_no": "WP510", "gap_start_time": "2024-06-25T11:41:13", "gap_end_time": "2024-06-25T14:15:12", "gap_duration_min": 153.98, "wasted_distance_km": 14.368, "prev_trip": "DA240625018602", "next_trip": "DA240625020701", "prev_O": [114.1762882, 22.2781796], "next_O": [114.2340809, 22.3214275]}, "geometry": {"type": "LineString", "coordinates": [[114.097553, 22.349551], [114.23395, 22.321643]]}}, {"type": "Feature", "properties": {"id": "ghost_WP5437_20240625102159", "plate_no": "WP5437", "gap_start_time": "2024-06-25T10:21:59", "gap_end_time": "2024-06-25T11:15:04", "gap_duration_min": 53.08, "wasted_distance_km": 3.646, "prev_trip": "DA240625023302", "next_trip": "DA240625047802", "prev_O": [114.1257917, 22.2819969], "next_O": [114.182962, 22.269562]}, "geometry": {"type": "LineString", "coordinates": [[114.154611, 22.249086], [114.183488, 22.268076]]}}, {"type": "Feature", "properties": {"id": "ghost_WP5437_20240625115233", "plate_no": "WP5437", "gap_start_time": "2024-06-25T11:52:33", "gap_end_time": "2024-06-25T14:15:14", "gap_duration_min": 142.68, "wasted_distance_km": 8.808, "prev_trip": "DA240625047802", "next_trip": "DA240625051601", "prev_O": [114.182962, 22.269562], "next_O": [114.2329421, 22.3065914]}, "geometry": {"type": "LineString", "coordinates": [[114.154765, 22.338806], [114.232921, 22.306431]]}}, {"type": "Feature", "properties": {"id": "ghost_WP923_20240625092452", "plate_no": "WP923", "gap_start_time": "2024-06-25T09:24:52", "gap_end_time": "2024-06-25T16:15:19", "gap_duration_min": 410.45, "wasted_distance_km": 7.809, "prev_trip": "DA240625015201", "next_trip": "DA240625027611", "prev_O": [114.2336297, 22.4236669], "next_O": [114.1921015, 22.3864625]}, "geometry": {"type": "LineString", "coordinates": [[114.178236, 22.317573], [114.192488, 22.386556]]}}, {"type": "Feature", "properties": {"id": "ghost_XE612_20240625121247", "plate_no": "XE612", "gap_start_time": "2024-06-25T12:12:47", "gap_end_time": "2024-06-25T13:00:15", "gap_duration_min": 47.47, "wasted_distance_km": 0.719, "prev_trip": "DA240625028301", "next_trip": "DA240625044802", "prev_O": [114.2020375, 22.2908346], "next_O": [114.1776175, 22.2752011]}, "geometry": {"type": "LineString", "coordinates": [[114.181463, 22.277738], [114.175336, 22.274631]]}}, {"type": "Feature", "properties": {"id": "ghost_XE7168_20240625094618", "plate_no": "XE7168", "gap_start_time": "2024-06-25T09:46:18", "gap_end_time": "2024-06-25T12:20:25", "gap_duration_min": 154.12, "wasted_distance_km": 7.191, "prev_trip": "DA240625041211", "next_trip": "DA240625019211", "prev_O": [114.155222, 22.3376287], "next_O": [114.1266055, 22.3621904]}, "geometry": {"type": "LineString", "coordinates": [[114.181321, 22.32329], [114.124106, 22.36046]]}}, {"type": "Feature", "properties": {"id": "ghost_XE7898_20240625105357", "plate_no": "XE7898", "gap_start_time": "2024-06-25T10:53:57", "gap_end_time": "2024-06-25T14:45:01", "gap_duration_min": 231.07, "wasted_distance_km": 5.968, "prev_trip": "DA240625024001", "next_trip": "DA240625003711", "prev_O": [114.1226154, 22.3646581], "next_O": [114.1200839, 22.3703121]}, "geometry": {"type": "LineString", "coordinates": [[114.163266, 22.333711], [114.122373, 22.371788]]}}, {"type": "Feature", "properties": {"id": "ghost_XF1493_20240625080805", "plate_no": "XF1493", "gap_start_time": "2024-06-25T08:08:05", "gap_end_time": "2024-06-25T11:00:07", "gap_duration_min": 172.03, "wasted_distance_km": 1.724, "prev_trip": "DA240625028101", "next_trip": "DA240625041011", "prev_O": [114.113115, 22.369607], "next_O": [114.101248, 22.3618302]}, "geometry": {"type": "LineString", "coordinates": [[114.116825, 22.367413], [114.10136, 22.361423]]}}, {"type": "Feature", "properties": {"id": "ghost_XM6122_20240625105647", "plate_no": "XM6122", "gap_start_time": "2024-06-25T10:56:47", "gap_end_time": "2024-06-25T13:30:57", "gap_duration_min": 154.17, "wasted_distance_km": 6.742, "prev_trip": "DA240625008601", "next_trip": "DA240625045311", "prev_O": [114.1673509, 22.3388312], "next_O": [114.1021652, 22.3726806]}, "geometry": {"type": "LineString", "coordinates": [[114.157606, 22.334218], [114.106305, 22.37197]]}}, {"type": "Feature", "properties": {"id": "ghost_XM9877_20240625144955", "plate_no": "XM9877", "gap_start_time": "2024-06-25T14:49:55", "gap_end_time": "2024-06-25T15:50:07", "gap_duration_min": 60.2, "wasted_distance_km": 9.824, "prev_trip": "DA240625037811", "next_trip": "DA240625004311", "prev_O": [114.1736631, 22.3009048], "next_O": [114.1245247, 22.2709886]}, "geometry": {"type": "LineString", "coordinates": [[114.218206, 22.28734], [114.12446, 22.270596]]}}, {"type": "Feature", "properties": {"id": "ghost_XN6179_20240625123817", "plate_no": "XN6179", "gap_start_time": "2024-06-25T12:38:17", "gap_end_time": "2024-06-25T13:30:18", "gap_duration_min": 52.02, "wasted_distance_km": 2.072, "prev_trip": "DA240625030411", "next_trip": "DA240625032501", "prev_O": [114.2077498, 22.3227562], "next_O": [114.2640324, 22.3147268]}, "geometry": {"type": "LineString", "coordinates": [[114.27299, 22.296471], [114.265728, 22.313851]]}}, {"type": "Feature", "properties": {"id": "ghost_XN6179_20240625134551", "plate_no": "XN6179", "gap_start_time": "2024-06-25T13:45:51", "gap_end_time": "2024-06-25T16:30:07", "gap_duration_min": 164.27, "wasted_distance_km": 0.394, "prev_trip": "DA240625032501", "next_trip": "DA240625029511", "prev_O": [114.2640324, 22.3147268], "next_O": [114.2303424, 22.3079333]}, "geometry": {"type": "LineString", "coordinates": [[114.229736, 22.305211], [114.233543, 22.30559]]}}, {"type": "Feature", "properties": {"id": "ghost_XN7430_20240625124741", "plate_no": "XN7430", "gap_start_time": "2024-06-25T12:47:41", "gap_end_time": "2024-06-25T16:15:15", "gap_duration_min": 207.57, "wasted_distance_km": 2.857, "prev_trip": "DA240625017201", "next_trip": "DA240625021602", "prev_O": [114.177914, 22.313063], "next_O": [114.209468, 22.3152999]}, "geometry": {"type": "LineString", "coordinates": [[114.183113, 22.324951], [114.20909, 22.315845]]}}, {"type": "Feature", "properties": {"id": "ghost_XN7430_20240625164617", "plate_no": "XN7430", "gap_start_time": "2024-06-25T16:46:17", "gap_end_time": "2024-06-25T17:15:16", "gap_duration_min": 28.98, "wasted_distance_km": 8.151, "prev_trip": "DA240625021602", "next_trip": "DA240625042602", "prev_O": [114.209468, 22.3152999], "next_O": [114.1692225, 22.3181267]}, "geometry": {"type": "LineString", "coordinates": [[114.245315, 22.339906], [114.169555, 22.318416]]}}, {"type": "Feature", "properties": {"id": "ghost_XU9430_20240625092353", "plate_no": "XU9430", "gap_start_time": "2024-06-25T09:23:53", "gap_end_time": "2024-06-25T09:51:26", "gap_duration_min": 27.55, "wasted_distance_km": 1.419, "prev_trip": "DA240625021701", "next_trip": "DA240625031701", "prev_O": [114.1975979, 22.2907883], "next_O": [114.1744015, 22.276511]}, "geometry": {"type": "LineString", "coordinates": [[114.188083, 22.278643], [114.17443, 22.276875]]}}, {"type": "Feature", "properties": {"id": "ghost_XU9430_20240625095456", "plate_no": "XU9430", "gap_start_time": "2024-06-25T09:54:56", "gap_end_time": "2024-06-25T11:08:26", "gap_duration_min": 73.5, "wasted_distance_km": 6.803, "prev_trip": "DA240625031701", "next_trip": "DA240625008011", "prev_O": [114.1744015, 22.276511], "next_O": [114.2286722, 22.3119194]}, "geometry": {"type": "LineString", "coordinates": [[114.174121, 22.276685], [114.228818, 22.311065]]}}, {"type": "Feature", "properties": {"id": "ghost_XU9430_20240625111726", "plate_no": "XU9430", "gap_start_time": "2024-06-25T11:17:26", "gap_end_time": "2024-06-25T15:15:10", "gap_duration_min": 237.73, "wasted_distance_km": 3.983, "prev_trip": "DA240625008011", "next_trip": "DA240625047211", "prev_O": [114.2286722, 22.3119194], "next_O": [114.1688209, 22.3365311]}, "geometry": {"type": "LineString", "coordinates": [[114.205888, 22.326365], [114.168563, 22.335898]]}}, {"type": "Feature", "properties": {"id": "ghost_XV2836_20240625070713", "plate_no": "XV2836", "gap_start_time": "2024-06-25T07:07:13", "gap_end_time": "2024-06-25T08:00:11", "gap_duration_min": 52.97, "wasted_distance_km": 6.307, "prev_trip": "DA240625025501", "next_trip": "DA240625002811", "prev_O": [114.2009294, 22.2910792], "next_O": [114.2365271, 22.2631632]}, "geometry": {"type": "LineString", "coordinates": [[114.177085, 22.278706], [114.23614, 22.263523]]}}, {"type": "Feature", "properties": {"id": "ghost_XV7112_20240625111526", "plate_no": "XV7112", "gap_start_time": "2024-06-25T11:15:26", "gap_end_time": "2024-06-25T13:46:33", "gap_duration_min": 151.12, "wasted_distance_km": 7.369, "prev_trip": "DA240625014211", "next_trip": "DA240625022901", "prev_O": [114.129029, 22.3585969], "next_O": [114.1827676, 22.3819893]}, "geometry": {"type": "LineString", "coordinates": [[114.110598, 22.37303], [114.182076, 22.377836]]}}, {"type": "Feature", "properties": {"id": "ghost_YK3534_20240625102259", "plate_no": "YK3534", "gap_start_time": "2024-06-25T10:22:59", "gap_end_time": "2024-06-25T14:50:29", "gap_duration_min": 267.5, "wasted_distance_km": 5.848, "prev_trip": "DA240625048801", "next_trip": "DA240625006711", "prev_O": [114.17154, 22.378342], "next_O": [114.192478, 22.338538]}, "geometry": {"type": "LineString", "coordinates": [[114.213001, 22.289038], [114.194005, 22.338606]]}}, {"type": "Feature", "properties": {"id": "ghost_YK4725_20240625103739", "plate_no": "YK4725", "gap_start_time": "2024-06-25T10:37:39", "gap_end_time": "2024-06-25T15:15:16", "gap_duration_min": 277.62, "wasted_distance_km": 7.293, "prev_trip": "DA240625008701", "next_trip": "DA240625051101", "prev_O": [114.1673509, 22.3388312], "next_O": [114.2047659, 22.3855502]}, "geometry": {"type": "LineString", "coordinates": [[114.152578, 22.341228], [114.205216, 22.38518]]}}, {"type": "Feature", "properties": {"id": "ghost_YK4725_20240625153546", "plate_no": "YK4725", "gap_start_time": "2024-06-25T15:35:46", "gap_end_time": "2024-06-25T16:15:15", "gap_duration_min": 39.48, "wasted_distance_km": 3.631, "prev_trip": "DA240625051101", "next_trip": "DA240625026202", "prev_O": [114.2047659, 22.3855502], "next_O": [114.2077947, 22.3227788]}, "geometry": {"type": "LineString", "coordinates": [[114.172486, 22.326663], [114.207513, 22.322595]]}}, {"type": "Feature", "properties": {"id": "ghost_YK5416_20240625095036", "plate_no": "YK5416", "gap_start_time": "2024-06-25T09:50:36", "gap_end_time": "2024-06-25T10:40:05", "gap_duration_min": 49.48, "wasted_distance_km": 1.015, "prev_trip": "DA240625009811", "next_trip": "DA240625004701", "prev_O": [114.216695, 22.39905], "next_O": [114.203988, 22.3498096]}, "geometry": {"type": "LineString", "coordinates": [[114.205665, 22.340631], [114.203703, 22.34958]]}}, {"type": "Feature", "properties": {"id": "ghost_YK6404_20240625133856", "plate_no": "YK6404", "gap_start_time": "2024-06-25T13:38:56", "gap_end_time": "2024-06-25T17:01:21", "gap_duration_min": 202.42, "wasted_distance_km": 5.539, "prev_trip": "DA240625012501", "next_trip": "DA240625006011", "prev_O": [114.2324771, 22.3093141], "next_O": [114.2303424, 22.3079333]}, "geometry": {"type": "LineString", "coordinates": [[114.194928, 22.344945], [114.230738, 22.307736]]}}, {"type": "Feature", "properties": {"id": "ghost_YK7541_20240625093847", "plate_no": "YK7541", "gap_start_time": "2024-06-25T09:38:47", "gap_end_time": "2024-06-25T11:45:17", "gap_duration_min": 126.5, "wasted_distance_km": 7.243, "prev_trip": "DA240625037611", "next_trip": "DA240625049002", "prev_O": [114.1420781, 22.3704125], "next_O": [114.1832816, 22.3250389]}, "geometry": {"type": "LineString", "coordinates": [[114.198801, 22.389261], [114.185676, 22.325263]]}}, {"type": "Feature", "properties": {"id": "ghost_YK7874_20240625092323", "plate_no": "YK7874", "gap_start_time": "2024-06-25T09:23:23", "gap_end_time": "2024-06-25T11:15:10", "gap_duration_min": 111.78, "wasted_distance_km": 0.144, "prev_trip": "DA240625033311", "next_trip": "DA240625033411", "prev_O": [114.1478709, 22.249793], "next_O": [114.171385, 22.3137165]}, "geometry": {"type": "LineString", "coordinates": [[114.170045, 22.312781], [114.171155, 22.313576]]}}, {"type": "Feature", "properties": {"id": "ghost_YK905_20240625083418", "plate_no": "YK905", "gap_start_time": "2024-06-25T08:34:18", "gap_end_time": "2024-06-25T13:15:11", "gap_duration_min": 280.88, "wasted_distance_km": 3.262, "prev_trip": "DA240625028401", "next_trip": "DA240625015301", "prev_O": [114.2037094, 22.3474998], "next_O": [114.1547781, 22.3335361]}, "geometry": {"type": "LineString", "coordinates": [[114.186286, 22.325416], [114.15585, 22.333665]]}}, {"type": "Feature", "properties": {"id": "ghost_YK905_20240625133437", "plate_no": "YK905", "gap_start_time": "2024-06-25T13:34:37", "gap_end_time": "2024-06-25T15:30:10", "gap_duration_min": 115.55, "wasted_distance_km": 4.072, "prev_trip": "DA240625015301", "next_trip": "DA240625021911", "prev_O": [114.1547781, 22.3335361], "next_O": [114.2076009, 22.3229496]}, "geometry": {"type": "LineString", "coordinates": [[114.172288, 22.305775], [114.207446, 22.322601]]}}, {"type": "Feature", "properties": {"id": "ghost_YK905_20240625154640", "plate_no": "YK905", "gap_start_time": "2024-06-25T15:46:40", "gap_end_time": "2024-06-25T17:11:58", "gap_duration_min": 85.3, "wasted_distance_km": 1.227, "prev_trip": "DA240625021911", "next_trip": "DA240625025302", "prev_O": [114.2076009, 22.3229496], "next_O": [114.1832816, 22.3250389]}, "geometry": {"type": "LineString", "coordinates": [[114.179928, 22.314125], [114.183078, 22.324771]]}}, {"type": "Feature", "properties": {"id": "ghost_YL1792_20240625151726", "plate_no": "YL1792", "gap_start_time": "2024-06-25T15:17:26", "gap_end_time": "2024-06-25T16:30:26", "gap_duration_min": 73.0, "wasted_distance_km": 0.226, "prev_trip": "DA240625003101", "next_trip": "DA240625003102", "prev_O": [114.1734921, 22.2726294], "next_O": [114.1734921, 22.2726294]}, "geometry": {"type": "LineString", "coordinates": [[114.174941, 22.2741], [114.173155, 22.272915]]}}, {"type": "Feature", "properties": {"id": "ghost_YL6513_20240625131421", "plate_no": "YL6513", "gap_start_time": "2024-06-25T13:14:21", "gap_end_time": "2024-06-25T13:35:17", "gap_duration_min": 20.93, "wasted_distance_km": 2.373, "prev_trip": "DA240625037101", "next_trip": "DA240625017901", "prev_O": [114.1932142, 22.2882597], "next_O": [114.13596, 22.25288]}, "geometry": {"type": "LineString", "coordinates": [[114.130656, 22.272941], [114.136828, 22.252375]]}}, {"type": "Feature", "properties": {"id": "ghost_YL6700_20240625103419", "plate_no": "YL6700", "gap_start_time": "2024-06-25T10:34:19", "gap_end_time": "2024-06-25T11:25:28", "gap_duration_min": 51.15, "wasted_distance_km": 2.286, "prev_trip": "DA240625035701", "next_trip": "DA240625011902", "prev_O": [114.2085326, 22.3866051], "next_O": [114.1676695, 22.3069775]}, "geometry": {"type": "LineString", "coordinates": [[114.172308, 22.326566], [114.167481, 22.3065]]}}, {"type": "Feature", "properties": {"id": "ghost_YL6700_20240625114528", "plate_no": "YL6700", "gap_start_time": "2024-06-25T11:45:28", "gap_end_time": "2024-06-25T14:15:26", "gap_duration_min": 149.97, "wasted_distance_km": 8.536, "prev_trip": "DA240625011902", "next_trip": "DA240625035811", "prev_O": [114.1676695, 22.3069775], "next_O": [114.2305221, 22.3074016]}, "geometry": {"type": "LineString", "coordinates": [[114.193491, 22.376326], [114.230521, 22.307625]]}}, {"type": "Feature", "properties": {"id": "ghost_YL8061_20240625164819", "plate_no": "YL8061", "gap_start_time": "2024-06-25T16:48:19", "gap_end_time": "2024-06-25T17:02:49", "gap_duration_min": 14.5, "wasted_distance_km": 0.489, "prev_trip": "DA240625051602", "next_trip": "DA240625023911", "prev_O": [114.1890728, 22.3351448], "next_O": [114.2285466, 22.3117509]}, "geometry": {"type": "LineString", "coordinates": [[114.233531, 22.308035], [114.229063, 22.309545]]}}, {"type": "Feature", "properties": {"id": "ghost_YY7490_20240625101518", "plate_no": "YY7490", "gap_start_time": "2024-06-25T10:15:18", "gap_end_time": "2024-06-25T13:30:15", "gap_duration_min": 194.95, "wasted_distance_km": 5.644, "prev_trip": "DA240625009101", "next_trip": "DA240625038911", "prev_O": [114.214742, 22.283005], "next_O": [114.1464621, 22.2863197]}, "geometry": {"type": "LineString", "coordinates": [[114.200875, 22.290906], [114.14622, 22.286526]]}}, {"type": "Feature", "properties": {"id": "ghost_YY7490_20240625134520", "plate_no": "YY7490", "gap_start_time": "2024-06-25T13:45:20", "gap_end_time": "2024-06-25T14:45:17", "gap_duration_min": 59.95, "wasted_distance_km": 6.222, "prev_trip": "DA240625038911", "next_trip": "DA240625003411", "prev_O": [114.1464621, 22.2863197], "next_O": [114.2336165, 22.2637098]}, "geometry": {"type": "LineString", "coordinates": [[114.174571, 22.278418], [114.23309, 22.264326]]}}, {"type": "Feature", "properties": {"id": "ghost_YY7490_20240625152547", "plate_no": "YY7490", "gap_start_time": "2024-06-25T15:25:47", "gap_end_time": "2024-06-25T16:00:17", "gap_duration_min": 34.5, "wasted_distance_km": 1.949, "prev_trip": "DA240625003411", "next_trip": "DA240625003511", "prev_O": [114.2336165, 22.2637098], "next_O": [114.2336165, 22.2637098]}, "geometry": {"type": "LineString", "coordinates": [[114.23991, 22.27912], [114.23563, 22.26205]]}}, {"type": "Feature", "properties": {"id": "ghost_YY7490_20240625161947", "plate_no": "YY7490", "gap_start_time": "2024-06-25T16:19:47", "gap_end_time": "2024-06-25T18:36:11", "gap_duration_min": 136.4, "wasted_distance_km": 8.639, "prev_trip": "DA240625003511", "next_trip": "DA240625005201", "prev_O": [114.2336165, 22.2637098], "next_O": [114.1553149, 22.2409917]}, "geometry": {"type": "LineString", "coordinates": [[114.234493, 22.266651], [114.155331, 22.240793]]}}, {"type": "Feature", "properties": {"id": "ghost_YY8058_20240625102500", "plate_no": "YY8058", "gap_start_time": "2024-06-25T10:25:00", "gap_end_time": "2024-06-25T13:15:07", "gap_duration_min": 170.12, "wasted_distance_km": 20.771, "prev_trip": "DA240625038411", "next_trip": "DA240625020111", "prev_O": [114.1403589, 22.3728499], "next_O": [113.9363461, 22.2813691]}, "geometry": {"type": "LineString", "coordinates": [[114.118395, 22.36351], [113.936355, 22.282663]]}}, {"type": "Feature", "properties": {"id": "ghost_ZA3406_20240625102855", "plate_no": "ZA3406", "gap_start_time": "2024-06-25T10:28:55", "gap_end_time": "2024-06-25T12:45:28", "gap_duration_min": 136.55, "wasted_distance_km": 0.392, "prev_trip": "DA240625031601", "next_trip": "DA240625031602", "prev_O": [114.2259587, 22.2821854], "next_O": [114.2303424, 22.3079333]}, "geometry": {"type": "LineString", "coordinates": [[114.230631, 22.309136], [114.228616, 22.306141]]}}, {"type": "Feature", "properties": {"id": "ghost_ZA3805_20240625102135", "plate_no": "ZA3805", "gap_start_time": "2024-06-25T10:21:35", "gap_end_time": "2024-06-25T13:30:22", "gap_duration_min": 188.78, "wasted_distance_km": 15.997, "prev_trip": "DA240625018111", "next_trip": "DA240625037301", "prev_O": [113.996626, 22.433585], "next_O": [114.1772603, 22.3777274]}, "geometry": {"type": "LineString", "coordinates": [[114.039068, 22.44365], [114.177383, 22.37772]]}}, {"type": "Feature", "properties": {"id": "ghost_ZA6941_20240625080513", "plate_no": "ZA6941", "gap_start_time": "2024-06-25T08:05:13", "gap_end_time": "2024-06-25T09:30:06", "gap_duration_min": 84.88, "wasted_distance_km": 4.827, "prev_trip": "DA240625004211", "next_trip": "DA240625042501", "prev_O": [114.192092, 22.281794], "next_O": [114.15711, 22.240699]}, "geometry": {"type": "LineString", "coordinates": [[114.12423, 22.27125], [114.157698, 22.240841]]}}, {"type": "Feature", "properties": {"id": "ghost_ZA6941_20240625095543", "plate_no": "ZA6941", "gap_start_time": "2024-06-25T09:55:43", "gap_end_time": "2024-06-25T13:35:09", "gap_duration_min": 219.43, "wasted_distance_km": 3.958, "prev_trip": "DA240625042501", "next_trip": "DA240625025401", "prev_O": [114.15711, 22.240699], "next_O": [114.1553149, 22.2409917]}, "geometry": {"type": "LineString", "coordinates": [[114.16347, 22.277258], [114.157103, 22.242151]]}}, {"type": "Feature", "properties": {"id": "ghost_ZA7388_20240625082934", "plate_no": "ZA7388", "gap_start_time": "2024-06-25T08:29:34", "gap_end_time": "2024-06-25T09:15:05", "gap_duration_min": 45.52, "wasted_distance_km": 1.667, "prev_trip": "DA240625000311", "next_trip": "DA240625015511", "prev_O": [114.1561, 22.24194], "next_O": [114.1760906, 22.3371634]}, "geometry": {"type": "LineString", "coordinates": [[114.182403, 22.322536], [114.176553, 22.336515]]}}, {"type": "Feature", "properties": {"id": "ghost_ZB1369_20240625155123", "plate_no": "ZB1369", "gap_start_time": "2024-06-25T15:51:23", "gap_end_time": "2024-06-25T17:15:05", "gap_duration_min": 83.7, "wasted_distance_km": 2.8, "prev_trip": "DA240625007102", "next_trip": "DA240625015402", "prev_O": [114.2253505, 22.2821867], "next_O": [114.2011575, 22.2900879]}, "geometry": {"type": "LineString", "coordinates": [[114.227863, 22.2794], [114.204223, 22.291871]]}}, {"type": "Feature", "properties": {"id": "ghost_ZB3274_20240625154220", "plate_no": "ZB3274", "gap_start_time": "2024-06-25T15:42:20", "gap_end_time": "2024-06-25T16:17:35", "gap_duration_min": 35.25, "wasted_distance_km": 4.199, "prev_trip": "DA240625034711", "next_trip": "DA240625031402", "prev_O": [114.1024558, 22.3632974], "next_O": [114.1716857, 22.3301776]}, "geometry": {"type": "LineString", "coordinates": [[114.133251, 22.342413], [114.171915, 22.330285], [114.171915, 22.330285]]}}, {"type": "Feature", "properties": {"id": "ghost_ZB3274_20240625163705", "plate_no": "ZB3274", "gap_start_time": "2024-06-25T16:37:05", "gap_end_time": "2024-06-25T17:31:07", "gap_duration_min": 54.03, "wasted_distance_km": 3.82, "prev_trip": "DA240625031402", "next_trip": "DA240625017102", "prev_O": [114.1716857, 22.3301776], "next_O": [114.1611131, 22.3341651]}, "geometry": {"type": "LineString", "coordinates": [[114.188918, 22.305623], [114.162971, 22.330198]]}}]}