{"type": "FeatureCollection", "features": [{"type": "Feature", "properties": {"id": "ghost_RV8266_20240623101406", "plate_no": "RV8266", "gap_start_time": "2024-06-23T10:14:06", "gap_end_time": "2024-06-23T11:15:08", "gap_duration_min": 61.03, "wasted_distance_km": 1.008, "prev_trip": "DA240623010601", "next_trip": "DA240623000802", "prev_O": [114.2581878, 22.3233143], "next_O": [114.2174678, 22.3987589]}, "geometry": {"type": "LineString", "coordinates": [[114.222108, 22.40647], [114.21748, 22.398475]]}}, {"type": "Feature", "properties": {"id": "ghost_SL9336_20240623102530", "plate_no": "SL9336", "gap_start_time": "2024-06-23T10:25:30", "gap_end_time": "2024-06-23T12:00:00", "gap_duration_min": 94.5, "wasted_distance_km": 20.385, "prev_trip": "DA240623015811", "next_trip": "DA240623025001", "prev_O": [114.1459326, 22.3329011], "next_O": [114.1267948, 22.3653835]}, "geometry": {"type": "LineString", "coordinates": [[113.936568, 22.31449], [114.126888, 22.365691]]}}, {"type": "Feature", "properties": {"id": "ghost_SL9336_20240623120830", "plate_no": "SL9336", "gap_start_time": "2024-06-23T12:08:30", "gap_end_time": "2024-06-23T15:30:10", "gap_duration_min": 201.67, "wasted_distance_km": 12.603, "prev_trip": "DA240623025001", "next_trip": "DA240623021811", "prev_O": [114.1267948, 22.3653835], "next_O": [114.0169585, 22.3071941]}, "geometry": {"type": "LineString", "coordinates": [[114.12621, 22.357956], [114.016565, 22.30735]]}}, {"type": "Feature", "properties": {"id": "ghost_SL9703_20240623091918", "plate_no": "SL9703", "gap_start_time": "2024-06-23T09:19:18", "gap_end_time": "2024-06-23T11:15:22", "gap_duration_min": 116.07, "wasted_distance_km": 0.056, "prev_trip": "DA240623000401", "next_trip": "DA240623000402", "prev_O": [114.2168687, 22.3982025], "next_O": [114.2174678, 22.3987589]}, "geometry": {"type": "LineString", "coordinates": [[114.21698, 22.398345], [114.217528, 22.398376]]}}, {"type": "Feature", "properties": {"id": "ghost_TB9578_20240623131537", "plate_no": "TB9578", "gap_start_time": "2024-06-23T13:15:37", "gap_end_time": "2024-06-23T15:00:23", "gap_duration_min": 104.77, "wasted_distance_km": 2.364, "prev_trip": "DA240623001002", "next_trip": "DA240623017802", "prev_O": [114.1554024, 22.2796308], "next_O": [114.1699917, 22.2769645]}, "geometry": {"type": "LineString", "coordinates": [[114.148505, 22.286575], [114.169388, 22.277701]]}}, {"type": "Feature", "properties": {"id": "ghost_TB9578_20240623151153", "plate_no": "TB9578", "gap_start_time": "2024-06-23T15:11:53", "gap_end_time": "2024-06-23T16:15:09", "gap_duration_min": 63.27, "wasted_distance_km": 0.637, "prev_trip": "DA240623017802", "next_trip": "DA240623002511", "prev_O": [114.1699917, 22.2769645], "next_O": [114.1941333, 22.2884017]}, "geometry": {"type": "LineString", "coordinates": [[114.198648, 22.292666], [114.194985, 22.288046]]}}, {"type": "Feature", "properties": {"id": "ghost_TB9578_20240623165139", "plate_no": "TB9578", "gap_start_time": "2024-06-23T16:51:39", "gap_end_time": "2024-06-23T18:00:39", "gap_duration_min": 69.0, "wasted_distance_km": 9.453, "prev_trip": "DA240623002511", "next_trip": "DA240623012102", "prev_O": [114.1941333, 22.2884017], "next_O": [114.1908211, 22.3295298]}, "geometry": {"type": "LineString", "coordinates": [[114.124166, 22.271181], [114.19097, 22.329555]]}}, {"type": "Feature", "properties": {"id": "ghost_TC5012_20240623095804", "plate_no": "TC5012", "gap_start_time": "2024-06-23T09:58:04", "gap_end_time": "2024-06-23T18:15:05", "gap_duration_min": 497.02, "wasted_distance_km": 18.192, "prev_trip": "DA240623013901", "next_trip": "DA240623025702", "prev_O": [114.2541271, 22.3241653], "next_O": [113.9515222, 22.3177635]}, "geometry": {"type": "LineString", "coordinates": [[114.123385, 22.355401], [113.951891, 22.31534]]}}, {"type": "Feature", "properties": {"id": "ghost_TF2479_20240623194734", "plate_no": "TF2479", "gap_start_time": "2024-06-23T19:47:34", "gap_end_time": "2024-06-23T20:30:30", "gap_duration_min": 42.93, "wasted_distance_km": 6.112, "prev_trip": "DA240623008811", "next_trip": "DA240623020302", "prev_O": [114.1613761, 22.3200828], "next_O": [114.1629732, 22.3447141]}, "geometry": {"type": "LineString", "coordinates": [[114.194965, 22.389411], [114.162556, 22.34333], [114.162556, 22.34333]]}}, {"type": "Feature", "properties": {"id": "ghost_TV8531_20240623114900", "plate_no": "TV8531", "gap_start_time": "2024-06-23T11:49:00", "gap_end_time": "2024-06-23T14:30:27", "gap_duration_min": 161.45, "wasted_distance_km": 0.581, "prev_trip": "DA240623004511", "next_trip": "DA240623023211", "prev_O": [114.2045149, 22.3396114], "next_O": [114.1977539, 22.340744]}, "geometry": {"type": "LineString", "coordinates": [[114.202408, 22.341981], [114.19687, 22.340948]]}}, {"type": "Feature", "properties": {"id": "ghost_TV9732_20240623112708", "plate_no": "TV9732", "gap_start_time": "2024-06-23T11:27:08", "gap_end_time": "2024-06-23T17:45:49", "gap_duration_min": 378.68, "wasted_distance_km": 5.226, "prev_trip": "DA240623016311", "next_trip": "DA240623012611", "prev_O": [114.202966, 22.329745], "next_O": [114.1566403, 22.3348917]}, "geometry": {"type": "LineString", "coordinates": [[114.152668, 22.287076], [114.156588, 22.333933]]}}, {"type": "Feature", "properties": {"id": "ghost_TX9739_20240623083425", "plate_no": "TX9739", "gap_start_time": "2024-06-23T08:34:25", "gap_end_time": "2024-06-23T10:30:15", "gap_duration_min": 115.83, "wasted_distance_km": 6.337, "prev_trip": "DA240623015401", "next_trip": "DA240623022001", "prev_O": [114.2702546, 22.2944817], "next_O": [114.159495, 22.2474854]}, "geometry": {"type": "LineString", "coordinates": [[114.198405, 22.290873], [114.159195, 22.24693]]}}, {"type": "Feature", "properties": {"id": "ghost_TX9739_20240623103615", "plate_no": "TX9739", "gap_start_time": "2024-06-23T10:36:15", "gap_end_time": "2024-06-23T12:30:28", "gap_duration_min": 114.22, "wasted_distance_km": 0.461, "prev_trip": "DA240623022001", "next_trip": "DA240623022002", "prev_O": [114.159495, 22.2474854], "next_O": [114.1363749, 22.2524269]}, "geometry": {"type": "LineString", "coordinates": [[114.139043, 22.25175], [114.134563, 22.251858]]}}, {"type": "Feature", "properties": {"id": "ghost_TX9739_20240623123758", "plate_no": "TX9739", "gap_start_time": "2024-06-23T12:37:58", "gap_end_time": "2024-06-23T13:30:27", "gap_duration_min": 52.48, "wasted_distance_km": 2.523, "prev_trip": "DA240623022002", "next_trip": "DA240623006101", "prev_O": [114.1363749, 22.2524269], "next_O": [114.1377977, 22.2585542]}, "geometry": {"type": "LineString", "coordinates": [[114.158118, 22.243376], [114.137683, 22.255906]]}}, {"type": "Feature", "properties": {"id": "ghost_TX9739_20240623140129", "plate_no": "TX9739", "gap_start_time": "2024-06-23T14:01:29", "gap_end_time": "2024-06-23T15:30:20", "gap_duration_min": 88.85, "wasted_distance_km": 10.886, "prev_trip": "DA240623006101", "next_trip": "DA240623010911", "prev_O": [114.1377977, 22.2585542], "next_O": [114.1795494, 22.372727]}, "geometry": {"type": "LineString", "coordinates": [[114.179416, 22.2736], [114.182451, 22.371463]]}}, {"type": "Feature", "properties": {"id": "ghost_TY3250_20240623093655", "plate_no": "TY3250", "gap_start_time": "2024-06-23T09:36:55", "gap_end_time": "2024-06-23T12:15:22", "gap_duration_min": 158.45, "wasted_distance_km": 0.144, "prev_trip": "DA240623009811", "next_trip": "DA240623009911", "prev_O": [114.2623159, 22.3063701], "next_O": [114.1718621, 22.2797481]}, "geometry": {"type": "LineString", "coordinates": [[114.174236, 22.280453], [114.172836, 22.280351]]}}, {"type": "Feature", "properties": {"id": "ghost_TY3250_20240623124552", "plate_no": "TY3250", "gap_start_time": "2024-06-23T12:45:52", "gap_end_time": "2024-06-23T15:30:01", "gap_duration_min": 164.15, "wasted_distance_km": 0.008, "prev_trip": "DA240623009911", "next_trip": "DA240623010011", "prev_O": [114.1718621, 22.2797481], "next_O": [114.198142, 22.331322]}, "geometry": {"type": "LineString", "coordinates": [[114.198453, 22.331756], [114.198526, 22.331781]]}}, {"type": "Feature", "properties": {"id": "ghost_UL4469_20240623110246", "plate_no": "UL4469", "gap_start_time": "2024-06-23T11:02:46", "gap_end_time": "2024-06-23T12:45:16", "gap_duration_min": 102.5, "wasted_distance_km": 0.402, "prev_trip": "DA240623010101", "next_trip": "DA240623010102", "prev_O": [113.976817, 22.387882], "next_O": [113.9792362, 22.3877306]}, "geometry": {"type": "LineString", "coordinates": [[113.975498, 22.386696], [113.979235, 22.387771]]}}, {"type": "Feature", "properties": {"id": "ghost_UL4469_20240623125546", "plate_no": "UL4469", "gap_start_time": "2024-06-23T12:55:46", "gap_end_time": "2024-06-23T16:00:02", "gap_duration_min": 184.27, "wasted_distance_km": 2.426, "prev_trip": "DA240623010102", "next_trip": "DA240623015302", "prev_O": [113.9792362, 22.3877306], "next_O": [113.9694978, 22.4074253]}, "geometry": {"type": "LineString", "coordinates": [[113.980636, 22.386511], [113.96926, 22.40563]]}}, {"type": "Feature", "properties": {"id": "ghost_UM7167_20240623084938", "plate_no": "UM7167", "gap_start_time": "2024-06-23T08:49:38", "gap_end_time": "2024-06-23T10:45:08", "gap_duration_min": 115.5, "wasted_distance_km": 0.202, "prev_trip": "DA240623001501", "next_trip": "DA240623001502", "prev_O": [114.196076, 22.388196], "next_O": [114.1995284, 22.3966363]}, "geometry": {"type": "LineString", "coordinates": [[114.198255, 22.394846], [114.199168, 22.396456]]}}, {"type": "Feature", "properties": {"id": "ghost_UN8698_20240623094523", "plate_no": "UN8698", "gap_start_time": "2024-06-23T09:45:23", "gap_end_time": "2024-06-23T16:00:20", "gap_duration_min": 374.95, "wasted_distance_km": 2.978, "prev_trip": "DA240623013411", "next_trip": "DA240623013611", "prev_O": [114.218399, 22.395536], "next_O": [114.1924793, 22.3876384]}, "geometry": {"type": "LineString", "coordinates": [[114.178431, 22.368565], [114.196286, 22.389655]]}}, {"type": "Feature", "properties": {"id": "ghost_UN9790_20240623085056", "plate_no": "UN9790", "gap_start_time": "2024-06-23T08:50:56", "gap_end_time": "2024-06-23T11:16:28", "gap_duration_min": 145.53, "wasted_distance_km": 0.596, "prev_trip": "DA240623010801", "next_trip": "DA240623010802", "prev_O": [113.9761117, 22.384922], "next_O": [113.979447, 22.408071]}, "geometry": {"type": "LineString", "coordinates": [[113.981085, 22.408695], [113.978076, 22.404116]]}}, {"type": "Feature", "properties": {"id": "ghost_UP3870_20240623083255", "plate_no": "UP3870", "gap_start_time": "2024-06-23T08:32:55", "gap_end_time": "2024-06-23T12:00:13", "gap_duration_min": 207.3, "wasted_distance_km": 2.251, "prev_trip": "DA240623018711", "next_trip": "DA240623019711", "prev_O": [114.2314804, 22.4191167], "next_O": [114.2113817, 22.4136093]}, "geometry": {"type": "LineString", "coordinates": [[114.207815, 22.392898], [114.211591, 22.412838]]}}, {"type": "Feature", "properties": {"id": "ghost_UP3870_20240623122043", "plate_no": "UP3870", "gap_start_time": "2024-06-23T12:20:43", "gap_end_time": "2024-06-23T13:40:38", "gap_duration_min": 79.92, "wasted_distance_km": 8.972, "prev_trip": "DA240623019711", "next_trip": "DA240623006602", "prev_O": [114.2113817, 22.4136093], "next_O": [114.2080934, 22.3884602]}, "geometry": {"type": "LineString", "coordinates": [[114.174968, 22.460786], [114.207095, 22.385761]]}}, {"type": "Feature", "properties": {"id": "ghost_UP3870_20240623140142", "plate_no": "UP3870", "gap_start_time": "2024-06-23T14:01:42", "gap_end_time": "2024-06-23T16:00:07", "gap_duration_min": 118.42, "wasted_distance_km": 7.371, "prev_trip": "DA240623006602", "next_trip": "DA240623014602", "prev_O": [114.2080934, 22.3884602], "next_O": [114.194799, 22.347071]}, "geometry": {"type": "LineString", "coordinates": [[114.218156, 22.284133], [114.194488, 22.346698]]}}, {"type": "Feature", "properties": {"id": "ghost_UP7636_20240623093239", "plate_no": "UP7636", "gap_start_time": "2024-06-23T09:32:39", "gap_end_time": "2024-06-23T12:15:17", "gap_duration_min": 162.63, "wasted_distance_km": 0.486, "prev_trip": "DA240623009211", "next_trip": "DA240623009311", "prev_O": [114.218399, 22.395536], "next_O": [114.1718621, 22.2797481]}, "geometry": {"type": "LineString", "coordinates": [[114.168333, 22.28232], [114.172588, 22.280428]]}}, {"type": "Feature", "properties": {"id": "ghost_UP7636_20240623124117", "plate_no": "UP7636", "gap_start_time": "2024-06-23T12:41:17", "gap_end_time": "2024-06-23T15:30:16", "gap_duration_min": 168.98, "wasted_distance_km": 0.021, "prev_trip": "DA240623009311", "next_trip": "DA240623009411", "prev_O": [114.1718621, 22.2797481], "next_O": [114.198142, 22.331322]}, "geometry": {"type": "LineString", "coordinates": [[114.198113, 22.331666], [114.198266, 22.331541]]}}, {"type": "Feature", "properties": {"id": "ghost_UP9011_20240623093405", "plate_no": "UP9011", "gap_start_time": "2024-06-23T09:34:05", "gap_end_time": "2024-06-23T11:45:05", "gap_duration_min": 131.0, "wasted_distance_km": 0.784, "prev_trip": "DA240623001101", "next_trip": "DA240623005511", "prev_O": [114.2535612, 22.3021561], "next_O": [114.2045149, 22.3396114]}, "geometry": {"type": "LineString", "coordinates": [[114.198326, 22.334545], [114.203815, 22.339435]]}}, {"type": "Feature", "properties": {"id": "ghost_UP9011_20240623115205", "plate_no": "UP9011", "gap_start_time": "2024-06-23T11:52:05", "gap_end_time": "2024-06-23T12:45:05", "gap_duration_min": 53.0, "wasted_distance_km": 0.713, "prev_trip": "DA240623005511", "next_trip": "DA240623001102", "prev_O": [114.2045149, 22.3396114], "next_O": [114.1982293, 22.3342423]}, "geometry": {"type": "LineString", "coordinates": [[114.197591, 22.34101], [114.198466, 22.334653]]}}, {"type": "Feature", "properties": {"id": "ghost_VE6920_20240623141756", "plate_no": "VE6920", "gap_start_time": "2024-06-23T14:17:56", "gap_end_time": "2024-06-23T15:00:00", "gap_duration_min": 42.07, "wasted_distance_km": 5.245, "prev_trip": "DA240623011201", "next_trip": "DA240623005902", "prev_O": [114.2269991, 22.2807278], "next_O": [114.169504, 22.3050535]}, "geometry": {"type": "LineString", "coordinates": [[114.202956, 22.34112], [114.169591, 22.305448]]}}, {"type": "Feature", "properties": {"id": "ghost_VE7538_20240623150354", "plate_no": "VE7538", "gap_start_time": "2024-06-23T15:03:54", "gap_end_time": "2024-06-23T16:00:24", "gap_duration_min": 56.5, "wasted_distance_km": 0.905, "prev_trip": "DA240623025002", "next_trip": "DA240623009002", "prev_O": [114.1261909, 22.3574339], "next_O": [114.1225052, 22.3682938]}, "geometry": {"type": "LineString", "coordinates": [[114.13082, 22.365545], [114.122331, 22.367695]]}}, {"type": "Feature", "properties": {"id": "ghost_VE7751_20240623151958", "plate_no": "VE7751", "gap_start_time": "2024-06-23T15:19:58", "gap_end_time": "2024-06-23T16:30:26", "gap_duration_min": 70.47, "wasted_distance_km": 3.869, "prev_trip": "DA240623018811", "next_trip": "DA240623001702", "prev_O": [114.2084355, 22.3871361], "next_O": [114.209342, 22.389428]}, "geometry": {"type": "LineString", "coordinates": [[114.23013, 22.418245], [114.209335, 22.389246]]}}, {"type": "Feature", "properties": {"id": "ghost_VE7751_20240623165156", "plate_no": "VE7751", "gap_start_time": "2024-06-23T16:51:56", "gap_end_time": "2024-06-23T23:31:25", "gap_duration_min": 399.48, "wasted_distance_km": 4.08, "prev_trip": "DA240623001702", "next_trip": "DA240623023302", "prev_O": [114.209342, 22.389428], "next_O": [114.182023, 22.3012694]}, "geometry": {"type": "LineString", "coordinates": [[114.190275, 22.337473], [114.178381, 22.30247]]}}, {"type": "Feature", "properties": {"id": "ghost_VE8500_20240623092400", "plate_no": "VE8500", "gap_start_time": "2024-06-23T09:24:00", "gap_end_time": "2024-06-23T15:40:05", "gap_duration_min": 376.08, "wasted_distance_km": 0.395, "prev_trip": "DA240623001901", "next_trip": "DA240623001902", "prev_O": [114.2687672, 22.3166476], "next_O": [114.2633643, 22.306645]}, "geometry": {"type": "LineString", "coordinates": [[114.260521, 22.309011], [114.263631, 22.306928]]}}, {"type": "Feature", "properties": {"id": "ghost_VV6972_20240623091704", "plate_no": "VV6972", "gap_start_time": "2024-06-23T09:17:04", "gap_end_time": "2024-06-23T09:47:04", "gap_duration_min": 30.0, "wasted_distance_km": 1.198, "prev_trip": "DA240623012101", "next_trip": "DA240623012001", "prev_O": [114.199602, 22.350058], "next_O": [114.1946068, 22.3396096]}, "geometry": {"type": "LineString", "coordinates": [[114.190376, 22.328561], [114.193808, 22.338855]]}}, {"type": "Feature", "properties": {"id": "ghost_VW7058_20240623100733", "plate_no": "VW7058", "gap_start_time": "2024-06-23T10:07:33", "gap_end_time": "2024-06-23T13:00:03", "gap_duration_min": 172.5, "wasted_distance_km": 0.007, "prev_trip": "DA240623008001", "next_trip": "DA240623008002", "prev_O": [114.0048658, 22.4494779], "next_O": [114.069125, 22.436165]}, "geometry": {"type": "LineString", "coordinates": [[114.069156, 22.436348], [114.069115, 22.436403]]}}, {"type": "Feature", "properties": {"id": "ghost_VY8279_20240623081956", "plate_no": "VY8279", "gap_start_time": "2024-06-23T08:19:56", "gap_end_time": "2024-06-23T12:15:55", "gap_duration_min": 235.98, "wasted_distance_km": 19.493, "prev_trip": "DA240623025701", "next_trip": "DA240623001701", "prev_O": [114.2536773, 22.3225977], "next_O": [114.131021, 22.366219]}, "geometry": {"type": "LineString", "coordinates": [[113.950836, 22.316488], [114.132101, 22.36771]]}}, {"type": "Feature", "properties": {"id": "ghost_VY8279_20240623125855", "plate_no": "VY8279", "gap_start_time": "2024-06-23T12:58:55", "gap_end_time": "2024-06-23T15:00:18", "gap_duration_min": 121.38, "wasted_distance_km": 8.772, "prev_trip": "DA240623001701", "next_trip": "DA240623023911", "prev_O": [114.131021, 22.366219], "next_O": [114.229125, 22.315551]}, "geometry": {"type": "LineString", "coordinates": [[114.208256, 22.39235], [114.228751, 22.315773]]}}, {"type": "Feature", "properties": {"id": "ghost_WP3825_20240623092838", "plate_no": "WP3825", "gap_start_time": "2024-06-23T09:28:38", "gap_end_time": "2024-06-23T11:00:06", "gap_duration_min": 91.47, "wasted_distance_km": 0.277, "prev_trip": "DA240623006501", "next_trip": "DA240623006502", "prev_O": [114.1965379, 22.2923384], "next_O": [114.1724968, 22.3021166]}, "geometry": {"type": "LineString", "coordinates": [[114.17399, 22.303341], [114.171973, 22.301688]]}}, {"type": "Feature", "properties": {"id": "ghost_XE1886_20240623101904", "plate_no": "XE1886", "gap_start_time": "2024-06-23T10:19:04", "gap_end_time": "2024-06-23T14:30:34", "gap_duration_min": 251.5, "wasted_distance_km": 0.27, "prev_trip": "DA240623016911", "next_trip": "DA240623017011", "prev_O": [114.2352187, 22.3175648], "next_O": [114.2575215, 22.3214718]}, "geometry": {"type": "LineString", "coordinates": [[114.257163, 22.321761], [114.254748, 22.32271]]}}, {"type": "Feature", "properties": {"id": "ghost_XE7168_20240623111706", "plate_no": "XE7168", "gap_start_time": "2024-06-23T11:17:06", "gap_end_time": "2024-06-23T12:45:06", "gap_duration_min": 88.0, "wasted_distance_km": 0.533, "prev_trip": "DA240623007411", "next_trip": "DA240623007511", "prev_O": [114.2156772, 22.3177996], "next_O": [114.2156772, 22.3177996]}, "geometry": {"type": "LineString", "coordinates": [[114.216418, 22.322495], [114.215565, 22.317768]]}}, {"type": "Feature", "properties": {"id": "ghost_XE7595_20240623091429", "plate_no": "XE7595", "gap_start_time": "2024-06-23T09:14:29", "gap_end_time": "2024-06-23T10:30:00", "gap_duration_min": 75.52, "wasted_distance_km": 1.388, "prev_trip": "DA240623011711", "next_trip": "DA240623017911", "prev_O": [114.2110747, 22.3283168], "next_O": [114.2334, 22.31663]}, "geometry": {"type": "LineString", "coordinates": [[114.222418, 22.309038], [114.233146, 22.316615]]}}, {"type": "Feature", "properties": {"id": "ghost_XE7595_20240623110300", "plate_no": "XE7595", "gap_start_time": "2024-06-23T11:03:00", "gap_end_time": "2024-06-23T17:00:23", "gap_duration_min": 357.38, "wasted_distance_km": 7.651, "prev_trip": "DA240623017911", "next_trip": "DA240623013711", "prev_O": [114.2334, 22.31663], "next_O": [114.231082, 22.325573]}, "geometry": {"type": "LineString", "coordinates": [[114.229703, 22.25829], [114.230961, 22.327086]]}}, {"type": "Feature", "properties": {"id": "ghost_XN6179_20240623122040", "plate_no": "XN6179", "gap_start_time": "2024-06-23T12:20:40", "gap_end_time": "2024-06-23T13:42:10", "gap_duration_min": 81.5, "wasted_distance_km": 5.371, "prev_trip": "DA240623000202", "next_trip": "DA240623006701", "prev_O": [114.1749415, 22.3700097], "next_O": [114.1737752, 22.3192759]}, "geometry": {"type": "LineString", "coordinates": [[114.178258, 22.368626], [114.1753, 22.320398]]}}, {"type": "Feature", "properties": {"id": "ghost_XV2836_20240623083702", "plate_no": "XV2836", "gap_start_time": "2024-06-23T08:37:02", "gap_end_time": "2024-06-23T12:10:05", "gap_duration_min": 213.05, "wasted_distance_km": 0.33, "prev_trip": "DA240623011011", "next_trip": "DA240623002111", "prev_O": [114.2427183, 22.2646264], "next_O": [114.2337094, 22.262039]}, "geometry": {"type": "LineString", "coordinates": [[114.237283, 22.261511], [114.234448, 22.26289]]}}, {"type": "Feature", "properties": {"id": "ghost_XV7112_20240623092205", "plate_no": "XV7112", "gap_start_time": "2024-06-23T09:22:05", "gap_end_time": "2024-06-23T10:00:05", "gap_duration_min": 38.0, "wasted_distance_km": 0.564, "prev_trip": "DA240623020711", "next_trip": "DA240623013811", "prev_O": [114.0125859, 22.3678397], "next_O": [114.1642456, 22.2463683]}, "geometry": {"type": "LineString", "coordinates": [[114.167168, 22.249348], [114.161785, 22.24842]]}}, {"type": "Feature", "properties": {"id": "ghost_YK3534_20240623075731", "plate_no": "YK3534", "gap_start_time": "2024-06-23T07:57:31", "gap_end_time": "2024-06-23T09:12:01", "gap_duration_min": 74.5, "wasted_distance_km": 0.029, "prev_trip": "DA240623020411", "next_trip": "DA240623020511", "prev_O": [114.2399321, 22.3366271], "next_O": [114.1544713, 22.2492928]}, "geometry": {"type": "LineString", "coordinates": [[114.154296, 22.24878], [114.15449, 22.24897]]}}, {"type": "Feature", "properties": {"id": "ghost_YK4856_20240623091625", "plate_no": "YK4856", "gap_start_time": "2024-06-23T09:16:25", "gap_end_time": "2024-06-23T11:45:49", "gap_duration_min": 149.4, "wasted_distance_km": 5.044, "prev_trip": "DA240623011401", "next_trip": "DA240623005311", "prev_O": [114.155222, 22.3376287], "next_O": [114.2045149, 22.3396114]}, "geometry": {"type": "LineString", "coordinates": [[114.167716, 22.310035], [114.20232, 22.342171]]}}, {"type": "Feature", "properties": {"id": "ghost_YK5072_20240623084040", "plate_no": "YK5072", "gap_start_time": "2024-06-23T08:40:40", "gap_end_time": "2024-06-23T11:45:20", "gap_duration_min": 184.67, "wasted_distance_km": 1.845, "prev_trip": "DA240623013011", "next_trip": "DA240623002811", "prev_O": [114.1861542, 22.3419036], "next_O": [114.182692, 22.31886]}, "geometry": {"type": "LineString", "coordinates": [[114.177443, 22.303165], [114.182785, 22.319006], [114.182785, 22.319006]]}}, {"type": "Feature", "properties": {"id": "ghost_YK5072_20240623115020", "plate_no": "YK5072", "gap_start_time": "2024-06-23T11:50:20", "gap_end_time": "2024-06-23T14:15:24", "gap_duration_min": 145.07, "wasted_distance_km": 3.688, "prev_trip": "DA240623002811", "next_trip": "DA240623007802", "prev_O": [114.182692, 22.31886], "next_O": [114.2176415, 22.3189704]}, "geometry": {"type": "LineString", "coordinates": [[114.182185, 22.319511], [114.218033, 22.318745]]}}, {"type": "Feature", "properties": {"id": "ghost_YK5072_20240623143453", "plate_no": "YK5072", "gap_start_time": "2024-06-23T14:34:53", "gap_end_time": "2024-06-23T18:00:14", "gap_duration_min": 205.35, "wasted_distance_km": 5.761, "prev_trip": "DA240623007802", "next_trip": "DA240623012302", "prev_O": [114.2176415, 22.3189704], "next_O": [114.179118, 22.27986]}, "geometry": {"type": "LineString", "coordinates": [[114.170413, 22.33134], [114.179286, 22.280185]]}}, {"type": "Feature", "properties": {"id": "ghost_YK905_20240623094024", "plate_no": "YK905", "gap_start_time": "2024-06-23T09:40:24", "gap_end_time": "2024-06-23T12:00:24", "gap_duration_min": 140.0, "wasted_distance_km": 17.095, "prev_trip": "DA240623014801", "next_trip": "DA240623022111", "prev_O": [114.2183846, 22.3955654], "next_O": [114.1385736, 22.3702836]}, "geometry": {"type": "LineString", "coordinates": [[113.975473, 22.39966], [114.13876, 22.370685]]}}, {"type": "Feature", "properties": {"id": "ghost_YK9198_20240623161814", "plate_no": "YK9198", "gap_start_time": "2024-06-23T16:18:14", "gap_end_time": "2024-06-23T20:23:14", "gap_duration_min": 245.0, "wasted_distance_km": 2.478, "prev_trip": "DA240623010202", "next_trip": "DA240623013211", "prev_O": [114.1870721, 22.3386224], "next_O": [114.1861542, 22.3419036]}, "geometry": {"type": "LineString", "coordinates": [[114.190366, 22.321435], [114.186478, 22.343426]]}}, {"type": "Feature", "properties": {"id": "ghost_YL1792_20240623102718", "plate_no": "YL1792", "gap_start_time": "2024-06-23T10:27:18", "gap_end_time": "2024-06-23T14:45:29", "gap_duration_min": 258.18, "wasted_distance_km": 6.305, "prev_trip": "DA240623012201", "next_trip": "DA240623024911", "prev_O": [114.226377, 22.2763558], "next_O": [114.1604226, 22.3305507]}, "geometry": {"type": "LineString", "coordinates": [[114.181615, 22.277595], [114.16057, 22.330851]]}}, {"type": "Feature", "properties": {"id": "ghost_YY7490_20240623113231", "plate_no": "YY7490", "gap_start_time": "2024-06-23T11:32:31", "gap_end_time": "2024-06-23T13:15:01", "gap_duration_min": 102.5, "wasted_distance_km": 3.029, "prev_trip": "DA240623001302", "next_trip": "DA240623020811", "prev_O": [114.137493, 22.2572259], "next_O": [114.1647967, 22.2491964]}, "geometry": {"type": "LineString", "coordinates": [[114.136896, 22.258196], [114.164711, 22.249303]]}}, {"type": "Feature", "properties": {"id": "ghost_YZ2545_20240623110606", "plate_no": "YZ2545", "gap_start_time": "2024-06-23T11:06:06", "gap_end_time": "2024-06-23T16:15:09", "gap_duration_min": 309.05, "wasted_distance_km": 0.379, "prev_trip": "DA240623002211", "next_trip": "DA240623002311", "prev_O": [114.1567547, 22.4475678], "next_O": [114.1941333, 22.2884017]}, "geometry": {"type": "LineString", "coordinates": [[114.19596, 22.290628], [114.194053, 22.287713]]}}, {"type": "Feature", "properties": {"id": "ghost_YZ2545_20240623163953", "plate_no": "YZ2545", "gap_start_time": "2024-06-23T16:39:53", "gap_end_time": "2024-06-23T18:31:56", "gap_duration_min": 112.05, "wasted_distance_km": 24.748, "prev_trip": "DA240623002311", "next_trip": "DA240623015611", "prev_O": [114.1941333, 22.2884017], "next_O": [114.1360446, 22.5035068]}, "geometry": {"type": "LineString", "coordinates": [[114.238173, 22.300853], [114.136118, 22.502428]]}}, {"type": "Feature", "properties": {"id": "ghost_ZA3406_20240623115520", "plate_no": "ZA3406", "gap_start_time": "2024-06-23T11:55:20", "gap_end_time": "2024-06-23T14:35:09", "gap_duration_min": 159.82, "wasted_distance_km": 0.398, "prev_trip": "DA240623005111", "next_trip": "DA240623023411", "prev_O": [114.2045149, 22.3396114], "next_O": [114.1977539, 22.340744]}, "geometry": {"type": "LineString", "coordinates": [[114.200655, 22.34286], [114.197351, 22.340993]]}}, {"type": "Feature", "properties": {"id": "ghost_ZA4388_20240623085756", "plate_no": "ZA4388", "gap_start_time": "2024-06-23T08:57:56", "gap_end_time": "2024-06-23T13:15:07", "gap_duration_min": 257.18, "wasted_distance_km": 0.067, "prev_trip": "DA240623000601", "next_trip": "DA240623000602", "prev_O": [114.125774, 22.493591], "next_O": [114.2174678, 22.3987589]}, "geometry": {"type": "LineString", "coordinates": [[114.21751, 22.398353], [114.216868, 22.39825]]}}, {"type": "Feature", "properties": {"id": "ghost_ZA6585_20240623093105", "plate_no": "ZA6585", "gap_start_time": "2024-06-23T09:31:05", "gap_end_time": "2024-06-23T10:00:08", "gap_duration_min": 29.05, "wasted_distance_km": 0.252, "prev_trip": "DA240623018601", "next_trip": "DA240623001001", "prev_O": [114.1762008, 22.2730789], "next_O": [114.1927476, 22.2834462]}, "geometry": {"type": "LineString", "coordinates": [[114.190553, 22.28521], [114.192106, 22.283463]]}}, {"type": "Feature", "properties": {"id": "ghost_ZA6585_20240623103019", "plate_no": "ZA6585", "gap_start_time": "2024-06-23T10:30:19", "gap_end_time": "2024-06-23T12:45:28", "gap_duration_min": 135.15, "wasted_distance_km": 4.891, "prev_trip": "DA240623001001", "next_trip": "DA240623017801", "prev_O": [114.1927476, 22.2834462], "next_O": [114.2012365, 22.2911583]}, "geometry": {"type": "LineString", "coordinates": [[114.155433, 22.279645], [114.201173, 22.291621]]}}, {"type": "Feature", "properties": {"id": "ghost_ZA6585_20240623125758", "plate_no": "ZA6585", "gap_start_time": "2024-06-23T12:57:58", "gap_end_time": "2024-06-23T14:15:13", "gap_duration_min": 77.25, "wasted_distance_km": 2.31, "prev_trip": "DA240623017801", "next_trip": "DA240623018602", "prev_O": [114.2012365, 22.2911583], "next_O": [114.1928304, 22.2835136]}, "geometry": {"type": "LineString", "coordinates": [[114.170401, 22.279076], [114.192353, 22.283436]]}}, {"type": "Feature", "properties": {"id": "ghost_ZA6585_20240623142743", "plate_no": "ZA6585", "gap_start_time": "2024-06-23T14:27:43", "gap_end_time": "2024-06-23T15:45:05", "gap_duration_min": 77.37, "wasted_distance_km": 0.449, "prev_trip": "DA240623018602", "next_trip": "DA240623006102", "prev_O": [114.1928304, 22.2835136], "next_O": [114.1801167, 22.2743826]}, "geometry": {"type": "LineString", "coordinates": [[114.17581, 22.273073], [114.179706, 22.274893]]}}, {"type": "Feature", "properties": {"id": "ghost_ZA6941_20240623073850", "plate_no": "ZA6941", "gap_start_time": "2024-06-23T07:38:50", "gap_end_time": "2024-06-23T08:45:10", "gap_duration_min": 66.33, "wasted_distance_km": 1.315, "prev_trip": "DA240623015101", "next_trip": "DA240623015201", "prev_O": [114.136552, 22.250488], "next_O": [114.1566154, 22.241485]}, "geometry": {"type": "LineString", "coordinates": [[114.147303, 22.249756], [114.156881, 22.241923]]}}, {"type": "Feature", "properties": {"id": "ghost_ZA6941_20240623085310", "plate_no": "ZA6941", "gap_start_time": "2024-06-23T08:53:10", "gap_end_time": "2024-06-23T11:20:10", "gap_duration_min": 147.0, "wasted_distance_km": 0.074, "prev_trip": "DA240623015201", "next_trip": "DA240623015202", "prev_O": [114.1566154, 22.241485], "next_O": [114.1479578, 22.2498707]}, "geometry": {"type": "LineString", "coordinates": [[114.14725, 22.249668], [114.147965, 22.24974]]}}, {"type": "Feature", "properties": {"id": "ghost_ZA6941_20240623112725", "plate_no": "ZA6941", "gap_start_time": "2024-06-23T11:27:25", "gap_end_time": "2024-06-23T13:50:09", "gap_duration_min": 142.73, "wasted_distance_km": 3.933, "prev_trip": "DA240623015202", "next_trip": "DA240623018211", "prev_O": [114.1479578, 22.2498707], "next_O": [114.1272602, 22.2805453]}, "geometry": {"type": "LineString", "coordinates": [[114.149948, 22.251538], [114.127635, 22.28026]]}}]}